PROPERTY_ADDRESS,FULL_ADDRESS,NAME,SuppHsg,DBI_VIOLATIONS,Lat,Long
505 26th AV,505 26th Av,NA,No,242,37.779731,-122.485978
74 6th ST,74 6th St,*Baldwin Hotel,No,175,37.781048,-122.409359
131 HUGO ST,131 Hugo St,NA,No,159,37.765046,-122.459444
106 6th ST,106 6th St,*Henry Hotel,No,153,37.78063,-122.408662
2524 LOMBArd ST,2524 Lombard St,Bridge Motel,No,140,37.79925,-122.443332
445 OFARRELL ST,445 O'Farrell St,*Winton Hotel,No,135,37.785642,-122.411958
20 12th ST,20 12th St,*Civic Center Hotel,No,126,37.773915,-122.420026
376 ELLIS ST,376 Ellis St,NA,No,125,37.785206,-122.41238
2048 POLK ST,2048 Polk St,Broadway Hotel,No,108,37.795678,-122.421498
890 47th AV,890 47th Av,NA,No,80,37.771716,-122.5076
1751 MARKET ST,1751 Market St,NA,No,65,37.771875,-122.422866
2055 SACRAMENTO ST,2055 Sacramento St,NA,No,60,37.790484,-122.426645
1612 PALOU AV,1612 Palou Av,NA,No,59,37.734373,-122.391181
710 ELLIS ST,710 Ellis St,NA,No,56,37.784385,-122.41803
333 RANDOLPH ST,333 Randolph St,NA,No,53,37.714065,-122.465747
270 TURK ST,270 Turk St,NA,No,52,37.78314,-122.413606
138 HYDE ST,138 Hyde St,NA,No,52,37.782216,-122.415256
1430 LARKIN ST,1430 Larkin St,NA,No,52,37.791267,-122.418837
2072 MISSION ST,2072 Mission St,NA,No,50,37.763845,-122.419873
1449 POWELL ST,1449 Powell St,NA,No,48,37.797988,-122.410752
2612 FOLSOM ST,2612 Folsom St,NA,No,46,37.755365,-122.414705
421 ELLIS ST,421 Ellis St,NA,No,45,37.784674,-122.413016
1486 UNDERWOOD AV,1486 Underwood Av,NA,No,44,37.728777,-122.389531
941 SHOTWELL ST,941 Shotwell St,NA,No,44,37.753388,-122.414926
512 SHOTWELL ST,512 Shotwell St,NA,No,40,37.760104,-122.416218
964 HOWArd ST,964 Howard St,NA,No,40,37.780539,-122.406543
22 DAY ST,22 Day St,NA,No,40,37.743344,-122.423302
1016 SHOTWELL ST,1016 Shotwell St,NA,No,40,37.751789,-122.415423
555 EDDY ST,555 Eddy St,NA,No,40,37.783118,-122.416765
901 VALENCIA ST,901 Valencia St,NA,No,39,37.758351,-122.420958
250 POINT LOBOS AV,250 Point Lobos Av,NA,No,38,37.780185,-122.506019
25 SCOTLAND ST,25 Scotland St,NA,No,36,37.801734,-122.412604
54 AUBURN ST,54 Auburn St,NA,No,36,37.79599,-122.412387
1334 VAN NESS AV,1334 Van Ness Av,NA,No,36,37.788159,-122.421495
3500 MARKET ST,3500 Market St,NA,No,36,37.756414,-122.442229
2882 23rd ST,2882 23rd St,NA,No,36,37.75455,-122.410006
1941 MISSION ST,1941 Mission St,NA,No,35,37.766032,-122.419411
4733 MISSION ST,4733 Mission St,NA,No,35,37.7225,-122.436118
1408 CALIFORNIA ST,1408 California St,NA,No,35,37.791176,-122.417704
317 LEAVENWORth ST,317 Leavenworth St,NA,No,34,37.783914,-122.414465
1600 CLEMENT ST,1600 Clement St,NA,No,34,37.782578,-122.476647
634 POWELL ST,634 Powell St,NA,No,34,37.790747,-122.40859
1099 SOUth VAN NESS AV,1099 South Van Ness Av,NA,No,34,37.755716,-122.41635
47 SOUth PARK *,47 South Park,NA,No,34,37.781408,-122.393529
1424 POLK ST,1424 Polk St,NA,No,33,37.790064,-122.420324
915 DWIGHT ST,915 Dwight St,NA,No,33,37.721358,-122.411195
519 CAPP ST,519 Capp St,NA,No,32,37.757938,-122.417606
3747 JACKSON ST,3747 Jackson St,NA,No,32,37.789404,-122.456491
884 ALABAMA ST,884 Alabama St,NA,No,32,37.75781,-122.411645
719 NEWHALL ST,719 Newhall St,NA,No,32,37.739627,-122.388298
1272 MARKET ST,1272 Market St,NA,No,32,37.77811,-122.416059
570 5th AV,570 5th Av,NA,No,31,37.777888,-122.462654
2084 MISSION ST,2084 Mission St,NA,No,31,37.763744,-122.419863
324 BARTLETT ST,324 Bartlett St,NA,No,30,37.751261,-122.419773
402 BROADWAY *,402 Broadway,NA,No,30,37.798497,-122.404099
1041 VALENCIA ST,1041 Valencia St,NA,No,30,37.756307,-122.420706
1325 GREEN ST,1325 Green St,NA,No,30,37.797742,-122.420931
16 WALTER ST,16 Walter St,NA,No,30,37.768829,-122.432702
519 ELLIS ST,519 Ellis St,NA,No,29,37.784298,-122.415004
2420 VAN NESS AV,2420 Van Ness Av,NA,No,29,37.798005,-122.423434
1139 MARKET ST,1139 Market St,NA,No,29,37.779533,-122.413018
3192 24th ST,3192 24th St,NA,No,29,37.752517,-122.41597
35 RUSSIA AV,35 Russia Av,NA,No,29,37.72154,-122.436372
1139 GUERRERO ST,1139 Guerrero St,NA,No,28,37.753033,-122.422661
1018 MISSION ST,1018 Mission St,NA,No,28,37.780704,-122.409452
1431 OAK ST,1431 Oak St,NA,No,28,37.772178,-122.442919
683 BROADWAY *,683 Broadway,NA,No,28,37.797527,-122.408308
371 TURK ST,371 Turk St,NA,No,28,37.782426,-122.41511
373 ELLIS ST,373 Ellis St,Coronado Hotel,Yes,28,37.784646,-122.41228
1227 NEWHALL ST,1227 Newhall St,NA,No,28,37.736518,-122.391145
355 SERRANO DR,355 Serrano Dr,NA,No,28,37.718266,-122.480908
2200 LEAVENWORth ST,2200 Leavenworth St,NA,No,27,37.801491,-122.417479
28 CLARION AL,28 Clarion Al,NA,No,27,37.763079,-122.420173
6674 3rd ST,6674 3rd St,NA,No,27,37.718403,-122.398266
1090 PLYMOUth AV,1090 Plymouth Av,NA,No,27,37.721627,-122.455975
263 26th AV,263 26th Av,NA,No,27,37.78451,-122.486463
1312 UTAH ST,1312 Utah St,NA,No,27,37.752822,-122.405532
922 POST ST,922 Post St,NA,No,27,37.787477,-122.417095
1538 PALOU AV,1538 Palou Av,NA,No,27,37.73355,-122.389624
244 GUERRERO ST,244 Guerrero St,NA,No,27,37.767272,-122.424713
751 MADRID ST,751 Madrid St,NA,No,27,37.717579,-122.435515
5211 MISSION ST,5211 Mission St,NA,No,26,37.714986,-122.441854
558 BROADWAY *,558 Broadway,NA,No,26,37.798184,-122.406564
168 HYDE ST,168 Hyde St,NA,No,26,37.782383,-122.415447
1105 LARKIN ST,1105 Larkin St,NA,No,26,37.788195,-122.418734
69 HILL ST,69 Hill St,NA,No,26,37.755765,-122.422575
925 GEARY ST,925 Geary St,NA,No,26,37.785791,-122.418496
4734 MISSION ST,4734 Mission St,NA,No,26,37.722501,-122.436823
125 PALM AV,125 Palm Av,NA,No,26,37.783186,-122.458216
112 PFEIFFER ST,112 Pfeiffer St,NA,No,26,37.804918,-122.408718
1030 STEINER ST,1030 Steiner St,NA,No,26,37.778896,-122.433142
49 OLIVER ST,49 Oliver St,NA,No,26,37.709038,-122.449781
1216 FULTON ST,1216 Fulton St,NA,No,26,37.777243,-122.437409
270 PARKER AV,270 Parker Av,NA,No,26,37.780697,-122.453612
542 CLAYTON ST,542 Clayton St,NA,No,25,37.770199,-122.448365
2641 MISSION ST,2641 Mission St,NA,No,25,37.754801,-122.41833
280 OFARRELL ST,280 Ofarrell St,NA,No,25,37.786443,-122.409303
40 SYCAMORE ST,40 Sycamore St,NA,No,25,37.762842,-122.420355
570 OFARRELL ST,570 Ofarrell St,NA,No,25,37.785806,-122.414121
195 EUREKA ST,195 Eureka St,NA,No,25,37.759291,-122.437983
867 ALABAMA ST,867 Alabama St,NA,No,25,37.758051,-122.4112
50 TURK ST,50 Turk St,NA,No,24,37.78359,-122.410063
125 ASHBURY ST,125 Ashbury St,NA,No,24,37.774221,-122.448091
208 DORLAND ST,208 Dorland St,NA,No,24,37.762349,-122.429064
1415 SHAFTER AV,1415 Shafter Av,NA,No,24,37.728909,-122.387502
405 VALENCIA ST,405 Valencia St,Royan Hotel,Yes,24,37.766409,-122.421714
241 6th ST,241 6th St,Knox Hotel,Yes,24,37.779375,-122.406258
3128 24th ST,3128 24th St,NA,No,24,37.752701,-122.414703
5169 MISSION ST,5169 Mission St,NA,No,24,37.715897,-122.441082
2037 TURK BL,2037 Turk Bl,NA,No,24,37.778864,-122.442676
4047 BALBOA ST,4047 Balboa St,NA,No,24,37.775303,-122.50239
1635 JONES ST,1635 Jones St,NA,No,23,37.796393,-122.415398
3473 17th ST,3473 17th St,NA,No,23,37.762985,-122.423362
719 ELLIS ST,719 Ellis St,NA,No,23,37.784052,-122.417952
300 HAMILTON ST,300 Hamilton St,NA,No,23,37.727048,-122.410274
640 POST ST,640 Post St,NA,No,23,37.787959,-122.412477
501 19th AV,501 19th Av,NA,No,23,37.778301,-122.478417
495 EDINBURG ST,495 Edinburg St,NA,No,23,37.721217,-122.431678
1278 MARKET ST,1278 Market St,NA,No,23,37.77798,-122.416203
310 OTSEGO AV,310 Otsego Av,NA,No,23,37.723133,-122.441394
814 CALIFORNIA ST,814 California St,NA,No,23,37.792417,-122.408002
624 ELLIS ST,624 Ellis St,NA,No,23,37.784605,-122.416568
5225 MISSION ST,5225 Mission St,NA,No,23,37.715139,-122.441841
1266 DE HARO ST,1266 De Haro St,NA,No,23,37.75373,-122.400851
375 24th AV,375 24th Av,NA,No,23,37.782541,-122.484167
2834 SAN JOSE AV,2834 San Jose Av,NA,No,23,37.712595,-122.454661
2477 MISSION ST,2477 Mission St,NA,No,23,37.757409,-122.418619
307 CAPP ST,307 Capp St,NA,No,23,37.761695,-122.417935
2973 FOLSOM ST,2973 Folsom St,NA,No,22,37.749782,-122.413484
1945 CLAY ST,1945 Clay St,NA,No,22,37.791597,-122.42507
463 6th AV,463 6th Av,NA,No,22,37.779771,-122.464524
2629 MISSION ST,2629 Mission St,NA,No,22,37.75502,-122.418351
940 HAMPSHIRE ST,940 Hampshire St,NA,No,22,37.757025,-122.407968
447 7th AV,447 7th Av,NA,No,22,37.779997,-122.465614
664 27th AV,664 27th Av,NA,No,22,37.776899,-122.486326
450 23rd AV,450 23rd Av,NA,No,22,37.779177,-122.482187
1001 PINE ST,1001 Pine St,NA,No,22,37.790348,-122.412568
5176 MISSION ST,5176 Mission St,NA,No,22,37.71598,-122.441731
669 PENNSYLVANIA AV,669 Pennsylvania Av,NA,No,22,37.758133,-122.392836
387 ELLIS ST,387 Ellis St,Mentone Hotel,Yes,22,37.784684,-122.412529
1260 KEARNY ST,1260 Kearny St,NA,No,22,37.799781,-122.405648
407 BROADWAY *,407 Broadway,NA,No,22,37.797989,-122.404029
150 PORTOLA DR,150 Portola Dr,NA,No,21,37.748588,-122.444469
1265 JACKSON ST,1265 Jackson St,NA,No,21,37.794566,-122.415927
4631 IRVING ST,4631 Irving St,NA,No,21,37.761965,-122.507735
237 ROLPH ST,237 Rolph St,NA,No,21,37.714202,-122.437565
1010 BUSH ST,1010 Bush St,NA,No,21,37.789733,-122.413997
150 FRANKLIN ST,150 Franklin St,NA,No,21,37.77593,-122.420891
270 MCALLISTER ST,270 Mcallister St,McAllister Hotel,Yes,21,37.780856,-122.416516
155 HYDE ST,155 Hyde St,NA,No,21,37.78235,-122.415875
947 GREEN ST,947 Green St,NA,No,21,37.798527,-122.414569
1135 GUERRERO ST,1135 Guerrero St,NA,No,21,37.753033,-122.422661
1719 17th AV,1719 17th Av,NA,No,21,37.755771,-122.474764
1014 MASONIC AV,1014 Masonic Av,NA,No,21,37.771852,-122.445358
990 GEARY ST,990 Geary St,NA,No,21,37.786187,-122.419486
1401 HYDE ST,1401 Hyde St,NA,No,21,37.793749,-122.418266
312 FILLMORE ST,312 Fillmore St,NA,No,21,37.772357,-122.430268
1153 FLORIDA ST,1153 Florida St,NA,No,21,37.75352,-122.409863
90 DIVISADERO ST,90 Divisadero St,NA,No,20,37.768722,-122.436429
3223 17th ST,3223 17th St,NA,No,20,37.7633,-122.41792
358 12th AV,358 12th Av,NA,No,20,37.781567,-122.470435
2417 CLEMENT ST,2417 Clement St,NA,No,20,37.781757,-122.485214
562 37th AV,562 37th Av,NA,No,20,37.77829,-122.497177
648 7th AV,648 7th Av,NA,No,20,37.776027,-122.464667
761 MINNA ST,761 Minna St,NA,No,20,37.776181,-122.413415
1455 CLAY ST,1455 Clay St,NA,No,20,37.792622,-122.416998
3186 24th ST,3186 24th St,NA,No,20,37.752517,-122.41597
530 LARKIN ST,530 Larkin St,NA,No,20,37.782808,-122.417064
1555 LA SALLE AV,1555 La Salle Av,NA,No,20,37.735945,-122.387973
884 14th ST,884 14th St,NA,No,20,37.767715,-122.43307
420 DIAMOND ST,420 Diamond St,NA,No,20,37.755514,-122.43706
1616 PALOU AV,1616 Palou Av,NA,No,20,37.734491,-122.391329
3434 CALIFORNIA ST,3434 California St,NA,No,20,37.78705,-122.45081
528 VALENCIA ST,528 Valencia St,NA,No,20,37.764415,-122.422136
3457 MISSION ST,3457 Mission St,NA,No,20,37.741322,-122.422065
620 EDDY ST,620 Eddy St,NA,No,20,37.783506,-122.41808
2828 GEARY BL,2828 Geary Bl,NA,No,20,37.782479,-122.449665
2135 MISSION ST,2135 Mission St,NA,No,20,37.762857,-122.419103
1288 MISSION ST,1288 Mission St,NA,No,20,37.776554,-122.414678
3510 18th ST,3510 18th St,NA,No,20,37.761813,-122.421906
1990 BEACH ST,1990 Beach St,NA,No,20,37.803953,-122.441651
401 43rd AV,401 43rd Av,NA,No,20,37.780944,-122.504476
460 SOUth VAN NESS AV,460 South Van Ness Av,NA,No,20,37.765852,-122.417825
1580 JACKSON ST,1580 Jackson St,NA,No,20,37.794456,-122.421102
1112 LARKIN ST,1112 Larkin St,NA,No,20,37.788207,-122.418293
488 CASTRO ST,488 Castro St,NA,No,19,37.761104,-122.43532
1440 CLAY ST,1440 Clay St,NA,No,19,37.793184,-122.416809
3330 26th ST,3330 26th St,NA,No,19,37.74931,-122.416594
1108 TREAT AV,1108 Treat Av,NA,No,19,37.752173,-122.413165
410 SHRADER ST,410 Shrader St,NA,No,19,37.770864,-122.451861
775 POST ST,775 Post St,NA,No,19,37.787219,-122.414588
1089 OAKDALE AV,1089 Oakdale Av,NA,No,19,37.728935,-122.380417
88 CRESTLINE DR,88 Crestline Dr,NA,No,19,37.752267,-122.446264
1327 LEAVENWORth ST,1327 Leavenworth St,NA,No,19,37.793513,-122.416575
30 SYCAMORE ST,30 Sycamore St,NA,No,19,37.762853,-122.420173
71 CURTIS ST,71 Curtis St,NA,No,19,37.71363,-122.439396
647 5th AV,647 5th Av,NA,No,19,37.776369,-122.463202
3735 ANZA ST,3735 Anza St,NA,No,19,37.777746,-122.488357
940 JONES ST,940 Jones St,NA,No,19,37.790099,-122.413568
650 CHURCH ST,650 Church St,NA,No,19,37.760346,-122.428582
273 TEDDY AV,273 Teddy Av,NA,No,19,37.71478,-122.40808
55 POLK ST,55 Polk St,NA,No,19,37.77714,-122.41824
51 6th ST,51 6th St,Hillsdale Hotel,Yes,19,37.781687,-122.409222
1126 CLAY ST,1126 Clay St,NA,No,19,37.793804,-122.411775
27 DASHIELL HAMMETT ST,27 Dashiell Hammett St,NA,No,19,37.79065,-122.408148
2226 CALIFORNIA ST,2226 California St,NA,No,19,37.789552,-122.43114
1991 CALIFORNIA ST,1991 California St,NA,No,18,37.789392,-122.427
633 ARGUELLO BL,633 Arguello Bl,NA,No,18,37.778429,-122.45905
1129 UNION ST,1129 Union St,NA,No,18,37.799093,-122.417896
191 SICKLES AV,191 Sickles Av,NA,No,18,37.709903,-122.454572
2393 MISSION ST,2393 Mission St,NA,No,18,37.758855,-122.418766
1825 HAIGHT ST,1825 Haight St,NA,No,18,37.769035,-122.452306
274 GREEN ST,274 Green St,NA,No,18,37.800342,-122.403815
715 CLEMENTINA ST,715 Clementina St,NA,No,18,37.775066,-122.410798
117 BARTLETT ST,117 Bartlett St,NA,No,18,37.754797,-122.419483
528 NATOMA ST,528 Natoma St,NA,No,18,37.779734,-122.40852
1777 HAIGHT ST,1777 Haight St,NA,No,18,37.769207,-122.45137
1445 WALLER ST,1445 Waller St,NA,No,18,37.768824,-122.447413
157 BARTLETT ST,157 Bartlett St,NA,No,18,37.754456,-122.419451
1739 JONES ST,1739 Jones St,NA,No,18,37.797386,-122.415549
144 PEABODY ST,144 Peabody St,NA,No,18,37.710513,-122.407636
712 SHOTWELL ST,712 Shotwell St,NA,No,18,37.75691,-122.415869
3233 23rd ST,3233 23rd St,NA,No,18,37.753783,-122.417098
212 26th AV,212 26th Av,NA,No,18,37.785365,-122.485966
4210 BALBOA ST,4210 Balboa St,NA,No,18,37.775651,-122.50403
825 POST ST,825 Post St,NA,No,18,37.787128,-122.41529
1835 NORIEGA ST,1835 Noriega St,NA,No,18,37.753672,-122.483608
2691 ALEMANY BL,2691 Alemany Bl,NA,No,18,37.713811,-122.448529
225 HYDE ST,225 Hyde St,NA,No,18,37.782912,-122.416118
3147 ANZA ST,3147 Anza St,NA,No,18,37.77813,-122.48218
2023 FOLSOM ST,2023 Folsom St,NA,No,18,37.764902,-122.414949
733 GREENWICH ST,733 Greenwich St,NA,No,18,37.801752,-122.411851
611 MINNA ST,611 Minna St,NA,No,18,37.778378,-122.410639
868 SHOTWELL ST,868 Shotwell St,NA,No,17,37.754521,-122.415685
15 NOBLES AL,15 Nobles Al,NA,No,17,37.800869,-122.407272
2280 MISSION ST,2280 Mission St,NA,No,17,37.760573,-122.419541
3491 20th ST,3491 20th St,NA,No,17,37.758437,-122.418678
1254 LEAVENWORth ST,1254 Leavenworth St,NA,No,17,37.792855,-122.415782
1250 SILVER AV,1250 Silver Av,NA,No,17,37.730453,-122.411168
571 VALENCIA ST,571 Valencia St,NA,No,17,37.763818,-122.421486
355 BOCANA ST,355 Bocana St,NA,No,17,37.7386,-122.418696
409 34th AV,409 34th Av,NA,No,17,37.781282,-122.494719
517 BROADWAY *,517 Broadway,NA,No,17,37.797746,-122.405865
1508 UNDERWOOD AV,1508 Underwood Av,NA,No,17,37.729178,-122.390244
641 O'FARRELL ST,641 O'Farrell St,NA,No,17,37.7852,-122.41547
3219 23rd ST,3219 23rd St,NA,No,17,37.753732,-122.41688
175 23rd AV,175 23rd Av,NA,No,17,37.784451,-122.483234
1617 PALOU AV,1617 Palou Av,NA,No,17,37.734048,-122.391565
2438 MISSION ST,2438 Mission St,NA,No,17,37.757961,-122.419288
2702 MISSION ST,2702 Mission St,NA,No,17,37.753609,-122.418882
7700 GEARY BL,7700 Geary Bl,NA,No,17,37.779852,-122.502142
2683 BRYANT ST,2683 Bryant St,NA,No,17,37.751556,-122.408734
453 23rd AV,453 23rd Av,NA,No,17,37.779147,-122.482847
249 OAK ST,249 Oak St,NA,No,17,37.774664,-122.423321
6666 3rd ST,6666 3rd St,NA,No,17,37.718473,-122.398083
3182 24th ST,3182 24th St,NA,No,17,37.752517,-122.41597
1046 MASON ST,1046 Mason St,NA,No,17,37.793374,-122.410893
1325 NEWHALL ST,1325 Newhall St,NA,No,17,37.735793,-122.391905
372 WEST PORTAL AV,372 West Portal Av,NA,No,17,37.737202,-122.470427
766 7th AV,766 7th Av,NA,No,17,37.774164,-122.464532
1010 POST ST,1010 Post St,NA,No,17,37.787282,-122.418583
58 SHOTWELL ST,58 Shotwell St,NA,No,17,37.767508,-122.416927
2390 14th AV,2390 14th Av,NA,No,17,37.743544,-122.470079
370 SHOTWELL ST,370 Shotwell St,NA,No,17,37.762544,-122.416451
3309 21ST ST,3309 21St St,NA,No,17,37.756692,-122.421398
1591 PAGE ST,1591 Page St,NA,No,17,37.770848,-122.446826
1911 BRODERICK ST,1911 Broderick St,NA,No,17,37.788333,-122.442472
1732 POST ST,1732 Post St,NA,No,16,37.785779,-122.430401
2220 CAYUGA AV,2220 Cayuga Av,NA,No,16,37.710147,-122.45504
157 SAINT CHARLES AV,157 Saint Charles Av,NA,No,16,37.711252,-122.469036
205 9th ST,205 9th St,NA,No,16,37.775036,-122.412817
638 RHODE ISLAND ST,638 Rhode Island St,NA,No,16,37.761675,-122.402586
48 6th ST,48 6th St,NA,No,16,37.781353,-122.409585
37 6th ST,37 6th St,NA,No,16,37.781852,-122.409422
819 OAK ST,819 Oak St,NA,No,16,37.773483,-122.432783
755 CAPITOL AV,755 Capitol Av,NA,No,16,37.717305,-122.459304
776 BUSH ST,776 Bush St,NA,No,16,37.79026,-122.410041
2834 CALIFORNIA ST,2834 California St,NA,No,16,37.788278,-122.441157
4100 FULTON ST,4100 Fulton St,NA,No,16,37.77313,-122.475896
534 BROADWAY *,534 Broadway,NA,No,16,37.798235,-122.406158
120 TRENTON ST,120 Trenton St,NA,No,16,37.796043,-122.408999
2737 SAN BRUNO AV,2737 San Bruno Av,NA,No,16,37.727196,-122.403137
179 LEXINGTON ST,179 Lexington St,NA,No,16,37.760583,-122.420493
76 ALPHA ST,76 Alpha St,NA,No,16,37.715301,-122.40314
2 DIAMOND ST,2 Diamond St,NA,No,16,37.762153,-122.437499
161 POWELL ST,161 Powell St,NA,No,16,37.786162,-122.408326
689 3rd AV,689 3rd Av,NA,No,16,37.775783,-122.460967
1047 BUSH ST,1047 Bush St,NA,No,16,37.789157,-122.414403
145 FELL ST,145 Fell St,NA,No,16,37.776012,-122.420248
760 GEARY ST,760 Geary St,NA,No,16,37.786671,-122.415867
2877 FOLSOM ST,2877 Folsom St,NA,No,16,37.751298,-122.413629
1831 LARKIN ST,1831 Larkin St,NA,No,16,37.794788,-122.420159
1878 MARKET ST,1878 Market St,NA,No,16,37.771214,-122.424762
210 PAGE ST,210 Page St,NA,No,16,37.773993,-122.424323
645 MOSCOW ST,645 Moscow St,NA,No,16,37.717279,-122.430292
919 CAPITOL AV,919 Capitol Av,NA,No,16,37.718604,-122.459506
245 RICHLAND AV,245 Richland Av,NA,No,16,37.736086,-122.421931
1855 CALIFORNIA ST,1855 California St,NA,No,16,37.789749,-122.424766
674 MORSE ST,674 Morse St,NA,No,16,37.71142,-122.445806
3449 22ND ST,3449 22Nd St,NA,No,16,37.754944,-122.424062
1640 WASHINGTON ST,1640 Washington St,NA,No,16,37.793652,-122.420296
5005 3rd ST,5005 3rd St,NA,No,16,37.732841,-122.391043
574 3rd ST,574 3rd St,NA,No,16,37.780197,-122.395038
18 GARLINGTON CT,18 Garlington Ct,NA,No,16,37.731752,-122.384008
1215 BROADWAY *,1215 Broadway,NA,No,16,37.796237,-122.417258
400 DUBOCE AV,400 Duboce Av,NA,No,16,37.769757,-122.429636
275 CONCOrd ST,275 Concord St,NA,No,16,37.710121,-122.441483
1693 MARKET ST,1693 Market St,NA,No,16,37.772551,-122.421932
2303 BRYANT ST,2303 Bryant St,NA,No,16,37.757477,-122.409301
1500 INNES AV,1500 Innes Av,NA,No,15,37.738568,-122.386977
671 7th AV,671 7th Av,NA,No,15,37.775844,-122.465313
741 GREENWICH ST,741 Greenwich St,NA,No,15,37.801752,-122.411851
170 ALBION ST,170 Albion St,NA,No,15,37.763673,-122.423001
22 MUSEUM WY,22 Museum Wy,NA,No,15,37.764874,-122.441089
1944 BUCHANAN ST,1944 Buchanan St,NA,No,15,37.788099,-122.430037
949 COLUMBUS AV,949 Columbus Av,NA,No,15,37.803165,-122.414608
745 PINE ST,745 Pine St,NA,No,15,37.791,-122.408149
556 LARKIN ST,556 Larkin St,NA,No,15,37.783038,-122.417198
1000 STOCKTON ST,1000 Stockton St,NA,No,15,37.795222,-122.407905
950 PINE ST,950 Pine St,NA,No,15,37.791062,-122.411642
693 15th AV,693 15th Av,NA,No,15,37.775146,-122.473756
520 PARKER AV,520 Parker Av,NA,No,15,37.777431,-122.452955
225 7th AV,225 7th Av,NA,No,15,37.784251,-122.46592
2659 LOMBArd ST,2659 Lombard St,NA,No,15,37.798414,-122.445178
164 LEXINGTON ST,164 Lexington St,NA,No,15,37.760695,-122.420921
52 MAJESTIC AV,52 Majestic Av,NA,No,15,37.717782,-122.451559
442 HOLLOWAY AV,442 Holloway Av,NA,No,15,37.722061,-122.457931
1933 MISSION ST,1933 Mission St,NA,No,15,37.766169,-122.419424
4280 23rd ST,4280 23rd St,NA,No,15,37.752911,-122.438077
775 GEARY ST,775 Geary St,NA,No,15,37.786089,-122.415949
1000 DOLORES ST,1000 Dolores St,NA,No,15,37.753221,-122.425655
1329 GRANT AV,1329 Grant Av,NA,No,15,37.799109,-122.407473
4220 CESAR CHAVEZ ST,4220 Cesar Chavez St,NA,No,15,37.747492,-122.434476
4330 GEARY BL,4330 Geary Bl,NA,No,15,37.781255,-122.465936
821 BRODERICK ST,821 Broderick St,NA,No,15,37.777839,-122.440355
356 SPRUCE ST,356 Spruce St,NA,No,15,37.787593,-122.453412
1200 TAYLOR ST,1200 Taylor St,NA,No,15,37.793623,-122.412577
300 16th AV,300 16th Av,NA,No,15,37.782265,-122.474928
144 EDDY ST,144 Eddy St,Empress Hotel,Yes,15,37.784531,-122.410028
405 SERRANO DR,405 Serrano Dr,NA,No,15,37.718266,-122.480908
431 ASHBURY ST,431 Ashbury St,NA,No,15,37.771369,-122.447517
345 LEAVENWORth ST,345 Leavenworth St,NA,No,15,37.784278,-122.414569
96 OLIVER ST,96 Oliver St,NA,No,15,37.708366,-122.450125
2222 LEAVENWORth ST,2222 Leavenworth St,NA,No,15,37.801651,-122.417715
1059 LEAVENWORth ST,1059 Leavenworth St,NA,No,15,37.790982,-122.41593
844 POTRERO AV,844 Potrero Av,NA,No,15,37.75862,-122.407216
1526 VALLEJO ST,1526 Vallejo St,NA,No,15,37.797088,-122.422547
1160 FLORIDA ST,1160 Florida St,NA,No,15,37.75334,-122.410401
438 BROADWAY *,438 Broadway,NA,No,15,37.798427,-122.404647
2386 FULTON ST,2386 Fulton St,NA,No,15,37.774721,-122.456052
6 PUEBLO ST,6 Pueblo St,NA,No,15,37.709132,-122.417092
245 LEAVENWORth ST,245 Leavenworth St,NA,No,15,37.783374,-122.414463
857 COLBY ST,857 Colby St,NA,No,15,37.719891,-122.409904
1583 OAKDALE AV,1583 Oakdale Av,NA,No,15,37.734207,-122.390189
1705 OCTAVIA ST,1705 Octavia St,NA,No,15,37.78812,-122.427227
271 WALLER ST,271 Waller St,NA,No,15,37.771167,-122.428064
1025 POWELL ST,1025 Powell St,NA,No,15,37.794221,-122.409842
1034 PACIFIC AV,1034 Pacific Av,NA,No,15,37.796382,-122.412374
1106 BUSH ST,1106 Bush St,NA,No,15,37.789472,-122.415674
605 JONES ST,605 Jones St,NA,No,15,37.786916,-122.413431
229 2ND AV,229 2Nd Av,NA,No,15,37.784368,-122.460553
2474 BROADWAY *,2474 Broadway,NA,No,14,37.794078,-122.437867
3241 23rd ST,3241 23rd St,NA,No,14,37.753773,-122.417265
935 PINE ST,935 Pine St,NA,No,14,37.790519,-122.411215
4834 MISSION ST,4834 Mission St,NA,No,14,37.720783,-122.438261
1559 OAKDALE AV,1559 Oakdale Av,NA,No,14,37.733959,-122.38975
1271 20th AV,1271 20th Av,NA,No,14,37.764059,-122.478563
36 WENTWORth ST,36 Wentworth St,NA,No,14,37.795534,-122.405947
47 ALPHA ST,47 Alpha St,NA,No,14,37.715055,-122.402769
939 NOE ST,939 Noe St,NA,No,14,37.754083,-122.431801
3455 FILLMORE ST,3455 Fillmore St,NA,No,14,37.801536,-122.436858
4523 MISSION ST,4523 Mission St,NA,No,14,37.725725,-122.433676
56 LAURA ST,56 Laura St,NA,No,14,37.710361,-122.45066
878 UNION ST,878 Union St,NA,No,14,37.800072,-122.413732
1054 HAMPSHIRE ST,1054 Hampshire St,NA,No,14,37.755214,-122.407792
1905 MCALLISTER ST,1905 Mcallister St,NA,No,14,37.776948,-122.443451
1801 BROADWAY *,1801 Broadway,NA,No,14,37.795039,-122.426817
795 8th AV,795 8th Av,NA,No,14,37.773638,-122.466253
905 BURNETT AV,905 Burnett Av,NA,No,14,37.748445,-122.444793
355 FULTON ST,355 Fulton St,NA,No,14,37.778555,-122.42261
1045 LAKE ST,1045 Lake St,NA,No,14,37.786182,-122.470881
530 14th ST,530 14th St,NA,No,14,37.768258,-122.425095
343 LEXINGTON ST,343 Lexington St,NA,No,14,37.75785,-122.420225
1769 CAYUGA AV,1769 Cayuga Av,NA,No,14,37.714449,-122.448856
46 LLOYD ST,46 Lloyd St,NA,No,14,37.769955,-122.435857
3843 24th ST,3843 24th St,NA,No,14,37.751438,-122.428377
278 7th AV,278 7th Av,NA,No,14,37.783362,-122.465197
730 BACON ST,730 Bacon St,NA,No,14,37.726156,-122.410223
735 WASHINGTON ST,735 Washington St,NA,No,14,37.795021,-122.406049
327 BARTLETT ST,327 Bartlett St,NA,No,14,37.751769,-122.419204
700 SHOTWELL ST,700 Shotwell St,NA,No,14,37.757047,-122.415769
238 DIVISADERO ST,238 Divisadero St,NA,No,14,37.771055,-122.436668
1329 SACRAMENTO ST,1329 Sacramento St,NA,No,14,37.792079,-122.41476
5700 MISSION ST,5700 Mission St,NA,No,14,37.710115,-122.449726
2346 FRANKLIN ST,2346 Franklin St,NA,No,14,37.796238,-122.424918
1697 OAK ST,1697 Oak St,NA,No,14,37.771657,-122.447098
416 TURK ST,416 Turk St,NA,No,14,37.78271,-122.416203
2370 MISSION ST,2370 Mission St,NA,No,14,37.759099,-122.4194
427 34th AV,427 34th Av,NA,No,14,37.780968,-122.494805
50 GOLDEN GATE AV,50 Golden Gate Av,NA,No,14,37.782448,-122.411528
854 FELL ST,854 Fell St,NA,No,14,37.775071,-122.431933
604 SHOTWELL ST,604 Shotwell St,NA,No,14,37.758503,-122.416066
1017 SHOTWELL ST,1017 Shotwell St,NA,No,14,37.751786,-122.414784
600 24th AV,600 24th Av,NA,No,14,37.777974,-122.483337
475 WARREN DR,475 Warren Dr,NA,No,14,37.757993,-122.462376
200 VAN NESS AV,200 Van Ness Av,NA,No,14,37.777529,-122.419324
3535 CLEMENT ST,3535 Clement St,NA,No,14,37.781184,-122.497425
161 LEXINGTON ST,161 Lexington St,NA,No,14,37.760789,-122.420513
1008 LARKIN ST,1008 Larkin St,NA,No,14,37.787297,-122.418083
364 UNION ST,364 Union St,NA,No,14,37.801111,-122.405553
1020 POST ST,1020 Post St,NA,No,14,37.787234,-122.41873
680 9th AV,680 9th Av,NA,No,14,37.775656,-122.466783
3624 IRVING ST,3624 Irving St,NA,No,14,37.762936,-122.496923
5530 MISSION ST,5530 Mission St,NA,No,14,37.712402,-122.445479
27 TALBERT CT,27 Talbert Ct,NA,No,14,37.711256,-122.405946
170 TURK ST,170 Turk St,NA,No,14,37.783259,-122.412032
2329 MISSION ST,2329 Mission St,NA,No,14,37.75978,-122.418807
26 SANTA BARBARA AV,26 Santa Barbara Av,NA,No,14,37.708725,-122.465105
608 OFARRELL ST,608 Ofarrell St,NA,No,14,37.785688,-122.414901
2678 21ST ST,2678 21St St,NA,No,14,37.757874,-122.408525
948 MISSION ST,948 Mission St,NA,No,13,37.782056,-122.407859
1530 KIRKWOOD AV,1530 Kirkwood Av,NA,No,13,37.737619,-122.388456
746 AthENS ST,746 Athens St,NA,No,13,37.716336,-122.43278
359 6th AV,359 6th Av,NA,No,13,37.781759,-122.464667
269 14th ST,269 14th St,NA,No,13,37.768181,-122.419326
316 VALENCIA ST,316 Valencia St,NA,No,13,37.767855,-122.422484
1 CIELITO DR,1 Cielito Dr,NA,No,13,37.710154,-122.421495
1279 8th AV,1279 8th Av,NA,No,13,37.77493,-122.41942
415 7th AV,415 7th Av,NA,No,13,37.780408,-122.465644
1037 WASHINGTON ST,1037 Washington St,NA,No,13,37.794499,-122.410325
1453 thOMAS AV,1453 thomas Av,NA,No,13,37.728661,-122.388732
1532 REVERE AV,1532 Revere Av,NA,No,13,37.731155,-122.388732
420 7th AV,420 7th Av,NA,No,13,37.780472,-122.464991
1575 PALOU AV,1575 Palou Av,NA,No,13,37.733502,-122.390611
50 BAY VIEW ST,50 Bay View St,NA,No,13,37.73279,-122.39313
1301 20th ST,1301 20th St,NA,No,13,37.760001,-122.394614
1371 JACKSON ST,1371 Jackson St,NA,No,13,37.794374,-122.417532
956 MADRID ST,956 Madrid St,NA,No,13,37.71545,-122.437783
200 JUDSON AV,200 Judson Av,NA,No,13,37.728404,-122.44684
2250 MISSION ST,2250 Mission St,NA,No,13,37.760951,-122.419559
1917 MISSION ST,1917 Mission St,NA,No,13,37.76633,-122.419601
175 6th ST,175 6th St,Alder Hotel,Yes,13,37.780208,-122.407364
900 RUSSIA AV,900 Russia Av,NA,No,13,37.717927,-122.429954
1034 STOCKTON ST,1034 Stockton St,NA,No,13,37.795454,-122.407717
3697 MISSION ST,3697 Mission St,NA,No,13,37.737506,-122.423749
2450 MARKET ST,2450 Market St,NA,No,13,37.762715,-122.43601
709 CLAYTON ST,709 Clayton St,NA,No,13,37.768517,-122.448609
1845 CABRILLO ST,1845 Cabrillo St,NA,No,13,37.77442,-122.478678
1680 OAKDALE AV,1680 Oakdale Av,NA,No,13,37.735673,-122.391694
917 FOLSOM ST,917 Folsom St,NA,No,13,37.779772,-122.403585
1 DAWSON PL,1 Dawson Pl,NA,No,13,37.793446,-122.410621
1053 OAK ST,1053 Oak St,NA,No,13,37.772958,-122.436562
844 COLBY ST,844 Colby St,NA,No,13,37.719866,-122.41055
41 6th ST,41 6th St,NA,No,13,37.781804,-122.409363
5034 MISSION ST,5034 Mission St,NA,No,13,37.718074,-122.440169
819 GREENWICH ST,819 Greenwich St,NA,No,13,37.801667,-122.413243
805 VALENCIA ST,805 Valencia St,NA,No,13,37.759948,-122.421129
706 46th AV,706 46th Av,NA,No,13,37.77507,-122.506709
123 WAVERLY PL,123 Waverly Pl,NA,No,13,37.79447,-122.40706
2700 ANZA ST,2700 Anza St,NA,No,13,37.778638,-122.477371
1141 STOCKTON ST,1141 Stockton St,NA,No,13,37.796345,-122.408716
1500 HYDE ST,1500 Hyde St,NA,No,13,37.794744,-122.417954
2826 21ST ST,2826 21St St,NA,No,13,37.757738,-122.411041
1840 FELL ST,1840 Fell St,NA,No,12,37.772995,-122.448252
677 ELLIS ST,677 Ellis St,NA,No,12,37.784086,-122.417223
1721 GENEVA AV,1721 Geneva Av,NA,No,12,37.711248,-122.426115
1625 LEAVENWORth ST,1625 Leavenworth St,NA,No,12,37.795986,-122.417071
924 MINNESOTA ST,924 Minnesota St,NA,No,12,37.758822,-122.390616
707 STOCKTON ST,707 Stockton St,NA,No,12,37.792443,-122.407797
1367 SAN BRUNO AV,1367 San Bruno Av,NA,No,12,37.752262,-122.403969
3 HELEN ST,3 Helen St,NA,No,12,37.790697,-122.416192
705 UNION ST,705 Union St,NA,No,12,37.800052,-122.411033
633 SOUth VAN NESS AV,633 South Van Ness Av,NA,No,12,37.763054,-122.416926
350 SANTA ANA AV,350 Santa Ana Av,NA,No,12,37.730616,-122.46829
1732 OAKDALE AV,1732 Oakdale Av,NA,No,12,37.736234,-122.392684
1458 HYDE ST,1458 Hyde St,NA,No,12,37.794433,-122.417825
1853 MCALLISTER ST,1853 Mcallister St,NA,No,12,37.776959,-122.442679
791 MINNA ST,791 Minna St,NA,No,12,37.776007,-122.413636
1690 BROADWAY *,1690 Broadway,NA,No,12,37.795872,-122.424788
635 9th AV,635 9th Av,NA,No,12,37.776381,-122.467494
415 COLLINGWOOD ST,415 Collingwood St,NA,No,12,37.755716,-122.435308
747 NATOMA ST,747 Natoma St,NA,No,12,37.775937,-122.412801
904 PINE ST,904 Pine St,NA,No,12,37.790975,-122.410873
4815 MISSION ST,4815 Mission St,NA,No,12,37.721176,-122.437118
215 PEABODY ST,215 Peabody St,NA,No,12,37.709205,-122.407587
1465 WALLER ST,1465 Waller St,NA,No,12,37.768715,-122.447722
1020 BUSH ST,1020 Bush St,NA,No,12,37.789713,-122.414147
663 VALENCIA ST,663 Valencia St,NA,No,12,37.762228,-122.421453
165 INVERNESS DR,165 Inverness Dr,NA,No,12,37.731539,-122.482962
2629 FOLSOM ST,2629 Folsom St,NA,No,12,37.755209,-122.413978
3317 MISSION ST,3317 Mission St,NA,No,12,37.743663,-122.420404
77 WALLER ST,77 Waller St,NA,No,12,37.771627,-122.424808
3445 GEARY BL,3445 Geary Bl,NA,No,12,37.781118,-122.455895
2060 MISSION ST,2060 Mission St,NA,No,12,37.763978,-122.419885
719 SHOTWELL ST,719 Shotwell St,NA,No,12,37.756613,-122.415249
615 LEAVENWORth ST,615 Leavenworth St,NA,No,12,37.786787,-122.415221
778 38th AV,778 38th Av,NA,No,12,37.774233,-122.497958
2436 BUSH ST,2436 Bush St,NA,No,12,37.7868,-122.437438
710 POWELL ST,710 Powell St,NA,No,12,37.791298,-122.408814
659 OAK ST,659 Oak St,NA,No,12,37.773789,-122.429988
2915 23rd ST,2915 23rd St,NA,No,12,37.754085,-122.410602
12 HILL ST,12 Hill St,NA,No,12,37.756311,-122.421634
1024 POTRERO AV,1024 Potrero Av,NA,No,12,37.755679,-122.406936
447 VALENCIA ST,447 Valencia St,NA,No,12,37.765846,-122.42166
1264 2ND AV,1264 2Nd Av,NA,No,12,37.764967,-122.458571
1309 ALABAMA ST,1309 Alabama St,NA,No,12,37.750779,-122.410503
381 MONTEREY BL,381 Monterey Bl,NA,No,12,37.731272,-122.443808
125 6th ST,125 6th St,NA,No,12,37.780857,-122.408056
640 CLAY ST,640 Clay St,NA,No,12,37.794793,-122.403864
114 NOE ST,114 Noe St,NA,No,12,37.767094,-122.433683
1743 GOLDEN GATE AV,1743 Golden Gate Av,NA,No,12,37.778345,-122.439289
975 SUTTER ST,975 Sutter St,NA,No,12,37.787958,-122.416314
1485 MCKINNON AV,1485 Mckinnon Av,NA,No,12,37.734395,-122.387177
1174 PACIFIC AV,1174 Pacific Av,NA,No,12,37.796085,-122.414557
536 GREEN ST,536 Green St,NA,No,12,37.799851,-122.408011
718 JOOST AV,718 Joost Av,NA,No,12,37.732547,-122.451648
15 LILLIAN ST,15 Lillian St,NA,No,12,37.73147,-122.38066
934 BROADWAY *,934 Broadway,NA,No,12,37.797432,-122.412604
520 GEARY ST,520 Geary St,NA,No,12,37.787161,-122.412042
725 NAPLES ST,725 Naples St,NA,No,12,37.717185,-122.433634
930 PACIFIC AV,930 Pacific Av,NA,No,12,37.796598,-122.410623
1357 FOLSOM ST,1357 Folsom St,NA,No,12,37.772992,-122.412158
32 GEORGE CT,32 George Ct,NA,No,12,37.731301,-122.382743
370 ELLIS ST,370 Ellis St,NA,No,12,37.785216,-122.412295
550 LARKIN ST,550 Larkin St,NA,No,12,37.78293,-122.417176
1175 WASHINGTON ST,1175 Washington St,NA,No,12,37.794125,-122.412454
587 BURNETT AV,587 Burnett Av,NA,No,12,37.751859,-122.444036
321 CHESTNUT ST,321 Chestnut St,NA,No,12,37.804104,-122.408712
912 JACKSON ST,912 Jackson St,NA,No,12,37.795695,-122.410274
60 OSCEOLA LN,60 Osceola Ln,NA,No,12,37.731875,-122.382981
143 WAVERLY PL,143 Waverly Pl,NA,No,12,37.794766,-122.407107
11 HILIRITAS AV,11 Hiliritas Av,NA,No,12,37.737608,-122.437044
150 GRAYSTONE TR,150 Graystone Tr,NA,No,12,37.757172,-122.446299
1616 BRODERICK ST,1616 Broderick St,NA,No,12,37.785415,-122.441336
2 EMERY LN,2 Emery Ln,NA,No,12,37.798675,-122.40954
3548 ANZA ST,3548 Anza St,NA,No,12,37.778225,-122.4865
1141 MUNICH ST,1141 Munich St,NA,No,12,37.710515,-122.436534
1050 FELL ST,1050 Fell St,NA,No,11,37.774606,-122.435168
1748 NEWCOMB AV,1748 Newcomb Av,NA,No,11,37.736999,-122.392367
39 SPOFFOrd ST,39 Spofford St,NA,No,11,37.794659,-122.407556
2323 LARKIN ST,2323 Larkin St,NA,No,11,37.799259,-122.421037
310 HAMILTON ST,310 Hamilton St,NA,No,11,37.726898,-122.410212
440 4th AV,440 4th Av,NA,No,11,37.78024,-122.461748
443 7th AV,443 7th Av,NA,No,11,37.780065,-122.465619
2227 TAYLOR ST,2227 Taylor St,NA,No,11,37.802969,-122.415009
461 ASHBURY ST,461 Ashbury St,NA,No,11,37.77103,-122.447448
1055 MASON ST,1055 Mason St,NA,No,11,37.793467,-122.411358
772 7th AV,772 7th Av,NA,No,11,37.774095,-122.464527
3308 MISSION ST,3308 Mission St,NA,No,11,37.74389,-122.421275
1750 SACRAMENTO ST,1750 Sacramento St,NA,No,11,37.791662,-122.421751
889 VALLEJO ST,889 Vallejo St,NA,No,11,37.798023,-122.411829
773 PINE ST,773 Pine St,NA,No,11,37.790961,-122.408553
804 STOCKTON ST,804 Stockton St,NA,No,11,37.793357,-122.407494
736 COMMERCIAL ST,736 Commercial St,NA,No,11,37.794061,-122.405374
5 RUth ST,5 Ruth St,NA,No,11,37.723067,-122.436354
3116 16th ST,3116 16th St,NA,No,11,37.765139,-122.422233
419 LAKESHORE DR,419 Lakeshore Dr,NA,No,11,37.733404,-122.495604
2811 CALIFORNIA ST,2811 California St,NA,No,11,37.787839,-122.440731
1095 MISSION ST,1095 Mission St,Hotel Isabel,Yes,11,37.779209,-122.410537
276 DAY ST,276 Day St,NA,No,11,37.743047,-122.428196
3672 SACRAMENTO ST,3672 Sacramento St,NA,No,11,37.787623,-122.453176
2061 OCEAN AV,2061 Ocean Av,NA,No,11,37.726122,-122.465372
1061 SHOTWELL ST,1061 Shotwell St,NA,No,11,37.751512,-122.414758
1290 CHESTNUT ST,1290 Chestnut St,NA,No,11,37.80245,-122.424433
1245 GREEN ST,1245 Green St,NA,No,11,37.79797,-122.419595
664 LARKIN ST,664 Larkin St,NA,No,11,37.78405,-122.417503
929 PINE ST,929 Pine St,NA,No,11,37.790601,-122.411084
1040 FOLSOM ST,1040 Folsom St,NA,No,11,37.777956,-122.406706
1570 WASHINGTON ST,1570 Washington St,NA,No,11,37.793726,-122.419094
1345 SACRAMENTO ST,1345 Sacramento St,NA,No,11,37.792088,-122.414982
489 MADRID ST,489 Madrid St,NA,No,11,37.721717,-122.432388
79 SHARON ST,79 Sharon St,NA,No,11,37.764865,-122.42949
45 BERNArd ST,45 Bernard St,NA,No,11,37.796296,-122.4142
1031 HOLLISTER AV,1031 Hollister Av,NA,No,11,37.718815,-122.391369
57 MARthA AV,57 Martha Av,NA,No,11,37.734123,-122.440532
2357 BUSH ST,2357 Bush St,NA,No,11,37.786401,-122.43606
238 LEAVENWORth ST,238 Leavenworth St,NA,No,11,37.783331,-122.413886
2315 BUSH ST,2315 Bush St,NA,No,11,37.786536,-122.435408
1250 SACRAMENTO ST,1250 Sacramento St,NA,No,11,37.792674,-122.413547
1430 LEAVENWORth ST,1430 Leavenworth St,NA,No,11,37.794333,-122.416021
425 4th AV,425 4th Av,NA,No,11,37.780484,-122.462425
234 COLLINS ST,234 Collins St,NA,No,11,37.781611,-122.449675
1215 PACIFIC AV,1215 Pacific Av,NA,No,11,37.795645,-122.415356
301 COLUMBUS AV,301 Columbus Av,NA,No,11,37.797983,-122.407216
619 SHOTWELL ST,619 Shotwell St,NA,No,11,37.75846,-122.415427
806 46th AV,806 46th Av,NA,No,11,37.773206,-122.506555
1440 JONES ST,1440 Jones St,NA,No,11,37.794658,-122.4144
222 WILLArd NORth ST,222 Willard North St,NA,No,11,37.776488,-122.45635
163 CLIPPER ST,163 Clipper St,NA,No,11,37.748963,-122.42865
3971 MISSION ST,3971 Mission St,NA,No,11,37.734122,-122.425547
4347 CALIFORNIA ST,4347 California St,NA,No,11,37.784574,-122.464266
2450 28th AV,2450 28th Av,NA,No,11,37.741645,-122.484938
643 PRECITA AV,643 Precita Av,NA,No,11,37.748087,-122.408867
233 CHESTNUT ST,233 Chestnut St,NA,No,11,37.804221,-122.407216
274 CARL ST,274 Carl St,NA,No,11,37.765517,-122.454015
1599 10th AV,1599 10th Av,NA,No,11,37.758583,-122.467181
161 LEAVENWORth ST,161 Leavenworth St,NA,No,11,37.782563,-122.414191
340 SHOTWELL ST,340 Shotwell St,NA,No,11,37.762883,-122.416483
778 7th AV,778 7th Av,NA,No,11,37.774027,-122.464522
2301 BAY ST,2301 Bay St,NA,No,11,37.80143,-122.445135
1006 PAGE ST,1006 Page St,NA,No,11,37.772304,-122.437528
415 JONES ST,415 Jones St,NA,No,11,37.785095,-122.413045
1925 LEAVENWORth ST,1925 Leavenworth St,NA,No,11,37.798817,-122.417647
927 ALABAMA ST,927 Alabama St,NA,No,11,37.756954,-122.411096
2100 JACKSON ST,2100 Jackson St,NA,No,11,37.793409,-122.429925
500 7th AV,500 7th Av,NA,No,11,37.778855,-122.464983
240 FLOURNOY ST,240 Flournoy St,NA,No,11,37.709119,-122.462161
2455 LAKE ST,2455 Lake St,NA,No,11,37.785502,-122.485976
247 7th AV,247 7th Av,NA,No,11,37.783835,-122.46589
747 32ND AV,747 32Nd Av,NA,No,11,37.775045,-122.492224
1120 STOCKTON ST,1120 Stockton St,NA,No,11,37.796157,-122.408062
2837 FOLSOM ST,2837 Folsom St,NA,No,11,37.751926,-122.413788
227 HARTFOrd ST,227 Hartford St,NA,No,11,37.75893,-122.433383
591 11th AV,591 11th Av,NA,No,11,37.77723,-122.469556
400 PERU AV,400 Peru Av,NA,No,11,37.726803,-122.426473
1353 FOLSOM ST,1353 Folsom St,NA,No,11,37.772992,-122.412158
370 BAKER ST,370 Baker St,NA,No,11,37.774315,-122.440709
1707 MARKET ST,1707 Market St,NA,No,11,37.772232,-122.422275
1825 LAGUNA ST,1825 Laguna St,NA,No,11,37.788004,-122.428958
1750 WASHINGTON ST,1750 Washington St,NA,No,11,37.793418,-122.422144
701 BRAZIL AV,701 Brazil Av,NA,No,11,37.722113,-122.428971
157 WINFIELD ST,157 Winfield St,NA,No,11,37.742237,-122.418547
1760 HYDE ST,1760 Hyde St,NA,No,11,37.797174,-122.418389
1534 JONES ST,1534 Jones St,NA,No,11,37.795526,-122.414574
399 STEINER ST,399 Steiner St,NA,No,11,37.772601,-122.432408
755 6th AV,755 6th Av,NA,No,11,37.774388,-122.464133
1958 GROVE ST,1958 Grove St,NA,No,11,37.774816,-122.448966
1180 FILBERT ST,1180 Filbert St,NA,No,11,37.800462,-122.418893
3321 23rd ST,3321 23rd St,NA,No,11,37.753596,-122.419099
1465 20th AV,1465 20th Av,NA,No,11,37.760396,-122.478357
2685 BRYANT ST,2685 Bryant St,NA,No,11,37.751481,-122.408728
161 6th ST,161 6th St,NA,No,11,37.780431,-122.407643
3471 17th ST,3471 17th St,NA,No,11,37.762985,-122.423362
671 6th AV,671 6th Av,NA,No,11,37.775909,-122.464243
1615 JONES ST,1615 Jones St,NA,No,11,37.796107,-122.415282
1262 SACRAMENTO ST,1262 Sacramento St,NA,No,11,37.792572,-122.413696
538 3rd AV,538 3rd Av,NA,No,10,37.778499,-122.460548
371 BROADWAY *,371 Broadway,NA,No,10,37.798092,-122.403379
3050 25th ST,3050 25th St,NA,No,10,37.751313,-122.410979
1227 CLAY ST,1227 Clay St,NA,No,10,37.793206,-122.413331
304 HOLLOWAY AV,304 Holloway Av,NA,No,10,37.722065,-122.45648
120 HAIGHT ST,120 Haight St,NA,No,10,37.773101,-122.424394
1400 KEIth ST,1400 Keith St,NA,No,10,37.732355,-122.386908
415 EUCLID AV,415 Euclid Av,NA,No,10,37.783799,-122.453016
4810 CALIFORNIA ST,4810 California St,NA,No,10,37.784852,-122.469129
1114 SUTTER ST,1114 Sutter St,NA,No,10,37.788174,-122.418894
424 ELLIS ST,424 Ellis St,NA,No,10,37.785066,-122.413276
745 SUTTER ST,745 Sutter St,NA,No,10,37.788439,-122.412577
1860 TURK ST,1860 Turk St,NA,No,10,37.779803,-122.43982
1072 FILBERT ST,1072 Filbert St,NA,No,10,37.800593,-122.41717
759 LOMBArd ST,759 Lombard St,NA,No,10,37.80254,-122.41402
3 GONZALEZ DR,3 Gonzalez Dr,NA,No,10,37.719738,-122.475491
1 SABIN PL,1 Sabin Pl,NA,No,10,37.793026,-122.406856
1485 CLAY ST,1485 Clay St,NA,No,10,37.792729,-122.417428
1027 BROADWAY *,1027 Broadway,NA,No,10,37.796752,-122.414023
1732 WASHINGTON ST,1732 Washington St,NA,No,10,37.793449,-122.421896
1086 POST ST,1086 Post St,NA,No,10,37.787111,-122.419719
1237 2ND AV,1237 2Nd Av,NA,No,10,37.765594,-122.459179
1760 BRODERICK ST,1760 Broderick St,NA,No,10,37.786702,-122.441714
1041 WASHINGTON ST,1041 Washington St,NA,No,10,37.794487,-122.410415
1251 CLAY ST,1251 Clay St,NA,No,10,37.793138,-122.413646
37 MIRALOMA DR,37 Miraloma Dr,NA,No,10,37.739462,-122.459719
472 7th AV,472 7th Av,NA,No,10,37.779615,-122.464929
646 4th AV,646 4th Av,NA,No,10,37.776489,-122.461478
32 LIEBIG ST,32 Liebig St,NA,No,10,37.708687,-122.455992
34 6th ST,34 6th St,*Seneca Hotel,Yes,10,37.781459,-122.409857
21 SCOTLAND ST,21 Scotland St,NA,No,10,37.801734,-122.412604
2105 BROADWAY *,2105 Broadway,NA,No,10,37.794495,-122.431908
856 STOCKTON ST,856 Stockton St,NA,No,10,37.79391,-122.407641
41 REED ST,41 Reed St,NA,No,10,37.793511,-122.415852
700 RUSSIA AV,700 Russia Av,NA,No,10,37.718658,-122.431583
2828 21ST ST,2828 21St St,NA,No,10,37.757738,-122.411041
90 STONEMAN ST,90 Stoneman St,NA,No,10,37.745166,-122.41542
700 12th AV,700 12th Av,NA,No,10,37.774838,-122.470107
1529 JACKSON ST,1529 Jackson St,NA,No,10,37.794028,-122.420244
45 ROSS AL,45 Ross Al,NA,No,10,37.795604,-122.407521
43 BRIDGEVIEW DR,43 Bridgeview Dr,NA,No,10,37.73449,-122.394385
16 COVENTRY CT,16 Coventry Ct,NA,No,10,37.735933,-122.452215
1531 HYDE ST,1531 Hyde St,NA,No,10,37.794933,-122.418545
433 ELLIS ST,433 Ellis St,NA,No,10,37.784525,-122.413227
1095 HAMPSHIRE ST,1095 Hampshire St,NA,No,10,37.7547,-122.407189
1200 TREAT AV,1200 Treat Av,NA,No,10,37.750797,-122.413077
379 CHESTNUT ST,379 Chestnut St,NA,No,10,37.804064,-122.409624
1459 VALENCIA ST,1459 Valencia St,NA,No,10,37.749597,-122.420073
2100 POST ST,2100 Post St,NA,No,10,37.784985,-122.43664
1040 LEAVENWORth ST,1040 Leavenworth St,NA,No,10,37.790855,-122.415336
3835 19th ST,3835 19th St,NA,No,10,37.759394,-122.429028
2140 20th ST,2140 20th St,NA,No,10,37.75976,-122.40275
655 HAIGHT ST,655 Haight St,NA,No,10,37.771531,-122.432991
2229 DIVISADERO ST,2229 Divisadero St,NA,No,10,37.790306,-122.441248
1367 NATOMA ST,1367 Natoma St,NA,No,10,37.767321,-122.418263
53 WHITE ST,53 White St,NA,No,10,37.797891,-122.419668
1220 OAKDALE AV,1220 Oakdale Av,NA,No,10,37.730692,-122.382892
3525 ANZA ST,3525 Anza St,NA,No,10,37.777791,-122.486138
1922 42ND AV,1922 42Nd Av,NA,No,10,37.750815,-122.500626
3351 18th ST,3351 18th St,NA,No,10,37.761743,-122.41853
2315 MISSION ST,2315 Mission St,NA,No,10,37.759955,-122.418794
2126 47th AV,2126 47th Av,NA,No,10,37.746781,-122.505721
725 6th AV,725 6th Av,NA,No,10,37.774799,-122.464163
2715 SAN BRUNO AV,2715 San Bruno Av,NA,No,10,37.727458,-122.403244
143 STONERIDGE LN,143 Stoneridge Ln,NA,No,10,37.71023,-122.426265
988 PINE ST,988 Pine St,NA,No,10,37.790912,-122.412049
66 CERES ST,66 Ceres St,NA,No,10,37.730056,-122.394647
1050 CHESTNUT ST,1050 Chestnut St,NA,No,10,37.803096,-122.420703
550 LEAVENWORth ST,550 Leavenworth St,NA,No,10,37.786285,-122.414496
324 LARKIN ST,324 Larkin St,NA,No,10,37.780946,-122.416773
1158 LEAVENWORth ST,1158 Leavenworth St,NA,No,10,37.792004,-122.415651
1499 CALIFORNIA ST,1499 California St,NA,No,10,37.790608,-122.418727
1501 35th AV,1501 35th Av,NA,No,10,37.758921,-122.494283
1050 OAKDALE AV,1050 Oakdale Av,NA,No,10,37.729381,-122.380656
673 GRAND VIEW AV,673 Grand View Av,NA,No,10,37.749688,-122.442307
2459 POLK ST,2459 Polk St,NA,No,10,37.799501,-122.422783
774 PINE ST,774 Pine St,NA,No,10,37.791319,-122.408654
53 WALTER ST,53 Walter St,NA,No,10,37.768334,-122.432056
1068 PALOU AV,1068 Palou Av,NA,No,10,37.728473,-122.380693
1156 FITZGERALD AV,1156 Fitzgerald Av,NA,No,10,37.720692,-122.39027
428 43rd AV,428 43rd Av,NA,No,10,37.780596,-122.503791
1051 GILMAN AV,1051 Gilman Av,NA,No,10,37.718582,-122.389293
1267 PACIFIC AV,1267 Pacific Av,NA,No,10,37.795495,-122.415974
651 19th AV,651 19th Av,NA,No,10,37.775613,-122.478291
1700 OCTAVIA ST,1700 Octavia St,NA,No,10,37.788138,-122.426762
545 OFARRELL ST,545 Ofarrell St,NA,No,10,37.785424,-122.413658
1020 CHESTNUT ST,1020 Chestnut St,NA,No,10,37.803145,-122.420329
369 HARVArd ST,369 Harvard St,NA,No,10,37.725159,-122.419732
850 OAK ST,850 Oak St,NA,No,10,37.773933,-122.43337
688 COMMERCIAL ST,688 Commercial St,NA,No,10,37.794217,-122.404389
15 RUSSIA AV,15 Russia Av,NA,No,10,37.721587,-122.436806
2970 MISSION ST,2970 Mission St,NA,No,10,37.749412,-122.418518
2895 HARRISON ST,2895 Harrison St,NA,No,10,37.751277,-122.411583
373 NOE ST,373 Noe St,NA,No,10,37.763149,-122.432677
780 CHESTNUT ST,780 Chestnut St,NA,No,10,37.803526,-122.416303
2837 MISSION ST,2837 Mission St,NA,No,10,37.751597,-122.418037
118 HAIGHT ST,118 Haight St,NA,No,10,37.773101,-122.424394
20 DASHIELL HAMMETT ST,20 Dashiell Hammett St,NA,No,10,37.790667,-122.407765
5128 GEARY BL,5128 Geary Bl,NA,No,10,37.780889,-122.474526
1771 LA SALLE AV,1771 La Salle Av,NA,No,10,37.738178,-122.391666
9 BRODERICK ST,9 Broderick St,NA,No,10,37.770434,-122.438878
667 SHOTWELL ST,667 Shotwell St,NA,No,10,37.757783,-122.415515
371 STAPLES AV,371 Staples Av,NA,No,10,37.728833,-122.450464
465 14th AV,465 14th Av,NA,No,10,37.779407,-122.473134
5533 CALIFORNIA ST,5533 California St,NA,No,10,37.784004,-122.477052
5810 MISSION ST,5810 Mission St,NA,No,10,37.709483,-122.45168
335 MOSCOW ST,335 Moscow St,NA,No,10,37.722155,-122.426607
354 COLUMBUS AV,354 Columbus Av,NA,No,10,37.798565,-122.407348
87 7th AV,87 7th Av,NA,No,10,37.78683,-122.465948
1701 BEACH ST,1701 Beach St,NA,No,10,37.804151,-122.437371
2829 24th ST,2829 24th St,NA,No,10,37.752592,-122.408791
161 BARTLETT ST,161 Bartlett St,NA,No,10,37.754456,-122.419451
1784 FILBERT ST,1784 Filbert St,NA,No,10,37.799112,-122.42877
1390 CLAY ST,1390 Clay St,NA,No,10,37.793156,-122.415857
1043 VALENCIA ST,1043 Valencia St,NA,No,10,37.756221,-122.420854
1540 JONES ST,1540 Jones St,NA,No,10,37.795696,-122.414716
970 CHESTNUT ST,970 Chestnut St,NA,No,10,37.803266,-122.419381
438 24th AV,438 24th Av,NA,No,10,37.781323,-122.483422
10 LUPINE AV,10 Lupine Av,NA,No,10,37.78395,-122.449259
1701 BUSH ST,1701 Bush St,NA,No,10,37.787873,-122.425558
3655 BRODERICK ST,3655 Broderick St,NA,No,10,37.804151,-122.445634
2849 CALIFORNIA ST,2849 California St,NA,No,10,37.787634,-122.441413
1827 MASON ST,1827 Mason St,NA,No,10,37.800447,-122.412783
3285 25th ST,3285 25th St,NA,No,10,37.750579,-122.415603
2515 OCTAVIA ST,2515 Octavia St,NA,No,10,37.795619,-122.42881
360 12th AV,360 12th Av,NA,No,10,37.781567,-122.470435
2425 BUCHANAN ST,2425 Buchanan St,NA,No,10,37.792415,-122.431436
630 HAIGHT ST,630 Haight St,NA,No,10,37.772054,-122.433118
601 CHESTNUT ST,601 Chestnut St,NA,No,10,37.803607,-122.41343
21 SATURN ST,21 Saturn St,NA,No,10,37.762567,-122.441258
1065 SOUth VAN NESS AV,1065 South Van Ness Av,NA,No,10,37.756225,-122.416273
698 BUSH ST,698 Bush St,NA,No,10,37.790371,-122.408594
463 FAXON AV,463 Faxon Av,NA,No,10,37.72298,-122.460544
1330 MASON ST,1330 Mason St,NA,No,10,37.79599,-122.411407
1950 HAYES ST,1950 Hayes St,NA,No,10,37.773916,-122.448522
427 STOCKTON ST,427 Stockton St,NA,No,10,37.790001,-122.407294
1196 JACKSON ST,1196 Jackson St,NA,No,10,37.795143,-122.414603
880 BUSH ST,880 Bush St,NA,No,10,37.790016,-122.411775
1634 LEAVENWORth ST,1634 Leavenworth St,NA,No,10,37.796216,-122.416519
1015 SHOTWELL ST,1015 Shotwell St,NA,No,9,37.751889,-122.414794
2345 BUSH ST,2345 Bush St,NA,No,9,37.786426,-122.435861
3032 16th ST,3032 16th St,NA,No,9,37.765255,-122.420415
149 JULIAN AV,149 Julian Av,NA,No,9,37.765815,-122.420732
483 BRUSSELS ST,483 Brussels St,NA,No,9,37.726221,-122.404957
569 MINNA ST,569 Minna St,NA,No,9,37.779208,-122.409575
481 MINNA ST,481 Minna St,NA,No,9,37.780821,-122.407521
857 CLAY ST,857 Clay St,NA,No,9,37.793953,-122.407382
778 BROADWAY *,778 Broadway,NA,No,9,37.797685,-122.409916
479 19th AV,479 19th Av,NA,No,9,37.778862,-122.478523
1000 SUTTER ST,1000 Sutter St,NA,No,9,37.788337,-122.417184
1235 BAY ST,1235 Bay St,NA,No,9,37.803563,-122.427436
909 STEINER ST,909 Steiner St,NA,No,9,37.7778,-122.433641
24 DORLAND ST,24 Dorland St,NA,No,9,37.762516,-122.42445
2874 16th ST,2874 16th St,NA,No,9,37.765476,-122.416988
3802 MISSION ST,3802 Mission St,NA,No,9,37.735848,-122.424843
425 EDDY ST,425 Eddy St,Eddy Street Appartments,Yes,9,37.783434,-122.414699
338 32ND AV,338 32Nd Av,NA,No,9,37.782787,-122.492127
2 HALE ST,2 Hale St,NA,No,9,37.733032,-122.406148
2240 BAY ST,2240 Bay St,NA,No,9,37.80203,-122.443985
1200 HAIGHT ST,1200 Haight St,NA,No,9,37.770844,-122.442211
143 LOUISBURG ST,143 Louisburg St,NA,No,9,37.720999,-122.449458
455 HYDE ST,455 Hyde St,NA,No,9,37.785056,-122.416469
24 FAIRMOUNT ST,24 Fairmount St,NA,No,9,37.739228,-122.425281
1279 POTRERO AV,1279 Potrero Av,NA,No,9,37.75201,-122.405888
1339 HAYES ST,1339 Hayes St,NA,No,9,37.77462,-122.438459
703 SHOTWELL ST,703 Shotwell St,NA,No,9,37.75708,-122.415376
540 CAPP ST,540 Capp St,NA,No,9,37.758196,-122.418233
465 ELLIS ST,465 Ellis St,NA,No,9,37.784461,-122.413735
2969 JACKSON ST,2969 Jackson St,NA,No,9,37.791021,-122.443794
2838 BAKER ST,2838 Baker St,NA,No,9,37.79747,-122.445458
762 PINE ST,762 Pine St,NA,No,9,37.791373,-122.408511
991 VALENCIA ST,991 Valencia St,NA,No,9,37.757083,-122.420838
879 VALLEJO ST,879 Vallejo St,NA,No,9,37.797937,-122.41163
471 6th AV,471 6th Av,NA,No,9,37.779634,-122.464514
963 VALENCIA ST,963 Valencia St,NA,No,9,37.757517,-122.420879
1734 LAGUNA ST,1734 Laguna St,NA,No,9,37.787244,-122.428225
1159 CLAY ST,1159 Clay St,NA,No,9,37.793315,-122.41218
962 JONES ST,962 Jones St,NA,No,9,37.790262,-122.413601
1382 ALABAMA ST,1382 Alabama St,NA,No,9,37.749804,-122.410965
856 PRESIDIO AV,856 Presidio Av,NA,No,9,37.783731,-122.445861
196 PUTNAM ST,196 Putnam St,NA,No,9,37.73706,-122.411173
2135 SACRAMENTO ST,2135 Sacramento St,NA,No,9,37.790309,-122.428074
190 OFARRELL ST,190 Ofarrell St,NA,No,9,37.786661,-122.407779
1027 JONES ST,1027 Jones St,NA,No,9,37.790787,-122.414253
1012 MASONIC AV,1012 Masonic Av,NA,No,9,37.771852,-122.445358
2044 MISSION ST,2044 Mission St,NA,No,9,37.764234,-122.419937
1175 YORK ST,1175 York St,NA,No,9,37.753348,-122.407959
2829 CLAY ST,2829 Clay St,NA,No,9,37.789751,-122.439604
1067 VALENCIA ST,1067 Valencia St,NA,No,9,37.755855,-122.420669
2366 BRYANT ST,2366 Bryant St,NA,No,9,37.756577,-122.409809
3046 JACKSON ST,3046 Jackson St,NA,No,9,37.79136,-122.445424
3130 CLAY ST,3130 Clay St,NA,No,9,37.789656,-122.444702
3435 20th ST,3435 20th St,NA,No,9,37.758496,-122.417581
452 BARTLETT ST,452 Bartlett St,NA,No,9,37.749667,-122.41962
2230 MISSION ST,2230 Mission St,NA,No,9,37.76125,-122.419727
55 MASON ST,55 Mason St,Ambassador Hotel,Yes,9,37.784029,-122.409608
2303 BUSH ST,2303 Bush St,NA,No,9,37.786592,-122.435226
4141 19th ST,4141 19th St,NA,No,9,37.75904,-122.435698
1925 SUNNYDALE AV,1925 Sunnydale Av,NA,No,9,37.712544,-122.419074
665 GEARY ST,665 Geary St,NA,No,9,37.786325,-122.414105
672 BRUNSWICK ST,672 Brunswick St,NA,No,9,37.709441,-122.44714
730 GONZALEZ DR,730 Gonzalez Dr,NA,No,9,37.718266,-122.480908
1358 CLEMENT ST,1358 Clement St,NA,No,9,37.782757,-122.473963
1132 CLAY ST,1132 Clay St,NA,No,9,37.793815,-122.411882
115 JULIAN AV,115 Julian Av,NA,No,9,37.766273,-122.420776
41 SYCAMORE ST,41 Sycamore St,NA,No,9,37.762558,-122.42041
1411 MASON ST,1411 Mason St,NA,No,9,37.79652,-122.412128
2633 23rd ST,2633 23rd St,NA,No,9,37.754187,-122.406125
253 CHARTER OAK AV,253 Charter Oak Av,NA,No,9,37.733635,-122.40413
2126 24th ST,2126 24th St,NA,No,9,37.753512,-122.401046
1135 BAY ST,1135 Bay St,NA,No,9,37.803777,-122.42575
2893 24th ST,2893 24th St,NA,No,9,37.752528,-122.409872
323 ORIZABA AV,323 Orizaba Av,NA,No,9,37.714797,-122.462883
273 WALLER ST,273 Waller St,NA,No,9,37.771167,-122.428064
146 27th AV,146 27th Av,NA,No,9,37.78663,-122.487033
3057 MARKET ST,3057 Market St,NA,No,9,37.760874,-122.442304
438 VALLEJO ST,438 Vallejo St,NA,No,9,37.799373,-122.40472
1438 LEAVENWORth ST,1438 Leavenworth St,NA,No,9,37.7944,-122.416119
435 BRIGHT ST,435 Bright St,NA,No,9,37.718579,-122.463825
81 9th ST,81 9th St,NA,No,9,37.776673,-122.414827
455 7th AV,455 7th Av,NA,No,9,37.779859,-122.465604
451 DUBOCE AV,451 Duboce Av,NA,No,9,37.76912,-122.430369
48 HENRY ST,48 Henry St,NA,No,9,37.766971,-122.432204
2888 16th ST,2888 16th St,NA,No,9,37.765469,-122.41709
740 LEAVENWORth ST,740 Leavenworth St,NA,No,9,37.788061,-122.414801
1929 LAGUNA ST,1929 Laguna St,NA,No,9,37.788971,-122.429105
24 MELROSE AV,24 Melrose Av,NA,No,9,37.734067,-122.442624
2939 CLEMENT ST,2939 Clement St,NA,No,9,37.781491,-122.490912
1645 FOLSOM ST,1645 Folsom St,NA,No,9,37.770283,-122.415031
4414 CALIFORNIA ST,4414 California St,NA,No,9,37.785191,-122.464947
404 CHESTNUT ST,404 Chestnut St,NA,No,9,37.804283,-122.410214
3001 MISSION ST,3001 Mission St,NA,No,9,37.748833,-122.41772
1115 STOCKTON ST,1115 Stockton St,NA,No,9,37.796062,-122.408586
543 OAK ST,543 Oak St,NA,No,9,37.774103,-122.428225
2904 JACKSON ST,2904 Jackson St,NA,No,9,37.791612,-122.44315
778 SHOTWELL ST,778 Shotwell St,NA,No,9,37.755989,-122.415739
1090 FRANCISCO ST,1090 Francisco St,NA,No,9,37.803677,-122.423128
2947 JACKSON ST,2947 Jackson St,NA,No,9,37.791048,-122.443581
2617 LAGUNA ST,2617 Laguna St,NA,No,9,37.795458,-122.430412
1240 GENEVA AV,1240 Geneva Av,NA,No,9,37.713633,-122.435593
50 LUPINE AV,50 Lupine Av,NA,No,9,37.784178,-122.448318
1902 FOLSOM ST,1902 Folsom St,NA,No,9,37.766795,-122.415783
2401 FILLMORE ST,2401 Fillmore St,NA,No,9,37.791801,-122.434603
1434 JONES ST,1434 Jones St,NA,No,9,37.794578,-122.414395
1226 GRANT AV,1226 Grant Av,NA,No,9,37.798432,-122.406953
644 PACIFIC AV,644 Pacific Av,NA,No,9,37.797168,-122.406353
3835 24th ST,3835 24th St,NA,No,9,37.751409,-122.428114
744 BROADWAY *,744 Broadway,NA,No,9,37.797826,-122.409455
448 34th AV,448 34th Av,NA,No,9,37.78069,-122.494126
29 WAVERLY PL,29 Waverly Pl,NA,No,9,37.793703,-122.406962
3554 20th ST,3554 20th St,NA,No,9,37.758765,-122.420285
1188 MISSION ST,1188 Mission St,NA,No,9,37.77816,-122.412636
774 SHOTWELL ST,774 Shotwell St,NA,No,9,37.756071,-122.415832
776 PINE ST,776 Pine St,NA,No,9,37.791319,-122.408654
1715 MCALLISTER ST,1715 Mcallister St,NA,No,9,37.777264,-122.440435
414 DUNCAN ST,414 Duncan St,NA,No,9,37.74618,-122.42962
201 LEAVENWORth ST,201 Leavenworth St,NA,No,9,37.782987,-122.414274
2200 BEACH ST,2200 Beach St,NA,No,9,37.803628,-122.445563
1142 MASON ST,1142 Mason St,NA,No,9,37.794228,-122.411041
875 SACRAMENTO ST,875 Sacramento St,NA,No,9,37.79306,-122.407181
2286 JACKSON ST,2286 Jackson St,NA,No,9,37.792971,-122.432653
248 SWEENY ST,248 Sweeny St,NA,No,9,37.732443,-122.410282
1441 JONES ST,1441 Jones St,NA,No,9,37.794564,-122.415104
2700 FOLSOM ST,2700 Folsom St,NA,No,9,37.753757,-122.414765
3305 CESAR CHAVEZ ST,3305 Cesar Chavez St,NA,No,9,37.74795,-122.416118
24 LIBERTY ST,24 Liberty St,NA,No,9,37.75791,-122.421827
875 LA PLAYA *,875 La Playa,NA,No,9,37.77167,-122.51034
2868 23rd ST,2868 23rd St,NA,No,9,37.754595,-122.409738
427 CHESTNUT ST,427 Chestnut St,NA,No,9,37.803846,-122.410421
750 OFARRELL ST,750 Ofarrell St,NA,No,9,37.78554,-122.417253
338 FILLMORE ST,338 Fillmore St,NA,No,9,37.77261,-122.43014
309 CHURCH ST,309 Church St,NA,No,9,37.765887,-122.428523
1960 CLAY ST,1960 Clay St,NA,No,9,37.792109,-122.425376
6506 3rd ST,6506 3rd St,NA,No,9,37.719427,-122.397364
69 WOODWArd ST,69 Woodward St,NA,No,9,37.768903,-122.420651
46 SANCHEZ ST,46 Sanchez St,NA,No,9,37.768491,-122.431637
1536 LEAVENWORth ST,1536 Leavenworth St,NA,No,9,37.795308,-122.416217
670 COMMERCIAL ST,670 Commercial St,NA,No,9,37.794206,-122.404237
1068 HOWArd ST,1068 Howard St,NA,No,9,37.778687,-122.408911
126 DOLPHIN CT,126 Dolphin Ct,NA,No,9,37.728213,-122.371023
720 41ST AV,720 41St Av,NA,No,9,37.775045,-122.501236
848 CAPP ST,848 Capp St,NA,No,9,37.753086,-122.417741
2791 16th ST,2791 16th St,Allstar Hotel,Yes,9,37.765084,-122.414959
1300 SACRAMENTO ST,1300 Sacramento St,NA,No,9,37.792442,-122.414601
589 DOLORES ST,589 Dolores St,NA,No,9,37.760077,-122.425571
501 2ND AV,501 2Nd Av,NA,No,9,37.779132,-122.460133
3726 BRODERICK ST,3726 Broderick St,NA,No,9,37.80489,-122.445203
1429 PAGE ST,1429 Page St,NA,No,8,37.771035,-122.444262
3027 SAN BRUNO AV,3027 San Bruno Av,NA,No,8,37.723484,-122.401638
347 EDDY ST,347 Eddy St,NA,No,8,37.783569,-122.413326
141 CHENERY ST,141 Chenery St,NA,No,8,37.739429,-122.425344
2136 CALIFORNIA ST,2136 California St,NA,No,8,37.789749,-122.429645
162 BRIGHT ST,162 Bright St,NA,No,8,37.71363,-122.463216
341 LEXINGTON ST,341 Lexington St,NA,No,8,37.75785,-122.420225
936 PACIFIC AV,936 Pacific Av,NA,No,8,37.796569,-122.410736
831 46th AV,831 46th Av,NA,No,8,37.772768,-122.507102
395 29th AV,395 29th Av,NA,No,8,37.781955,-122.489401
1221 ALEMANY BL,1221 Alemany Bl,NA,No,8,37.730245,-122.431402
2896 22ND ST,2896 22Nd St,NA,No,8,37.756065,-122.412039
260 NEY ST,260 Ney St,NA,No,8,37.729986,-122.42473
430 POINT LOBOS AV,430 Point Lobos Av,NA,No,8,37.780139,-122.508097
628 STEINER ST,628 Steiner St,NA,No,8,37.775249,-122.432608
1925 LAGUNA ST,1925 Laguna St,NA,No,8,37.788905,-122.429074
535 BROADWAY *,535 Broadway,NA,No,8,37.79772,-122.406104
37 PRIEST ST,37 Priest St,NA,No,8,37.793584,-122.415387
656 7th AV,656 7th Av,NA,No,8,37.775959,-122.464662
24 WENTWORth PL,24 Wentworth Pl,NA,No,8,37.795424,-122.40593
2 ARGONAUT AV,2 Argonaut Av,NA,No,8,37.710594,-122.413236
440 EDDY ST,440 Eddy St,*Jefferson Hotel,Yes,8,37.78392,-122.414968
1930 MISSION ST,1930 Mission St,NA,No,8,37.766189,-122.420241
3009 MISSION ST,3009 Mission St,NA,No,8,37.748833,-122.41772
3270 HARRISON ST,3270 Harrison St,NA,No,8,37.745731,-122.411778
938 HAMPSHIRE ST,938 Hampshire St,NA,No,8,37.757025,-122.407968
2014 LAGUNA ST,2014 Laguna St,NA,No,8,37.789868,-122.428672
295 GRAYSTONE TR,295 Graystone Tr,NA,No,8,37.756845,-122.443862
1650 BAKER ST,1650 Baker St,NA,No,8,37.786528,-122.443341
705 VALLEJO ST,705 Vallejo St,NA,No,8,37.798359,-122.408998
402 HAIGHT ST,402 Haight St,NA,No,8,37.772485,-122.429002
949 VALENCIA ST,949 Valencia St,NA,No,8,37.757721,-122.420898
40 TIFFANY AV,40 Tiffany Av,NA,No,8,37.745985,-122.421052
890 ALABAMA ST,890 Alabama St,NA,No,8,37.757683,-122.411602
2268 BUSH ST,2268 Bush St,NA,No,8,37.787143,-122.434634
868 VALENCIA ST,868 Valencia St,NA,No,8,37.758982,-122.421635
765 SOUth VAN NESS AV,765 South Van Ness Av,NA,No,8,37.760914,-122.416876
2985 PACIFIC AV,2985 Pacific Av,NA,No,8,37.791872,-122.444199
412 JOOST AV,412 Joost Av,NA,No,8,37.73251,-122.444672
45 AUBURN ST,45 Auburn St,NA,No,8,37.795862,-122.412595
289 CHESTNUT ST,289 Chestnut St,NA,No,8,37.804212,-122.408025
640 MASON ST,640 Mason St,NA,No,8,37.789599,-122.41
1750 BEACH ST,1750 Beach St,NA,No,8,37.804373,-122.438259
1315 POLK ST,1315 Polk St,NA,No,8,37.788921,-122.420626
1126 PACIFIC AV,1126 Pacific Av,NA,No,8,37.796163,-122.413931
1136 MASON ST,1136 Mason St,NA,No,8,37.794148,-122.411064
945 SHOTWELL ST,945 Shotwell St,NA,No,8,37.753293,-122.414933
4725 MISSION ST,4725 Mission St,NA,No,8,37.722589,-122.436051
3345 18th ST,3345 18th St,NA,No,8,37.76178,-122.418017
85 LAKEWOOD AV,85 Lakewood Av,NA,No,8,37.727605,-122.463921
129 JULIAN AV,129 Julian Av,NA,No,8,37.766061,-122.420756
165 GERMANIA ST,165 Germania St,NA,No,8,37.770449,-122.431179
93 SCOTT ST,93 Scott St,NA,No,8,37.770298,-122.435461
270 IVY ST,270 Ivy St,NA,No,8,37.777641,-122.422481
140 MASON ST,140 Mason St,NA,No,8,37.78486,-122.409173
1005 JONES ST,1005 Jones St,NA,No,8,37.790649,-122.414129
1802 DIVISADERO ST,1802 Divisadero St,NA,No,8,37.786363,-122.439805
1242 PACIFIC AV,1242 Pacific Av,NA,No,8,37.795939,-122.415731
715 CHESTNUT ST,715 Chestnut St,NA,No,8,37.803214,-122.415226
2200 JACKSON ST,2200 Jackson St,NA,No,8,37.793133,-122.431499
946 STOCKTON ST,946 Stockton St,NA,No,8,37.794717,-122.407801
3440 20th ST,3440 20th St,NA,No,8,37.759026,-122.417731
1719 PINE ST,1719 Pine St,NA,No,8,37.788939,-122.424155
1807 BROADWAY *,1807 Broadway,NA,No,8,37.794998,-122.427138
936 LEAVENWORth ST,936 Leavenworth St,NA,No,8,37.789862,-122.415162
874 SACRAMENTO ST,874 Sacramento St,NA,No,8,37.793357,-122.407494
1335 BAY ST,1335 Bay St,NA,No,8,37.803367,-122.428974
3947 MISSION ST,3947 Mission St,NA,No,8,37.734445,-122.425226
2440 MARKET ST,2440 Market St,NA,No,8,37.762731,-122.435871
15 SHIELDS ST,15 Shields St,NA,No,8,37.71773,-122.462961
1270 CHESTNUT ST,1270 Chestnut St,NA,No,8,37.802641,-122.424155
44 CERVANTES BL,44 Cervantes Bl,NA,No,8,37.803624,-122.437769
767 CHESTNUT ST,767 Chestnut St,NA,No,8,37.803222,-122.415926
1810 15th ST,1810 15th St,NA,No,8,37.766508,-122.424708
318 TOPEKA AV,318 Topeka Av,NA,No,8,37.731554,-122.395638
615 BRAZIL AV,615 Brazil Av,NA,No,8,37.722418,-122.429678
1123 CLAY ST,1123 Clay St,NA,No,8,37.793435,-122.411612
1505 GOUGH ST,1505 Gough St,NA,No,8,37.787433,-122.425469
2913 23rd ST,2913 23rd St,NA,No,8,37.754085,-122.410602
221 7th AV,221 7th Av,NA,No,8,37.784324,-122.465925
559 VALENCIA ST,559 Valencia St,NA,No,8,37.76401,-122.421505
153 VARENNES ST,153 Varennes St,NA,No,8,37.801393,-122.407072
330 PRESIDIO AV,330 Presidio Av,NA,No,8,37.788708,-122.44678
630 40th AV,630 40th Av,NA,No,8,37.776821,-122.500289
494 27th AV,494 27th Av,NA,No,8,37.780312,-122.486681
1549 JONES ST,1549 Jones St,NA,No,8,37.795588,-122.415159
1737 JACKSON ST,1737 Jackson St,NA,No,8,37.793562,-122.42381
969 BUSH ST,969 Bush St,NA,No,8,37.789325,-122.413079
1863 DONNER AV,1863 Donner Av,NA,No,8,37.727992,-122.400887
556 UNION ST,556 Union St,NA,No,8,37.800729,-122.408485
1054 PACIFIC AV,1054 Pacific Av,NA,No,8,37.796345,-122.412673
15 SONOMA ST,15 Sonoma St,NA,No,8,37.800388,-122.406428
365 BARTLETT ST,365 Bartlett St,NA,No,8,37.751237,-122.419115
141 EDDY ST,141 Eddy St,West Hotel,Yes,8,37.783986,-122.409938
1040 GREENWICH ST,1040 Greenwich St,NA,No,8,37.801668,-122.416909
1250 PACIFIC AV,1250 Pacific Av,NA,No,8,37.795931,-122.415891
705 BROADWAY *,705 Broadway,NA,No,8,37.79743,-122.408839
932 SHOTWELL ST,932 Shotwell St,NA,No,8,37.75295,-122.415533
940 BAY ST,940 Bay St,NA,No,8,37.804755,-122.42258
825 FILBERT ST,825 Filbert St,NA,No,8,37.800648,-122.413098
1447 BAKER ST,1447 Baker St,NA,No,8,37.784462,-122.443404
1878 9th AV,1878 9th Av,NA,No,8,37.753284,-122.465234
1132 PACIFIC AV,1132 Pacific Av,NA,No,8,37.796154,-122.41401
1754 MISSION ST,1754 Mission St,NA,No,8,37.769005,-122.420243
870 CHESTNUT ST,870 Chestnut St,NA,No,8,37.803341,-122.417659
1341 VALENCIA ST,1341 Valencia St,NA,No,8,37.751398,-122.420245
3782 MISSION ST,3782 Mission St,NA,No,8,37.736277,-122.424708
2251 JACKSON ST,2251 Jackson St,NA,No,8,37.792518,-122.432042
162 CONCOrd ST,162 Concord St,NA,No,8,37.711315,-122.442558
67 BERNArd ST,67 Bernard St,NA,No,8,37.796267,-122.414436
1515 SHAFTER AV,1515 Shafter Av,NA,No,8,37.729967,-122.389375
584 VALLEJO ST,584 Vallejo St,NA,No,8,37.799098,-122.407049
1330 SILVER AV,1330 Silver Av,NA,No,8,37.73103,-122.409859
310 ARBALLO DR,310 Arballo Dr,NA,No,8,37.720789,-122.484186
1625 JONES ST,1625 Jones St,NA,No,8,37.796215,-122.415304
678 BROADWAY *,678 Broadway,NA,No,8,37.79796,-122.408285
1030 LARKIN ST,1030 Larkin St,NA,No,8,37.787483,-122.418121
688 SHOTWELL ST,688 Shotwell St,NA,No,8,37.757438,-122.415964
754 BROADWAY *,754 Broadway,NA,No,8,37.797767,-122.409634
2927 IRVING ST,2927 Irving St,NA,No,8,37.762772,-122.489431
1037 PACIFIC AV,1037 Pacific Av,NA,No,8,37.79605,-122.412311
2814 INGALLS ST,2814 Ingalls St,NA,No,8,37.721456,-122.39117
789 SAN JOSE AV,789 San Jose Av,NA,No,8,37.742502,-122.422871
1106 SHOTWELL ST,1106 Shotwell St,NA,No,8,37.750605,-122.415218
760 BROADWAY *,760 Broadway,NA,No,8,37.797767,-122.409634
1267 CHESTNUT ST,1267 Chestnut St,NA,No,8,37.802118,-122.424044
671 SHOTWELL ST,671 Shotwell St,NA,No,8,37.757717,-122.415357
621 ANDERSON ST,621 Anderson St,NA,No,8,37.735685,-122.415286
3831 24th ST,3831 24th St,NA,No,8,37.751409,-122.428114
593 11th AV,593 11th Av,NA,No,8,37.77723,-122.469556
910 CLAY ST,910 Clay St,NA,No,8,37.794183,-122.408225
2000 TARAVAL ST,2000 Taraval St,NA,No,8,37.742666,-122.487707
594 VALENCIA ST,594 Valencia St,NA,No,8,37.763448,-122.422043
656 OFARRELL ST,656 Ofarrell St,NA,No,8,37.785687,-122.41559
2185 BAY ST,2185 Bay St,NA,No,8,37.801716,-122.442889
1040 BUSH ST,1040 Bush St,Mary Elizabeth Inn,Yes,8,37.789722,-122.414488
791 35th AV,791 35th Av,NA,No,8,37.774172,-122.495344
917 KEARNY ST,917 Kearny St,NA,No,8,37.796439,-122.405384
14 ROSELLA CT,14 Rosella Ct,NA,No,8,37.722194,-122.439101
318 BYXBEE ST,318 Byxbee St,NA,No,8,37.720057,-122.469581
1022 GREENWICH ST,1022 Greenwich St,NA,No,8,37.801602,-122.416629
7015 CALIFORNIA ST,7015 California St,NA,No,8,37.783302,-122.492966
3149 CALIFORNIA ST,3149 California St,NA,No,8,37.787011,-122.445981
797 14th ST,797 14th St,NA,No,8,37.767458,-122.430822
824 SARGENT ST,824 Sargent St,NA,No,8,37.716274,-122.470309
1915 LAGUNA ST,1915 Laguna St,NA,No,8,37.788837,-122.42906
42 ORBEN PL,42 Orben Pl,NA,No,8,37.788636,-122.432817
1282 PACIFIC AV,1282 Pacific Av,NA,No,8,37.795859,-122.41636
275 10th ST,275 10th St,Bishop Swing,Yes,8,37.773397,-122.412786
2652 POLK ST,2652 Polk St,NA,No,8,37.801208,-122.422666
1119 SHOTWELL ST,1119 Shotwell St,NA,No,8,37.750456,-122.414675
1104 STOCKTON ST,1104 Stockton St,NA,No,8,37.795972,-122.407995
1667 FULTON ST,1667 Fulton St,NA,No,8,37.775936,-122.443985
2426 BUCHANAN ST,2426 Buchanan St,NA,No,8,37.792711,-122.430938
1075 WASHINGTON ST,1075 Washington St,NA,No,8,37.794386,-122.411001
4337 19th ST,4337 19th St,NA,No,8,37.758881,-122.437644
2130 41ST AV,2130 41St Av,NA,No,8,37.746997,-122.499283
2133 STOCKTON ST,2133 Stockton St,NA,No,8,37.805682,-122.410674
846 CAPP ST,846 Capp St,NA,No,8,37.753086,-122.417741
50 POTOMAC ST,50 Potomac St,NA,No,8,37.770023,-122.432303
760 SHOTWELL ST,760 Shotwell St,NA,No,8,37.756265,-122.41585
315 11th AV,315 11th Av,NA,No,8,37.782337,-122.470075
1445 LA SALLE AV,1445 La Salle Av,NA,No,8,37.733797,-122.385771
1930 22ND AV,1930 22Nd Av,NA,No,8,37.751625,-122.479184
940 LEAVENWORth ST,940 Leavenworth St,NA,No,8,37.789925,-122.415194
39 WAVERLY PL,39 Waverly Pl,NA,No,8,37.793776,-122.406977
34 SPOFFOrd ST,34 Spofford St,NA,No,8,37.794569,-122.407266
760 7th AV,760 7th Av,NA,No,8,37.774232,-122.464537
87 CRESCENT AV,87 Crescent Av,NA,No,8,37.735398,-122.422993
950 BAY ST,950 Bay St,NA,No,8,37.804726,-122.422808
467 6th AV,467 6th Av,NA,No,8,37.779702,-122.464519
3226 26th ST,3226 26th St,NA,No,8,37.749497,-122.414428
125 GALEWOOD CR,125 Galewood Cr,NA,No,8,37.752011,-122.457269
1086 SOUth VAN NESS AV,1086 South Van Ness Av,NA,No,8,37.755806,-122.416889
832 RUSSIA AV,832 Russia Av,NA,No,8,37.718098,-122.43041
45 BROSNAN ST,45 Brosnan St,NA,No,8,37.768551,-122.423318
1216 CLAY ST,1216 Clay St,NA,No,8,37.793544,-122.413277
1556 KIRKWOOD AV,1556 Kirkwood Av,NA,No,8,37.737818,-122.388808
1383 38th AV,1383 38th Av,NA,No,8,37.761141,-122.497628
3279 CESAR CHAVEZ ST,3279 Cesar Chavez St,NA,No,8,37.747938,-122.415611
300 JOOST AV,300 Joost Av,NA,No,8,37.732486,-122.442304
643 MINNA ST,643 Minna St,NA,No,8,37.777845,-122.411313
701 24th AV,701 24th Av,NA,No,8,37.776138,-122.483566
1455 FILBERT ST,1455 Filbert St,NA,No,8,37.799342,-122.423034
399 EDINBURG ST,399 Edinburg St,NA,No,8,37.722788,-122.430538
172 6th ST,172 6th St,Dudley Apartments,Yes,8,37.779831,-122.407795
985 SHOTWELL ST,985 Shotwell St,NA,No,8,37.752653,-122.414989
308 EDDY ST,308 Eddy St,NA,No,8,37.784115,-122.412921
2156 MARKET ST,2156 Market St,NA,No,8,37.766985,-122.430348
890 KANSAS ST,890 Kansas St,NA,No,8,37.758356,-122.403239
2036 GREEN ST,2036 Green St,NA,No,8,37.796769,-122.432745
1956 MASON ST,1956 Mason St,NA,No,8,37.801734,-122.412604
1123 STOCKTON ST,1123 Stockton St,NA,No,8,37.796146,-122.408603
587 LONDON ST,587 London St,NA,No,8,37.719689,-122.437186
767 6th AV,767 6th Av,NA,No,8,37.774388,-122.464133
431 6th AV,431 6th Av,NA,No,7,37.780319,-122.464563
2 BRITTON ST,2 Britton St,NA,No,7,37.713753,-122.412279
2249 BEACH ST,2249 Beach St,NA,No,7,37.803102,-122.446088
1208 STOCKTON ST,1208 Stockton St,NA,No,7,37.796949,-122.408254
521 BURROWS ST,521 Burrows St,NA,No,7,37.727507,-122.408432
371 4th AV,371 4th Av,NA,No,7,37.781718,-122.462514
2190 BEACH ST,2190 Beach St,NA,No,7,37.803704,-122.445041
882 26th AV,882 26th Av,NA,No,7,37.772886,-122.485005
1550 BAY ST,1550 Bay St,NA,No,7,37.803726,-122.432381
3324 19th ST,3324 19th St,NA,No,7,37.760541,-122.417664
2707 44th AV,2707 44th Av,NA,No,7,37.73605,-122.502378
1715 WEBSTER ST,1715 Webster St,NA,No,7,37.786645,-122.431991
1272 SACRAMENTO ST,1272 Sacramento St,NA,No,7,37.792552,-122.413854
2412 28th AV,2412 28th Av,NA,No,7,37.742313,-122.485092
1390 MARKET ST,1390 Market St,NA,No,7,37.777224,-122.417361
1643 GROVE ST,1643 Grove St,NA,No,7,37.774925,-122.443608
216 WATERVILLE ST,216 Waterville St,NA,No,7,37.732034,-122.402721
529 4th AV,529 4th Av,NA,No,7,37.778558,-122.462286
1926 25th ST,1926 25th St,NA,No,7,37.752447,-122.398034
5672 MISSION ST,5672 Mission St,NA,No,7,37.710524,-122.448564
3649 MARKET ST,3649 Market St,NA,No,7,37.755199,-122.441179
1656 LEAVENWORth ST,1656 Leavenworth St,NA,No,7,37.796462,-122.41657
998 NOE ST,998 Noe St,NA,No,7,37.753198,-122.432366
2821 25th ST,2821 25th St,NA,No,7,37.751115,-122.406621
377 7th AV,377 7th Av,NA,No,7,37.781526,-122.465723
2000 BEACH ST,2000 Beach St,NA,No,7,37.804043,-122.442246
7001 CALIFORNIA ST,7001 California St,NA,No,7,37.783313,-122.492711
476 7th AV,476 7th Av,NA,No,7,37.779546,-122.464924
320 CHESTNUT ST,320 Chestnut St,NA,No,7,37.804493,-122.408753
819 MASON ST,819 Mason St,NA,No,7,37.791162,-122.410911
1547 MASON ST,1547 Mason St,NA,No,7,37.797817,-122.412326
2824 21ST ST,2824 21St St,NA,No,7,37.757738,-122.411041
1075 PACIFIC AV,1075 Pacific Av,NA,No,7,37.795966,-122.412857
143 GRAYSTONE TR,143 Graystone Tr,NA,No,7,37.757756,-122.446408
565 ELLIS ST,565 Ellis St,NA,No,7,37.784283,-122.415672
2000 FILLMORE ST,2000 Fillmore St,NA,No,7,37.788195,-122.433434
1039 PLYMOUth AV,1039 Plymouth Av,NA,No,7,37.720767,-122.456452
3809 20th ST,3809 20th St,NA,No,7,37.758012,-122.426128
1288 GREEN ST,1288 Green St,NA,No,7,37.798273,-122.420307
348 CHESTNUT ST,348 Chestnut St,NA,No,7,37.804435,-122.409127
2285 BROADWAY *,2285 Broadway,NA,No,7,37.794062,-122.434576
4612 3rd ST,4612 3rd St,NA,No,7,37.736264,-122.390549
502 SHOTWELL ST,502 Shotwell St,NA,No,7,37.760283,-122.416136
2821 JACKSON ST,2821 Jackson St,NA,No,7,37.791267,-122.441894
1700 GOLDEN GATE AV,1700 Golden Gate Av,NA,No,7,37.778839,-122.43894
727 GREEN ST,727 Green St,NA,No,7,37.799059,-122.411081
1665 HAYES ST,1665 Hayes St,NA,No,7,37.773953,-122.443735
1207 CHESTNUT ST,1207 Chestnut St,NA,No,7,37.802283,-122.423342
6104 CALIFORNIA ST,6104 California St,NA,No,7,37.784213,-122.483164
2322 21ST AV,2322 21St Av,NA,No,7,37.744417,-122.477609
855 BURNETT AV,855 Burnett Av,NA,No,7,37.748966,-122.444655
865 NORth POINT ST,865 North Point St,NA,No,7,37.80531,-122.421335
2031 OAKDALE AV,2031 Oakdale Av,NA,No,7,37.738993,-122.398614
1399 RHODE ISLAND ST,1399 Rhode Island St,NA,No,7,37.752191,-122.401112
551 WISCONSIN ST,551 Wisconsin St,NA,No,7,37.760473,-122.398929
241 CHESTNUT ST,241 Chestnut St,NA,No,7,37.804207,-122.407335
917 GRANT AV,917 Grant Av,NA,No,7,37.795481,-122.406859
2718 BRYANT ST,2718 Bryant St,NA,No,7,37.750813,-122.409259
104 WEBSTER ST,104 Webster St,NA,No,7,37.77159,-122.42843
1550 JACKSON ST,1550 Jackson St,NA,No,7,37.794523,-122.420572
194 VALMAR TR,194 Valmar Tr,NA,No,7,37.725448,-122.425371
985 CAPITOL AV,985 Capitol Av,NA,No,7,37.719714,-122.45945
542 MASON ST,542 Mason St,NA,No,7,37.788737,-122.409935
2330 25th ST,2330 25th St,NA,No,7,37.752133,-122.402059
653 SHOTWELL ST,653 Shotwell St,NA,No,7,37.757984,-122.415383
757 JACKSON ST,757 Jackson St,NA,No,7,37.795769,-122.407528
2937 26th ST,2937 26th St,NA,No,7,37.749497,-122.40849
192 SHAWNEE AV,192 Shawnee Av,NA,No,7,37.718987,-122.447561
20 ROMOLO PL,20 Romolo Pl,NA,No,7,37.798497,-122.40622
280 FAIR OAKS ST,280 Fair Oaks St,NA,No,7,37.752194,-122.424317
1465 REVERE AV,1465 Revere Av,NA,No,7,37.730051,-122.387849
3773 24th ST,3773 24th St,NA,No,7,37.751489,-122.426792
1351 STOCKTON ST,1351 Stockton St,NA,No,7,37.798191,-122.40909
74 JOHN ST,74 John St,NA,No,7,37.796042,-122.411116
1572 BUSH ST,1572 Bush St,NA,No,7,37.788521,-122.423219
395 CAPP ST,395 Capp St,NA,No,7,37.760521,-122.417983
1830 BEACH ST,1830 Beach St,NA,No,7,37.804164,-122.440246
60 28th ST,60 28th St,NA,No,7,37.745748,-122.42344
31 SALMON ST,31 Salmon St,NA,No,7,37.796582,-122.412755
969 VALENCIA ST,969 Valencia St,NA,No,7,37.757416,-122.420869
1350 MASON ST,1350 Mason St,NA,No,7,37.796189,-122.411445
1046 PACIFIC AV,1046 Pacific Av,NA,No,7,37.796365,-122.41251
442 MUNICH ST,442 Munich St,NA,No,7,37.71875,-122.428773
768 17th AV,768 17th Av,NA,No,7,37.773602,-122.475339
471 UNION ST,471 Union St,NA,No,7,37.800505,-122.407122
2647 MISSION ST,2647 Mission St,NA,No,7,37.754644,-122.418315
3620 17th ST,3620 17th St,NA,No,7,37.76321,-122.426859
440 BARTLETT ST,440 Bartlett St,NA,No,7,37.749892,-122.419642
3900 3rd ST,3900 3rd St,NA,No,7,37.741911,-122.388547
1438 MASON *,1438 Mason,NA,No,7,37.7968,-122.41154
39 AUBURN ST,39 Auburn St,NA,No,7,37.795795,-122.412564
3560 21ST ST,3560 21St St,NA,No,7,37.756791,-122.42703
2439 PACIFIC AV,2439 Pacific Av,NA,No,7,37.792997,-122.435356
1815 BROADWAY *,1815 Broadway,NA,No,7,37.79495,-122.427406
483 22ND AV,483 22Nd Av,NA,No,7,37.778549,-122.48162
1234 23rd AV,1234 23rd Av,NA,No,7,37.764563,-122.481163
608 26th AV,608 26th Av,NA,No,7,37.777914,-122.485402
3158 MISSION ST,3158 Mission St,NA,No,7,37.746817,-122.419467
1401 OCEAN AV,1401 Ocean Av,NA,No,7,37.723917,-122.457375
1220 PACIFIC AV,1220 Pacific Av,NA,No,7,37.795982,-122.415418
2623 MISSION ST,2623 Mission St,NA,No,7,37.75502,-122.418351
171 LANGTON ST,171 Langton St,NA,No,7,37.775606,-122.407207
1653 GRANT AV,1653 Grant Av,NA,No,7,37.802301,-122.408096
861 BRUSSELS ST,861 Brussels St,NA,No,7,37.721631,-122.402982
500 33rd AV,500 33rd Av,NA,No,7,37.779399,-122.493116
2635 23rd ST,2635 23rd St,NA,No,7,37.754176,-122.406188
1272 GREEN ST,1272 Green St,NA,No,7,37.798301,-122.420092
347 GREEN ST,347 Green St,NA,No,7,37.799729,-122.404931
1595 CLAY ST,1595 Clay St,NA,No,7,37.792431,-122.419052
752 SHOTWELL ST,752 Shotwell St,NA,No,7,37.756372,-122.415711
2201 POWELL ST,2201 Powell St,NA,No,7,37.805049,-122.411965
420 CHESTNUT ST,420 Chestnut St,NA,No,7,37.804389,-122.410477
2300 DIVISADERO ST,2300 Divisadero St,NA,No,7,37.790972,-122.440684
758 JACKSON ST,758 Jackson St,NA,No,7,37.796158,-122.407659
25 MASON ST,25 Mason St,NA,No,7,37.78375,-122.409494
1701 MASON ST,1701 Mason St,NA,No,7,37.799216,-122.412518
861 VALENCIA ST,861 Valencia St,NA,No,7,37.759147,-122.421052
5820 MISSION ST,5820 Mission St,NA,No,7,37.709339,-122.451893
849 LOMBArd ST,849 Lombard St,NA,No,7,37.802239,-122.415428
1101 PINE ST,1101 Pine St,NA,No,7,37.790279,-122.414132
830 POST ST,830 Post St,NA,No,7,37.787666,-122.415595
1000 CHESTNUT ST,1000 Chestnut St,NA,No,7,37.803133,-122.420121
1080 POST ST,1080 Post St,NA,No,7,37.787147,-122.419428
3100 TARAVAL ST,3100 Taraval St,NA,No,7,37.742181,-122.499495
1843 FILLMORE ST,1843 Fillmore St,NA,No,7,37.786591,-122.433669
114 KISKA rd,114 Kiska rd,NA,No,7,37.730629,-122.377093
660 JACKSON ST,660 Jackson St,NA,No,7,37.796225,-122.406224
795 20th AV,795 20th Av,NA,No,7,37.773058,-122.479025
2402 HARRISON ST,2402 Harrison St,NA,No,7,37.758831,-122.41274
830 ARGUELLO BL,830 Arguello Bl,NA,No,7,37.774809,-122.45807
105 JULIAN AV,105 Julian Av,NA,No,7,37.766412,-122.420876
146 ROSE ST,146 Rose St,NA,No,7,37.773623,-122.423261
2635 FILLMORE ST,2635 Fillmore St,NA,No,7,37.793856,-122.435077
1124 LEAVENWORth ST,1124 Leavenworth St,NA,No,7,37.791629,-122.415522
1601 SUNNYDALE AV,1601 Sunnydale Av,NA,No,7,37.71206,-122.417092
590 7th AV,590 7th Av,NA,No,7,37.777406,-122.46492
409 GREENWICH ST,409 Greenwich St,NA,No,7,37.802467,-122.4066
1270 FITZGERALD AV,1270 Fitzgerald Av,NA,No,7,37.721979,-122.392538
36 BRODERICK ST,36 Broderick St,NA,No,7,37.770669,-122.438313
348 2ND AV,348 2Nd Av,NA,No,7,37.782256,-122.459744
3280 MISSION ST,3280 Mission St,NA,No,7,37.744581,-122.421083
701 MINNA ST,701 Minna St,NA,No,7,37.776714,-122.412739
995 PINE ST,995 Pine St,NA,No,7,37.790483,-122.412018
1240 FILLMORE ST,1240 Fillmore St,NA,No,7,37.780922,-122.431808
1140 CLAY ST,1140 Clay St,NA,No,7,37.793802,-122.411986
3942 MISSION ST,3942 Mission St,NA,No,7,37.73478,-122.42585
44 MCALLISTER ST,44 Mcallister St,Civic Center Residence,Yes,7,37.781329,-122.412787
57 NORTON ST,57 Norton St,NA,No,7,37.724877,-122.435978
153 PROSPECT AV,153 Prospect Av,NA,No,7,37.742705,-122.418939
1023 WISCONSIN ST,1023 Wisconsin St,NA,No,7,37.753665,-122.396631
1100 CLAY ST,1100 Clay St,NA,No,7,37.793709,-122.411428
1053 FILBERT ST,1053 Filbert St,NA,No,7,37.80016,-122.416758
808 GRANT AV,808 Grant Av,NA,No,7,37.794509,-122.406039
651 4th AV,651 4th Av,NA,No,7,37.776349,-122.462126
1073 SOUth VAN NESS AV,1073 South Van Ness Av,NA,No,7,37.756061,-122.416257
1047 STOCKTON ST,1047 Stockton St,NA,No,7,37.795533,-122.408481
1109 SHRADER ST,1109 Shrader St,NA,No,7,37.764441,-122.451313
1850 GOUGH ST,1850 Gough St,NA,No,7,37.790677,-122.425502
2246 MISSION ST,2246 Mission St,NA,No,7,37.76106,-122.419482
902 DIVISADERO ST,902 Divisadero St,NA,No,7,37.77796,-122.438081
344 JONES ST,344 Jones St,NA,No,7,37.784505,-122.412444
1409 SOUth VAN NESS AV,1409 South Van Ness Av,NA,No,7,37.750567,-122.415802
1224 HYDE ST,1224 Hyde St,NA,No,7,37.792338,-122.417425
791 7th AV,791 7th Av,NA,No,7,37.773795,-122.465129
845 HYDE ST,845 Hyde St,NA,No,7,37.788759,-122.417233
2295 BROADWAY *,2295 Broadway,NA,No,7,37.794047,-122.434693
1406 VALENCIA ST,1406 Valencia St,NA,No,7,37.750312,-122.420787
434 CASTRO ST,434 Castro St,NA,No,7,37.761893,-122.435415
1600 FILBERT ST,1600 Filbert St,NA,No,7,37.7994,-122.426134
2634 JUDAH ST,2634 Judah St,NA,No,7,37.761352,-122.490491
937 HAIGHT ST,937 Haight St,NA,No,7,37.770903,-122.437681
1027 STOCKTON ST,1027 Stockton St,NA,No,7,37.795262,-122.408496
690 6th AV,690 6th Av,NA,No,7,37.775594,-122.463606
761 PINE ST,761 Pine St,NA,No,7,37.790981,-122.408395
420 BERRY ST,420 Berry St,NA,No,7,37.772009,-122.399084
367 4th AV,367 4th Av,NA,No,7,37.781787,-122.462519
661 ALVARADO ST,661 Alvarado St,NA,No,7,37.753368,-122.435616
864 ELLIS ST,864 Ellis St,NA,No,7,37.784164,-122.420426
689 26th AV,689 26th Av,NA,No,7,37.776524,-122.485806
589 POST ST,589 Post St,NA,No,7,37.787712,-122.411394
1049 PACIFIC AV,1049 Pacific Av,NA,No,7,37.796012,-122.412548
252 CAPP ST,252 Capp St,NA,No,7,37.762642,-122.418659
1338 STOCKTON ST,1338 Stockton St,NA,No,7,37.798246,-122.408384
322 5th AV,322 5th Av,NA,No,7,37.782525,-122.462989
900 TAYLOR ST,900 Taylor St,NA,No,7,37.7909,-122.412146
466 22ND AV,466 22Nd Av,NA,No,7,37.778938,-122.481097
1990 CALIFORNIA ST,1990 California St,NA,No,7,37.790074,-122.427087
14 BUCARELI DR,14 Bucareli Dr,NA,No,7,37.718266,-122.480908
1007 VALENCIA ST,1007 Valencia St,NA,No,7,37.756676,-122.420798
543 BUENA VISTA WEST AV,543 Buena Vista West Av,NA,No,7,37.766155,-122.443432
433 14th ST,433 14th St,NA,No,7,37.767826,-122.422976
2920 BUCHANAN ST,2920 Buchanan St,NA,No,7,37.797112,-122.431787
1125 MASON ST,1125 Mason St,NA,No,7,37.793963,-122.411514
123 NOE ST,123 Noe St,NA,No,7,37.767079,-122.433047
582 GROVE ST,582 Grove St,NA,No,7,37.777692,-122.426193
3921 MISSION ST,3921 Mission St,NA,No,7,37.734822,-122.424851
124 DOLPHIN CT,124 Dolphin Ct,NA,No,7,37.728152,-122.371067
900 CHESTNUT ST,900 Chestnut St,NA,No,7,37.803378,-122.418497
183 EUREKA ST,183 Eureka St,NA,No,7,37.759481,-122.437812
671 24th AV,671 24th Av,NA,No,7,37.776861,-122.483756
1545 SACRAMENTO ST,1545 Sacramento St,NA,No,7,37.79157,-122.418257
949 ASHBURY ST,949 Ashbury St,NA,No,7,37.764863,-122.446199
549 CHESTNUT ST,549 Chestnut St,NA,No,7,37.803582,-122.412354
54 SALMON ST,54 Salmon St,NA,No,7,37.796804,-122.412528
2301 BROADWAY *,2301 Broadway,NA,No,7,37.794044,-122.435115
20 VINTON CT,20 Vinton Ct,NA,No,7,37.791836,-122.406196
80 7th AV,80 7th Av,NA,No,7,37.787075,-122.465462
1867 8th AV,1867 8th Av,NA,No,7,37.753508,-122.464834
1851 SUNNYDALE AV,1851 Sunnydale Av,NA,No,7,37.712968,-122.420285
47 SEWArd ST,47 Seward St,NA,No,7,37.758043,-122.4403
1040 CHESTNUT ST,1040 Chestnut St,NA,No,6,37.803108,-122.420609
53 NIAGARA AV,53 Niagara Av,NA,No,6,37.716196,-122.442809
205 COLLINS ST,205 Collins St,NA,No,6,37.781747,-122.450257
1308 POWELL ST,1308 Powell St,NA,No,6,37.796648,-122.409865
1826 MASON ST,1826 Mason St,NA,No,6,37.800496,-122.412275
37 NORTON ST,37 Norton St,NA,No,6,37.724735,-122.435682
649 7th AV,649 7th Av,NA,No,6,37.776261,-122.465346
318 2ND AV,318 2Nd Av,NA,No,6,37.782739,-122.459778
1050 GRANT AV,1050 Grant Av,NA,No,6,37.796672,-122.406608
551 MONTEREY BL,551 Monterey Bl,NA,No,6,37.731257,-122.447681
526 6th AV,526 6th Av,NA,No,6,37.778593,-122.463779
1114 CLAY ST,1114 Clay St,NA,No,6,37.793747,-122.411577
4078 24th ST,4078 24th St,NA,No,6,37.751565,-122.433648
1080 EDDY ST,1080 Eddy St,NA,No,6,37.782607,-122.425332
500 JOOST AV,500 Joost Av,NA,No,6,37.73257,-122.446651
801 CHESTNUT ST,801 Chestnut St,NA,No,6,37.803161,-122.416835
1724 MASON ST,1724 Mason St,NA,No,6,37.799554,-122.412017
2174 BUSH ST,2174 Bush St,NA,No,6,37.787343,-122.433076
2523 LAKE ST,2523 Lake St,NA,No,6,37.78543,-122.486647
2810 FRANKLIN ST,2810 Franklin St,NA,No,6,37.800477,-122.425743
514 3rd AV,514 3rd Av,NA,No,6,37.778908,-122.460621
2468 POST ST,2468 Post St,NA,No,6,37.784109,-122.442272
21 AUBURN ST,21 Auburn St,NA,No,6,37.795608,-122.412529
735 TAYLOR ST,735 Taylor St,NA,No,6,37.78928,-122.412349
2466 CHESTNUT ST,2466 Chestnut St,NA,No,6,37.800117,-122.444007
1255 JACKSON ST,1255 Jackson St,NA,No,6,37.794594,-122.415835
4262 24th ST,4262 24th St,NA,No,6,37.75132,-122.437716
235 GRANADA AV,235 Granada Av,NA,No,6,37.722646,-122.45748
42 SHOTWELL ST,42 Shotwell St,NA,No,6,37.767714,-122.416947
2280 PACIFIC AV,2280 Pacific Av,NA,No,6,37.793878,-122.432771
281 TURK ST,281 Turk St,NA,No,6,37.782656,-122.413763
1184 JACKSON ST,1184 Jackson St,NA,No,6,37.795143,-122.414603
1530 LEAVENWORth ST,1530 Leavenworth St,NA,No,6,37.795234,-122.416202
17 NIAGARA AV,17 Niagara Av,NA,No,6,37.715757,-122.442262
2201 CALIFORNIA ST,2201 California St,NA,No,6,37.789101,-122.430768
760 NORth POINT ST,760 North Point St,NA,No,6,37.8061,-122.419643
1771 10th AV,1771 10th Av,NA,No,6,37.755215,-122.467098
133 LAKE ST,133 Lake St,NA,No,6,37.786593,-122.461004
945 LARKIN ST,945 Larkin St,NA,No,6,37.786768,-122.418506
1052 CHESTNUT ST,1052 Chestnut St,NA,No,6,37.803084,-122.420797
3201 23rd ST,3201 23rd St,NA,No,6,37.753748,-122.416671
4719 GEARY BL,4719 Geary Bl,NA,No,6,37.780453,-122.469971
1327 47th AV,1327 47th Av,NA,No,6,37.76167,-122.507418
1930 FRANKLIN ST,1930 Franklin St,NA,No,6,37.792459,-122.424079
1083 HOLLISTER AV,1083 Hollister Av,NA,No,6,37.719334,-122.392284
2624 BUSH ST,2624 Bush St,NA,No,6,37.78639,-122.440661
276 CARL ST,276 Carl St,NA,No,6,37.765517,-122.454015
675 25th AV,675 25th Av,NA,No,6,37.776784,-122.484825
1424 SOUth VAN NESS AV,1424 South Van Ness Av,NA,No,6,37.750272,-122.416402
660 BUSH ST,660 Bush St,NA,No,6,37.790494,-122.408378
5656 MISSION ST,5656 Mission St,NA,No,6,37.71074,-122.448232
401 CRESCENT AV,401 Crescent Av,NA,No,6,37.734998,-122.416591
4505 CALIFORNIA ST,4505 California St,NA,No,6,37.78457,-122.465833
1049 CAPP ST,1049 Capp St,NA,No,6,37.749869,-122.416813
44 WHITNEY ST,44 Whitney St,NA,No,6,37.740913,-122.428076
2180 GREEN ST,2180 Green St,NA,No,6,37.796427,-122.434977
1459 SHAFTER AV,1459 Shafter Av,NA,No,6,37.729348,-122.388275
858 BROADWAY *,858 Broadway,NA,No,6,37.797579,-122.41144
343 5th AV,343 5th Av,NA,No,6,37.78215,-122.46362
826 JACKSON ST,826 Jackson St,NA,No,6,37.795959,-122.408853
549 5th AV,549 5th Av,NA,No,6,37.778235,-122.463338
1610 LEAVENWORth ST,1610 Leavenworth St,NA,No,6,37.795852,-122.416482
308 TURK ST,308 Turk St,NA,No,6,37.783036,-122.414437
1222 44th AV,1222 44th Av,NA,No,6,37.763772,-122.503685
479 7th AV,479 7th Av,NA,No,6,37.779448,-122.465575
835 BROADWAY *,835 Broadway,NA,No,6,37.797059,-122.410853
1407 39th AV,1407 39th Av,NA,No,6,37.760531,-122.498687
300 IRVING ST,300 Irving St,NA,No,6,37.764421,-122.461255
1481 WASHINGTON ST,1481 Washington St,NA,No,6,37.793565,-122.417575
1801 DIVISADERO ST,1801 Divisadero St,NA,No,6,37.786267,-122.440396
950 FRANKLIN ST,950 Franklin St,NA,No,6,37.783391,-122.422366
65 OSCEOLA LN,65 Osceola Ln,NA,No,6,37.731301,-122.382743
3002 BRODERICK ST,3002 Broderick St,NA,No,6,37.798132,-122.444021
700 TAYLOR ST,700 Taylor St,NA,No,6,37.789044,-122.411781
1326 SAN BRUNO AV,1326 San Bruno Av,NA,No,6,37.752704,-122.404636
2819 25th ST,2819 25th St,NA,No,6,37.751115,-122.406621
1499 SUTTER ST,1499 Sutter St,NA,No,6,37.786894,-122.424638
3675 24th ST,3675 24th St,NA,No,6,37.751642,-122.424507
626 PINE ST,626 Pine St,NA,No,6,37.791614,-122.40622
2415 OCTAVIA ST,2415 Octavia St,NA,No,6,37.794925,-122.42861
1166 HAIGHT ST,1166 Haight St,NA,No,6,37.770925,-122.441589
236 4th AV,236 4th Av,NA,No,6,37.784231,-122.462036
121 RETIRO WY,121 Retiro Wy,NA,No,6,37.805701,-122.438279
2110 BAKER ST,2110 Baker St,NA,No,6,37.790837,-122.444108
516 ELLIS ST,516 Ellis St,NA,No,6,37.784805,-122.414716
1362 SACRAMENTO ST,1362 Sacramento St,NA,No,6,37.792374,-122.415342
319 CAPP ST,319 Capp St,NA,No,6,37.76153,-122.417919
2300 BUCHANAN ST,2300 Buchanan St,NA,No,6,37.791384,-122.430792
2440 VAN NESS AV,2440 Van Ness Av,NA,No,6,37.798184,-122.423365
1929 STOCKTON ST,1929 Stockton St,NA,No,6,37.803631,-122.410094
2609 JUDAH ST,2609 Judah St,NA,No,6,37.760873,-122.490154
1446 LEAVENWORth ST,1446 Leavenworth St,NA,No,6,37.794468,-122.416133
331 OCTAVIA ST,331 Octavia St,NA,No,6,37.775373,-122.424625
1229 CHESTNUT ST,1229 Chestnut St,NA,No,6,37.802138,-122.423584
208 ELLSWORth ST,208 Ellsworth St,NA,No,6,37.74013,-122.414754
1127 KEARNY ST,1127 Kearny St,NA,No,6,37.798387,-122.405988
950 GRANT AV,950 Grant Av,NA,No,6,37.795726,-122.406368
519 LAGUNA ST,519 Laguna St,NA,No,6,37.776096,-122.426361
2363 25th AV,2363 25th Av,NA,No,6,37.743446,-122.482498
45 WHITNEY ST,45 Whitney St,NA,No,6,37.740953,-122.427474
2061 BUSH ST,2061 Bush St,NA,No,6,37.787032,-122.431108
2250 BAY ST,2250 Bay St,NA,No,6,37.802006,-122.444173
401 CHESTNUT ST,401 Chestnut St,NA,No,6,37.804008,-122.41015
2503 15th ST,2503 15th St,NA,No,6,37.766104,-122.438606
1070 CAPP ST,1070 Capp St,NA,No,6,37.749659,-122.4174
1759 BROADWAY *,1759 Broadway,NA,No,6,37.795105,-122.426
27 AUBURN ST,27 Auburn St,NA,No,6,37.79567,-122.412541
845 PINE ST,845 Pine St,NA,No,6,37.790706,-122.409719
911 VALENCIA ST,911 Valencia St,NA,No,6,37.758241,-122.420948
680 4th AV,680 4th Av,NA,No,6,37.775856,-122.461476
1343 SACRAMENTO ST,1343 Sacramento St,NA,No,6,37.792101,-122.414882
148 FELTON ST,148 Felton St,NA,No,6,37.729815,-122.406328
2422 MISSION ST,2422 Mission St,NA,No,6,37.75818,-122.419199
594 CHESTNUT ST,594 Chestnut St,NA,No,6,37.803964,-122.4131
120 ELLIS ST,120 Ellis St,NA,No,6,37.78561,-122.408155
815 GRANT AV,815 Grant Av,NA,No,6,37.794548,-122.406543
1715 BROADWAY *,1715 Broadway,NA,No,6,37.79516,-122.425577
1175 VALENCIA ST,1175 Valencia St,NA,No,6,37.754141,-122.420495
856 FELL ST,856 Fell St,NA,No,6,37.775071,-122.431933
479 POTRERO AV,479 Potrero Av,NA,No,6,37.763567,-122.406988
168 LEXINGTON ST,168 Lexington St,NA,No,6,37.760627,-122.420915
3864 18th ST,3864 18th St,NA,No,6,37.761473,-122.429834
524 BAKER ST,524 Baker St,NA,No,6,37.77595,-122.441
1340 LOMBArd ST,1340 Lombard St,NA,No,6,37.801763,-122.42373
550 UNION ST,550 Union St,NA,No,6,37.800729,-122.408485
1070 PACIFIC AV,1070 Pacific Av,NA,No,6,37.796298,-122.412882
4343 3rd ST,4343 3rd St,NA,No,6,37.738093,-122.389208
39 RAYMOND AV,39 Raymond Av,NA,No,6,37.711943,-122.404231
572 FUNSTON AV,572 Funston Av,NA,No,6,37.777499,-122.471217
1273 RHODE ISLAND ST,1273 Rhode Island St,NA,No,6,37.753642,-122.401189
748 JACKSON ST,748 Jackson St,NA,No,6,37.796173,-122.407541
1485 PINE ST,1485 Pine St,NA,No,6,37.789417,-122.420069
1807 MASON ST,1807 Mason St,NA,No,6,37.80018,-122.41273
3428 SAN BRUNO AV,3428 San Bruno Av,NA,No,6,37.718677,-122.400654
677 VALENCIA ST,677 Valencia St,NA,No,6,37.762037,-122.421335
2700 MISSION ST,2700 Mission St,NA,No,6,37.753609,-122.418882
419 AthENS ST,419 Athens St,NA,No,6,37.721189,-122.428427
2264 BUSH ST,2264 Bush St,NA,No,6,37.787154,-122.434549
1076 CAPP ST,1076 Capp St,NA,No,6,37.74957,-122.417392
1454 36th AV,1454 36th Av,NA,No,6,37.759877,-122.494829
1029 GEARY ST,1029 Geary St,NA,No,6,37.785563,-122.420304
3714 23rd ST,3714 23rd St,NA,No,6,37.753561,-122.425778
3975 MISSION ST,3975 Mission St,NA,No,6,37.734068,-122.4256
1036 POLK ST,1036 Polk St,NA,No,6,37.786602,-122.41964
221 SAN JOSE AV,221 San Jose Av,NA,No,6,37.751648,-122.42128
1413 BRODERICK ST,1413 Broderick St,NA,No,6,37.783367,-122.441494
870 BROADWAY *,870 Broadway,NA,No,6,37.797564,-122.411558
427 ARGUELLO BL,427 Arguello Bl,NA,No,6,37.782618,-122.459352
2027 FILLMORE ST,2027 Fillmore St,NA,No,6,37.788311,-122.434066
3414 25th ST,3414 25th St,NA,No,6,37.750796,-122.418649
90 NIDO AV,90 Nido Av,NA,No,6,37.7799,-122.446046
1360 LOMBArd ST,1360 Lombard St,NA,No,6,37.801763,-122.42373
2246 FRANCISCO ST,2246 Francisco St,NA,No,6,37.801298,-122.442224
745 NEWHALL ST,745 Newhall St,NA,No,6,37.739423,-122.388534
2340 FRANKLIN ST,2340 Franklin St,NA,No,6,37.796163,-122.424903
1018 HOLLISTER AV,1018 Hollister Av,NA,No,6,37.7191,-122.390799
129 4th AV,129 4th Av,NA,No,6,37.786132,-122.462832
742 COMMERCIAL ST,742 Commercial St,NA,No,6,37.794052,-122.405442
320 CHURCH ST,320 Church St,NA,No,6,37.765713,-122.429139
1329 CLAY ST,1329 Clay St,NA,No,6,37.792932,-122.414996
717 6th AV,717 6th Av,NA,No,6,37.774936,-122.464173
1501 PACHECO ST,1501 Pacheco St,NA,No,6,37.750324,-122.47637
39 BERNArd ST,39 Bernard St,NA,No,6,37.796306,-122.414121
1067 PACIFIC AV,1067 Pacific Av,NA,No,6,37.795976,-122.41278
1001 JAMESTOWN AV,1001 Jamestown Av,NA,No,6,37.71836,-122.3939
201 TURK ST,201 Turk St,NA,No,6,37.782651,-122.41294
439 JONES ST,439 Jones St,NA,No,6,37.785365,-122.413129
1888 GREEN ST,1888 Green St,NA,No,6,37.797043,-122.430171
106 BENNINGTON ST,106 Bennington St,NA,No,6,37.738889,-122.418009
156 LINDA ST,156 Linda St,NA,No,6,37.759209,-122.422992
583 CHESTNUT ST,583 Chestnut St,NA,No,6,37.803664,-122.412967
61 HENRY ST,61 Henry St,NA,No,6,37.766481,-122.43233
450 PALMETTO AV,450 Palmetto Av,NA,No,6,37.710796,-122.465926
324 BALBOA ST,324 Balboa St,NA,No,6,37.777556,-122.462378
935 MENDELL ST,935 Mendell St,NA,No,6,37.737327,-122.387586
3019 23rd ST,3019 23rd St,NA,No,6,37.753983,-122.412517
2050 LYON ST,2050 Lyon St,NA,No,6,37.789915,-122.445723
540 STOCKTON ST,540 Stockton St,NA,No,6,37.791025,-122.406979
374 FUNSTON AV,374 Funston Av,NA,No,6,37.781241,-122.471488
1246 SACRAMENTO ST,1246 Sacramento St,NA,No,6,37.792686,-122.413454
126 JULIAN AV,126 Julian Av,NA,No,6,37.766056,-122.421282
1278 thOMAS AV,1278 thomas Av,NA,No,6,37.727184,-122.385059
2263 MISSION ST,2263 Mission St,NA,No,6,37.760878,-122.418912
3061 16th ST,3061 16th St,NA,No,6,37.764731,-122.420901
909 GEARY ST,909 Geary St,*Hartland Hotel,Yes,6,37.785818,-122.418287
2151 CALIFORNIA ST,2151 California St,NA,No,6,37.789114,-122.429761
1848 BUCHANAN ST,1848 Buchanan St,NA,No,6,37.787163,-122.429813
1814 BUSH ST,1814 Bush St,NA,No,6,37.788036,-122.427753
1624 HOWArd ST,1624 Howard St,NA,No,6,37.771541,-122.41762
1732 ANZA ST,1732 Anza St,NA,No,6,37.779214,-122.466928
1930 ELLIS ST,1930 Ellis St,NA,No,6,37.78187,-122.437961
2930 21ST ST,2930 21St St,NA,No,6,37.757609,-122.413117
777 7th AV,777 7th Av,NA,No,6,37.773928,-122.465175
50 EDINBURG ST,50 Edinburg St,NA,No,6,37.728089,-122.427164
2405 OCTAVIA ST,2405 Octavia St,NA,No,6,37.79465,-122.428554
1134 MASON ST,1134 Mason St,NA,No,6,37.794031,-122.411041
239 BRIGHTON AV,239 Brighton Av,NA,No,6,37.722617,-122.455442
4442 FULTON ST,4442 Fulton St,NA,No,6,37.772937,-122.479655
2250 BUCHANAN ST,2250 Buchanan St,NA,No,6,37.790927,-122.430698
376 4th AV,376 4th Av,NA,No,6,37.781679,-122.461854
2322 ANZA ST,2322 Anza St,NA,No,6,37.778924,-122.473174
2208 BAKER ST,2208 Baker St,NA,No,6,37.791515,-122.444359
905 DIAMOND ST,905 Diamond St,NA,No,6,37.750162,-122.436008
515 OFARRELL ST,515 Ofarrell St,NA,No,6,37.785502,-122.413294
562 SUTTER ST,562 Sutter St,NA,No,6,37.78936,-122.409792
367 CHESTNUT ST,367 Chestnut St,NA,No,6,37.804009,-122.409395
164 28th ST,164 28th St,NA,No,6,37.745583,-122.426143
223 FONT BL,223 Font Bl,NA,No,6,37.716201,-122.475486
120 PARKER AV,120 Parker Av,NA,No,6,37.783573,-122.454258
886 BROADWAY *,886 Broadway,NA,No,6,37.797476,-122.411673
655 39th AV,655 39th Av,NA,No,6,37.776429,-122.499843
1413 POWELL ST,1413 Powell St,NA,No,6,37.797669,-122.41055
264 5th AV,264 5th Av,NA,No,6,37.7837,-122.463074
2141 BUCHANAN ST,2141 Buchanan St,NA,No,6,37.789872,-122.431052
1251 PACIFIC AV,1251 Pacific Av,NA,No,6,37.795515,-122.415817
1610 GOLDEN GATE AV,1610 Golden Gate Av,NA,No,6,37.779111,-122.437303
716 VALENCIA ST,716 Valencia St,NA,No,6,37.761368,-122.421864
700 LAGUNA ST,700 Laguna St,NA,No,6,37.777676,-122.426318
6112 CALIFORNIA ST,6112 California St,NA,No,6,37.784203,-122.48338
261 ELLSWORth ST,261 Ellsworth St,NA,No,6,37.739428,-122.414432
303 30th AV,303 30th Av,NA,No,6,37.783386,-122.490524
315 HYDE ST,315 Hyde St,NA,No,6,37.783821,-122.416169
2464 GREENWICH ST,2464 Greenwich St,NA,No,6,37.798706,-122.440244
2425 24th ST,2425 24th St,NA,No,6,37.75292,-122.403902
547 DOLORES ST,547 Dolores St,NA,No,6,37.760694,-122.425606
1160 CLAY ST,1160 Clay St,NA,No,6,37.793765,-122.412273
825 MASON ST,825 Mason St,NA,No,6,37.791224,-122.410923
1298 SACRAMENTO ST,1298 Sacramento St,NA,No,6,37.792492,-122.414083
687 3rd AV,687 3rd Av,NA,No,6,37.775783,-122.460967
280 UNION ST,280 Union St,NA,No,6,37.801306,-122.403841
2330 LARKIN ST,2330 Larkin St,NA,No,6,37.799502,-122.420358
1171 CLAY ST,1171 Clay St,NA,No,6,37.793292,-122.41236
1907 GREENWICH ST,1907 Greenwich St,NA,No,6,37.79924,-122.431346
865 ALABAMA ST,865 Alabama St,NA,No,6,37.758051,-122.4112
1740 POLK ST,1740 Polk St,NA,No,6,37.792985,-122.420879
1500 MASON ST,1500 Mason St,NA,No,6,37.797441,-122.411774
912 GRANT AV,912 Grant Av,NA,No,6,37.795353,-122.406325
1035 SUTTER ST,1035 Sutter St,NA,No,6,37.787822,-122.417379
1900 GOUGH ST,1900 Gough St,NA,No,6,37.791173,-122.4256
722 MASON ST,722 Mason St,NA,No,6,37.790347,-122.410344
456 GOLD MINE DR,456 Gold Mine Dr,NA,No,6,37.739353,-122.436927
179 ALHAMBRA ST,179 Alhambra St,NA,No,6,37.801517,-122.439161
3334 SAN BRUNO AV,3334 San Bruno Av,NA,No,6,37.719653,-122.40084
475 6th AV,475 6th Av,NA,No,6,37.779565,-122.464509
602 MASON ST,602 Mason St,NA,No,6,37.789251,-122.410102
260 4th AV,260 4th Av,NA,No,6,37.783819,-122.462007
1840 FRANKLIN ST,1840 Franklin St,NA,No,6,37.791681,-122.424014
37 HOUSTON ST,37 Houston St,NA,No,6,37.803749,-122.416107
7 NOBLES AL,7 Nobles Al,NA,No,6,37.800932,-122.407371
535 COLUMBUS AV,535 Columbus Av,NA,No,6,37.799669,-122.409665
757 7th AV,757 7th Av,NA,No,6,37.774202,-122.465195
409 7th AV,409 7th Av,NA,No,6,37.780476,-122.465649
1138 MONTGOMERY ST,1138 Montgomery St,NA,No,6,37.799714,-122.403913
1640 HYDE ST,1640 Hyde St,NA,No,6,37.796044,-122.418091
1254 GOLDEN GATE AV,1254 Golden Gate Av,NA,No,6,37.779936,-122.431289
2274 47th AV,2274 47th Av,NA,No,6,37.744096,-122.50553
260 SAN JOSE AV,260 San Jose Av,NA,No,6,37.751014,-122.421911
1650 JONES ST,1650 Jones St,NA,No,6,37.796636,-122.414948
201 MALLORCA WY,201 Mallorca Wy,NA,No,6,37.80259,-122.438358
1501 KIRKWOOD AV,1501 Kirkwood Av,NA,No,6,37.737001,-122.388434
426 2ND AV,426 2Nd Av,NA,No,6,37.780611,-122.459627
262 7th AV,262 7th Av,NA,No,6,37.783597,-122.465214
2426 BRYANT ST,2426 Bryant St,NA,No,6,37.755492,-122.409704
675 7th AV,675 7th Av,NA,No,6,37.775776,-122.465308
309 CHESTNUT ST,309 Chestnut St,NA,No,6,37.804125,-122.408541
438 VERNON ST,438 Vernon St,NA,No,6,37.720402,-122.467784
2641 21ST ST,2641 21St St,NA,No,6,37.757497,-122.407501
1663 HAYES ST,1663 Hayes St,NA,No,6,37.773953,-122.443735
1677 BUSH ST,1677 Bush St,NA,No,6,37.787861,-122.424786
1018 FLORIDA ST,1018 Florida St,NA,No,6,37.755597,-122.410533
1225 BAY ST,1225 Bay St,NA,No,6,37.803583,-122.427276
412 24th AV,412 24th Av,NA,No,6,37.781828,-122.483613
353 KING ST,353 King St,NA,No,6,37.774986,-122.395175
855 45th AV,855 45th Av,NA,No,6,37.772406,-122.506006
15 SAN CARLOS ST,15 San Carlos St,NA,No,6,37.762432,-122.419984
2334 19th ST,2334 19th St,NA,No,5,37.761019,-122.405707
2904 CALIFORNIA ST,2904 California St,NA,No,5,37.788073,-122.442467
449 CHESTNUT ST,449 Chestnut St,NA,No,5,37.80381,-122.410708
29 GRIJALVA DR,29 Grijalva Dr,NA,No,5,37.71659,-122.478208
354 RALSTON ST,354 Ralston St,NA,No,5,37.718891,-122.468667
3347 20th ST,3347 20th St,NA,No,5,37.758621,-122.415612
1356 SACRAMENTO ST,1356 Sacramento St,NA,No,5,37.792383,-122.415273
673 BROADWAY *,673 Broadway,NA,No,5,37.797491,-122.408132
3212 INGALLS ST,3212 Ingalls St,NA,No,5,37.718998,-122.393434
1524 LEAVENWORth ST,1524 Leavenworth St,NA,No,5,37.795162,-122.416226
2725 CLEMENT ST,2725 Clement St,NA,No,5,37.781596,-122.488631
101 BALBOA ST,101 Balboa St,NA,No,5,37.777271,-122.459998
4796 MISSION ST,4796 Mission St,NA,No,5,37.721529,-122.437607
2650 SAN BRUNO AV,2650 San Bruno Av,NA,No,5,37.728092,-122.404188
503 CAPITOL AV,503 Capitol Av,NA,No,5,37.715057,-122.459273
354 5th AV,354 5th Av,NA,No,5,37.781974,-122.462949
44 5th ST,44 5th St,NA,No,5,37.783241,-122.407504
2527 MORAGA ST,2527 Moraga St,NA,No,5,37.755271,-122.489978
1243 QUESADA AV,1243 Quesada Av,NA,No,5,37.728318,-122.383131
730 BROADWAY *,730 Broadway,NA,No,5,37.797796,-122.409195
180 TURK ST,180 Turk St,NA,No,5,37.783236,-122.412214
215 CAPISTRANO AV,215 Capistrano Av,NA,No,5,37.727563,-122.438048
282 NAPLES ST,282 Naples St,NA,No,5,37.724299,-122.428786
1957 CHESTNUT ST,1957 Chestnut St,NA,No,5,37.800621,-122.43553
355 4th AV,355 4th Av,NA,No,5,37.781993,-122.462534
692 VALENCIA ST,692 Valencia St,NA,No,5,37.76189,-122.421913
880 VALLEJO ST,880 Vallejo St,NA,No,5,37.798385,-122.411742
2440 24th ST,2440 24th St,NA,No,5,37.753364,-122.404118
1810 BUSH ST,1810 Bush St,NA,No,5,37.788058,-122.427579
1038 PINE ST,1038 Pine St,NA,No,5,37.79086,-122.41305
1526 BRODERICK ST,1526 Broderick St,NA,No,5,37.784571,-122.441136
1 DANIEL BURNHAM CT,1 Daniel Burnham Ct,NA,No,5,37.786755,-122.422491
449 DUBOCE AV,449 Duboce Av,NA,No,5,37.769152,-122.430077
2179 FUNSTON AV,2179 Funston Av,NA,No,5,37.747405,-122.469737
3801 SAN BRUNO AV,3801 San Bruno Av,NA,No,5,37.714512,-122.400421
1608 16th AV,1608 16th Av,NA,No,5,37.758034,-122.473418
2157 BEACH ST,2157 Beach St,NA,No,5,37.803294,-122.44458
721 GEARY ST,721 Geary St,NA,No,5,37.78619,-122.415158
2355 NORth POINT ST,2355 North Point St,NA,No,5,37.802167,-122.445933
948 JACKSON ST,948 Jackson St,NA,No,5,37.795662,-122.41079
1527 SANCHEZ ST,1527 Sanchez St,NA,No,5,37.744716,-122.428677
1275 17th AV,1275 17th Av,NA,No,5,37.764148,-122.475348
334 2ND AV,334 2Nd Av,NA,No,5,37.782462,-122.459759
1548 MASON ST,1548 Mason St,NA,No,5,37.79789,-122.411802
4394 24th ST,4394 24th St,NA,No,5,37.751104,-122.440486
1934 BUCHANAN ST,1934 Buchanan St,NA,No,5,37.78798,-122.429965
493 EDDY ST,493 Eddy St,NA,No,5,37.783331,-122.415653
541 VALLEJO ST,541 Vallejo St,NA,No,5,37.798715,-122.406257
390 LIBERTY ST,390 Liberty St,NA,No,5,37.75734,-122.42991
2724 24th ST,2724 24th St,NA,No,5,37.753077,-122.407073
2295 CALIFORNIA ST,2295 California St,NA,No,5,37.788957,-122.431902
65 HENRY ST,65 Henry St,NA,No,5,37.766481,-122.43233
78 LEE AV,78 Lee Av,NA,No,5,37.719646,-122.453773
381 5th AV,381 5th Av,NA,No,5,37.781558,-122.463562
208 CAPP ST,208 Capp St,NA,No,5,37.763247,-122.418561
270 7th AV,270 7th Av,NA,No,5,37.783509,-122.465207
1204 HOWArd ST,1204 Howard St,NA,No,5,37.776259,-122.411982
3125 LINCOLN WY,3125 Lincoln Wy,NA,No,5,37.764559,-122.491654
1001 POLK ST,1001 Polk St,NA,No,5,37.786117,-122.420049
118 TAYLOR ST,118 Taylor St,NA,No,5,37.783459,-122.410579
247 BLYthDALE AV,247 Blythdale Av,NA,No,5,37.710962,-122.421307
204 SAWYER ST,204 Sawyer St,NA,No,5,37.714881,-122.413878
150 RICE ST,150 Rice St,NA,No,5,37.709545,-122.458795
351 TURK ST,351 Turk St,NA,No,5,37.78261,-122.414784
1201 KEARNY ST,1201 Kearny St,NA,No,5,37.799127,-122.405799
2000 BROADWAY *,2000 Broadway,NA,No,5,37.795191,-122.430411
807 MASON ST,807 Mason St,NA,No,5,37.791037,-122.410886
1400 STOCKTON ST,1400 Stockton St,NA,No,5,37.798896,-122.408657
195 ALHAMBRA ST,195 Alhambra St,NA,No,5,37.801462,-122.439388
951 OFARRELL ST,951 Ofarrell St,NA,No,5,37.784602,-122.420365
24 CRESTLAKE DR,24 Crestlake Dr,NA,No,5,37.73511,-122.480316
272 4th AV,272 4th Av,NA,No,5,37.783614,-122.461993
355 CAPP ST,355 Capp St,NA,No,5,37.761024,-122.417871
958 PACIFIC AV,958 Pacific Av,NA,No,5,37.796522,-122.41111
2217 MISSION ST,2217 Mission St,NA,No,5,37.761467,-122.418968
462 CAMBRIDGE ST,462 Cambridge St,NA,No,5,37.725581,-122.418382
665 6th AV,665 6th Av,NA,No,5,37.776046,-122.464253
3933 MISSION ST,3933 Mission St,NA,No,5,37.734661,-122.425011
151 BLYthDALE AV,151 Blythdale Av,NA,No,5,37.710662,-122.419657
535 GEARY ST,535 Geary St,NA,No,5,37.786643,-122.412155
4331 20th ST,4331 20th St,NA,No,5,37.757361,-122.436451
3814 FULTON ST,3814 Fulton St,NA,No,5,37.773346,-122.472674
810 GONZALEZ DR,810 Gonzalez Dr,NA,No,5,37.718266,-122.480908
97 FARALLONES ST,97 Farallones St,NA,No,5,37.713889,-122.455916
3468 MISSION ST,3468 Mission St,NA,No,5,37.741266,-122.423002
425 FONT BL,425 Font Bl,NA,No,5,37.718266,-122.480908
2590 3rd ST,2590 3rd St,NA,No,5,37.756794,-122.388488
438 VIENNA ST,438 Vienna St,NA,No,5,37.721517,-122.429958
1157 BROADWAY *,1157 Broadway,NA,No,5,37.796498,-122.416054
1339 STEINER ST,1339 Steiner St,NA,No,5,37.781597,-122.434858
1316 SOUth VAN NESS AV,1316 South Van Ness Av,NA,No,5,37.752015,-122.416569
303 GREEN ST,303 Green St,NA,No,5,37.799954,-122.40444
929 BUSH ST,929 Bush St,NA,No,5,37.789482,-122.412592
648 ASHBURY ST,648 Ashbury St,NA,No,5,37.769373,-122.446517
244 3rd AV,244 3rd Av,NA,No,5,37.784074,-122.460949
2468 BUSH ST,2468 Bush St,NA,No,5,37.786604,-122.437674
395 EDDY ST,395 Eddy St,NA,No,5,37.783541,-122.414013
548 STEINER ST,548 Steiner St,NA,No,5,37.774504,-122.432322
1408 LYON ST,1408 Lyon St,NA,No,5,37.784068,-122.444405
665 PINE ST,665 Pine St,NA,No,5,37.791158,-122.406789
1356 FULTON ST,1356 Fulton St,NA,No,5,37.777019,-122.439174
1235 7th AV,1235 7th Av,NA,No,5,37.765223,-122.464579
30 CASTLE ST,30 Castle St,NA,No,5,37.800456,-122.405005
1863 LAGUNA ST,1863 Laguna St,NA,No,5,37.788419,-122.428954
255 5th AV,255 5th Av,NA,No,5,37.783807,-122.463739
159 ALHAMBRA ST,159 Alhambra St,NA,No,5,37.801672,-122.438791
295 TOPEKA AV,295 Topeka Av,NA,No,5,37.732144,-122.395684
356 CHESTNUT ST,356 Chestnut St,NA,No,5,37.804449,-122.409235
3165 24th ST,3165 24th St,NA,No,5,37.752191,-122.41555
156 ALBION ST,156 Albion St,NA,No,5,37.763832,-122.423016
2091 FOLSOM ST,2091 Folsom St,NA,No,5,37.763895,-122.414977
1316 STOCKTON ST,1316 Stockton St,NA,No,5,37.798006,-122.408456
5 FUENTE AV,5 Fuente Av,NA,No,5,37.71945,-122.47745
2828 TARAVAL ST,2828 Taraval St,NA,No,5,37.742382,-122.496495
2836 BALBOA ST,2836 Balboa St,NA,No,5,37.776309,-122.48946
1084 SOUth VAN NESS AV,1084 South Van Ness Av,NA,No,5,37.755867,-122.416895
347 LISBON ST,347 Lisbon St,NA,No,5,37.722686,-122.432744
30 BLYthDALE AV,30 Blythdale Av,NA,No,5,37.710768,-122.41708
2095 JACKSON ST,2095 Jackson St,NA,No,5,37.792872,-122.429354
1420 TAYLOR ST,1420 Taylor St,NA,No,5,37.795569,-122.41288
1501 BALBOA ST,1501 Balboa St,NA,No,5,37.776586,-122.475074
1531 JONES ST,1531 Jones St,NA,No,5,37.795279,-122.415157
630 PACIFIC AV,630 Pacific Av,NA,No,5,37.797181,-122.406249
16 BERNArd ST,16 Bernard St,NA,No,5,37.796608,-122.41383
718 NAPLES ST,718 Naples St,NA,No,5,37.717528,-122.434061
176 YERBA BUENA AV,176 Yerba Buena Av,NA,No,5,37.735711,-122.461549
575 HAIGHT ST,575 Haight St,NA,No,5,37.771697,-122.431603
3100 KAMILLE CT,3100 Kamille Ct,NA,No,5,37.748848,-122.412619
138 TRUMBULL ST,138 Trumbull St,NA,No,5,37.730588,-122.427464
815 25th AV,815 25th Av,NA,No,5,37.773986,-122.484623
2418 VAN NESS AV,2418 Van Ness Av,NA,No,5,37.797931,-122.423419
3518 16th ST,3518 16th St,NA,No,5,37.764505,-122.431801
971 PACIFIC AV,971 Pacific Av,NA,No,5,37.796206,-122.411159
1870 WASHINGTON ST,1870 Washington St,NA,No,5,37.79312,-122.424066
1443 47th AV,1443 47th Av,NA,No,5,37.759533,-122.507268
744 6th AV,744 6th Av,NA,No,5,37.774623,-122.463493
3955 17th ST,3955 17th St,NA,No,5,37.762327,-122.434264
1149 VALENCIA ST,1149 Valencia St,NA,No,5,37.754521,-122.420531
869 RUTLAND ST,869 Rutland St,NA,No,5,37.71167,-122.407554
1355 PINE ST,1355 Pine St,NA,No,5,37.789647,-122.418075
601 BANKS ST,601 Banks St,NA,No,5,37.735746,-122.412784
34 TURK ST,34 Turk St,Dalt Hotel,Yes,5,37.783613,-122.409886
63 TURNER TR,63 Turner Tr,NA,No,5,37.756562,-122.394964
1378 47th AV,1378 47th Av,NA,No,5,37.760809,-122.506701
127 WETMORE ST,127 Wetmore St,NA,No,5,37.794108,-122.410575
250 KEARNY ST,250 Kearny St,NA,No,5,37.790498,-122.403595
147 ALHAMBRA ST,147 Alhambra St,NA,No,5,37.80189,-122.438667
839 BRAZIL AV,839 Brazil Av,NA,No,5,37.721554,-122.427697
2733 MISSION ST,2733 Mission St,NA,No,5,37.753266,-122.418183
445 AthENS ST,445 Athens St,NA,No,5,37.720791,-122.428727
3525 MISSION ST,3525 Mission St,NA,No,5,37.740414,-122.422858
27 WAYNE PL,27 Wayne Pl,NA,No,5,37.796782,-122.411115
656 POST ST,656 Post St,NA,No,5,37.787929,-122.412714
924 GRANT AV,924 Grant Av,NA,No,5,37.795589,-122.406329
14 UNIVERSITY ST,14 University St,NA,No,5,37.730178,-122.415857
866 NAPLES ST,866 Naples St,NA,No,5,37.715574,-122.435491
410 BARTLETT ST,410 Bartlett St,NA,No,5,37.750363,-122.419586
2078 GREEN ST,2078 Green St,NA,No,5,37.79665,-122.433336
81 FARALLONES ST,81 Farallones St,NA,No,5,37.713825,-122.455319
848 STOCKTON ST,848 Stockton St,NA,No,5,37.793706,-122.4076
1534 TAYLOR ST,1534 Taylor St,NA,No,5,37.796627,-122.413132
238 EDDY ST,238 Eddy St,Windsor Hotel,Yes,5,37.784342,-122.41168
1824 JACKSON ST,1824 Jackson St,NA,No,5,37.79395,-122.42521
186 WOOL ST,186 Wool St,NA,No,5,37.7394,-122.41727
642 MOSCOW ST,642 Moscow St,NA,No,5,37.717579,-122.430752
2310 DIVISADERO ST,2310 Divisadero St,NA,No,5,37.791111,-122.440712
472 UNION ST,472 Union St,NA,No,5,37.800869,-122.407272
44 PRAGUE ST,44 Prague St,NA,No,5,37.721483,-122.425618
1889 BROADWAY *,1889 Broadway,NA,No,5,37.79491,-122.428049
1047 CONNECTICUT ST,1047 Connecticut St,NA,No,5,37.753665,-122.396631
179 JULIAN AV,179 Julian Av,NA,No,5,37.765404,-122.420693
3116 24th ST,3116 24th St,NA,No,5,37.752609,-122.414575
866 JACKSON ST,866 Jackson St,NA,No,5,37.79593,-122.409461
1825 BRODERICK ST,1825 Broderick St,NA,No,5,37.787222,-122.442246
6 LEROY PL,6 Leroy Pl,NA,No,5,37.791877,-122.414904
2469 15th AV,2469 15th Av,NA,No,5,37.741984,-122.471626
1060 PINE ST,1060 Pine St,NA,No,5,37.790826,-122.413322
124 VALMAR TR,124 Valmar Tr,NA,No,5,37.725656,-122.424659
1437 CHESTNUT ST,1437 Chestnut St,NA,No,5,37.801704,-122.427015
1445 48th AV,1445 48th Av,NA,No,5,37.759453,-122.508335
4120 FULTON ST,4120 Fulton St,NA,No,5,37.773191,-122.476085
1233 ARGUELLO BL,1233 Arguello Bl,NA,No,5,37.765559,-122.458109
789 6th AV,789 6th Av,NA,No,5,37.773959,-122.464037
49 WATER ST,49 Water St,NA,No,5,37.804196,-122.414165
2 PARKER AV,2 Parker Av,NA,No,5,37.786069,-122.454439
840 CALIFORNIA ST,840 California St,NA,No,5,37.792379,-122.408266
1475 OAKDALE AV,1475 Oakdale Av,NA,No,5,37.733083,-122.388192
522 5th AV,522 5th Av,NA,No,5,37.778676,-122.462712
1261 PACIFIC AV,1261 Pacific Av,NA,No,5,37.795505,-122.415895
3479 MISSION ST,3479 Mission St,NA,No,5,37.741142,-122.422382
862 VALLEJO ST,862 Vallejo St,NA,No,5,37.798524,-122.411526
817 MASON ST,817 Mason St,NA,No,5,37.791099,-122.410898
8 JOY ST,8 Joy St,NA,No,5,37.743858,-122.406522
2401 24th AV,2401 24th Av,NA,No,5,37.74256,-122.481209
2440 BROADWAY *,2440 Broadway,NA,No,5,37.794257,-122.437409
1034 CLAY ST,1034 Clay St,NA,No,5,37.793932,-122.410208
410 GONZALEZ DR,410 Gonzalez Dr,NA,No,5,37.716716,-122.477004
1037 BROADWAY *,1037 Broadway,NA,No,5,37.796735,-122.41416
131 SANTA MARINA ST,131 Santa Marina St,NA,No,5,37.739734,-122.420515
15 ALHAMBRA ST,15 Alhambra St,NA,No,5,37.802693,-122.437441
758 SAN JOSE AV,758 San Jose Av,NA,No,5,37.742686,-122.423474
2727 CLAY ST,2727 Clay St,NA,No,5,37.789969,-122.437925
277 DUNCAN ST,277 Duncan St,NA,No,5,37.745886,-122.426345
1848 FELL ST,1848 Fell St,NA,No,5,37.772995,-122.448252
1395 SHAFTER AV,1395 Shafter Av,NA,No,5,37.728637,-122.387023
630 7th AV,630 7th Av,NA,No,5,37.776587,-122.464707
91 LAKEWOOD AV,91 Lakewood Av,NA,No,5,37.727703,-122.463859
320 EL CAMINO DEL MAR *,320 El Camino Del Mar *,NA,No,5,37.787792,-122.486774
410 FAIR OAKS ST,410 Fair Oaks St,NA,No,5,37.749967,-122.424075
666 OFARRELL ST,666 Ofarrell St,NA,No,5,37.785709,-122.415869
947 INNES AV,947 Innes Av,NA,No,5,37.732306,-122.376838
490 5th AV,490 5th Av,NA,No,5,37.77934,-122.462912
840 SHOTWELL ST,840 Shotwell St,NA,No,5,37.754976,-122.415734
1123 JACKSON ST,1123 Jackson St,NA,No,5,37.794986,-122.413612
492 7th AV,492 7th Av,NA,No,5,37.779298,-122.465058
988 CAPP ST,988 Capp St,NA,No,5,37.750913,-122.41752
33 SAN JOSE AV,33 San Jose Av,NA,No,5,37.754687,-122.421325
1290 SOUth VAN NESS AV,1290 South Van Ness Av,NA,No,5,37.752542,-122.416588
2041 BROADWAY *,2041 Broadway,NA,No,5,37.794525,-122.430562
1355 BAY SHORE BL,1355 Bay Shore Bl,NA,No,5,37.80334,-122.429187
501 7th AV,501 7th Av,NA,No,5,37.778858,-122.465386
1515 GOUGH ST,1515 Gough St,NA,No,5,37.787761,-122.425536
1685 SUTTER ST,1685 Sutter St,NA,No,5,37.78653,-122.427982
1619 35th AV,1619 35th Av,NA,No,5,37.756785,-122.494179
1275 HOLLISTER AV,1275 Hollister Av,NA,No,5,37.721211,-122.395589
1082 JACKSON ST,1082 Jackson St,NA,No,5,37.795418,-122.412898
63 WANDA ST,63 Wanda St,NA,No,5,37.722643,-122.440104
804 GRANT AV,804 Grant Av,NA,No,5,37.794421,-122.406005
2412 FULTON ST,2412 Fulton St,NA,No,5,37.774731,-122.45673
2537 BRYANT ST,2537 Bryant St,NA,No,5,37.753792,-122.408905
1505 FRANCISCO ST,1505 Francisco St,NA,No,5,37.802419,-122.430134
1255 ALABAMA ST,1255 Alabama St,NA,No,5,37.7517,-122.41036
641 BALBOA ST,641 Balboa St,NA,No,5,37.776995,-122.465866
730 STOCKTON ST,730 Stockton St,NA,No,5,37.792704,-122.407392
645 STOCKTON ST,645 Stockton St,NA,No,5,37.79181,-122.407801
2721 CLAY ST,2721 Clay St,NA,No,5,37.790021,-122.437836
710 45th AV,710 45th Av,NA,No,5,37.775052,-122.505602
2871 22ND ST,2871 22Nd St,NA,No,5,37.755635,-122.411823
729 GUERRERO ST,729 Guerrero St,NA,No,5,37.759494,-122.423301
461 CHESTNUT ST,461 Chestnut St,NA,No,5,37.803786,-122.4109
259 LEE AV,259 Lee Av,NA,No,5,37.722929,-122.454427
139 CAINE AV,139 Caine Av,NA,No,5,37.715725,-122.451547
855 PINE ST,855 Pine St,NA,No,5,37.790684,-122.409895
1186 TREAT AV,1186 Treat Av,NA,No,5,37.751225,-122.413075
1398 HAYES ST,1398 Hayes St,NA,No,5,37.775046,-122.439356
467 7th AV,467 7th Av,NA,No,5,37.779654,-122.46559
1668 WASHINGTON ST,1668 Washington St,NA,No,5,37.793543,-122.42072
3542 17th ST,3542 17th St,NA,No,5,37.763436,-122.424999
711 22ND ST,711 22Nd St,NA,No,5,37.757764,-122.388611
633 CAMBRIDGE ST,633 Cambridge St,NA,No,5,37.723662,-122.41694
3017 20th ST,3017 20th St,NA,No,5,37.758883,-122.411062
333 PHELAN AV,333 Phelan Av,NA,No,5,37.729636,-122.452688
2050 TAYLOR ST,2050 Taylor St,NA,No,5,37.801538,-122.414273
533 PARIS ST,533 Paris St,NA,No,5,37.720015,-122.43585
491 6th AV,491 6th Av,NA,No,5,37.779277,-122.464336
134 17th AV,134 17th Av,NA,No,5,37.785458,-122.476196
2337 MISSION ST,2337 Mission St,NA,No,5,37.759618,-122.418791
738 STOCKTON ST,738 Stockton St,NA,No,5,37.792809,-122.407413
1626 BRODERICK ST,1626 Broderick St,NA,No,5,37.785482,-122.441349
3365 CESAR CHAVEZ ST,3365 Cesar Chavez St,NA,No,5,37.747767,-122.417366
1355 CALIFORNIA ST,1355 California St,NA,No,5,37.790774,-122.416602
1102 PALOU AV,1102 Palou Av,NA,No,5,37.72882,-122.381507
1106 POTRERO AV,1106 Potrero Av,NA,No,5,37.754326,-122.406803
268 CHURCH ST,268 Church St,NA,No,5,37.76634,-122.42907
165 ALBION ST,165 Albion St,NA,No,5,37.763808,-122.422441
25 CArd AL,25 Card Al,NA,No,5,37.798872,-122.409441
1269 PACIFIC AV,1269 Pacific Av,NA,No,5,37.795522,-122.416059
520 BUCHANAN ST,520 Buchanan St,NA,No,5,37.774773,-122.427361
4 BROOKLYN PL,4 Brooklyn Pl,NA,No,5,37.792837,-122.407178
306 JERSEY ST,306 Jersey St,NA,No,5,37.750766,-122.432087
150 PRAGUE ST,150 Prague St,NA,No,5,37.719808,-122.426879
527 BROADWAY *,527 Broadway,NA,No,5,37.797726,-122.405992
1594 HAYES ST,1594 Hayes St,NA,No,5,37.774599,-122.442618
935 GEARY ST,935 Geary St,NA,No,5,37.785773,-122.418639
711 CAPP ST,711 Capp St,NA,No,5,37.755031,-122.417296
1534 SHAFTER AV,1534 Shafter Av,NA,No,5,37.730571,-122.389373
2987 MISSION ST,2987 Mission St,NA,No,5,37.749414,-122.417828
1546 LEAVENWORth ST,1546 Leavenworth St,NA,No,5,37.795371,-122.416269
535 ARGUELLO BL,535 Arguello Bl,NA,No,5,37.780424,-122.459196
60 KEYSTONE WY,60 Keystone Wy,NA,No,5,37.726959,-122.46232
69 KEYSTONE WY,69 Keystone Wy,NA,No,5,37.72725,-122.462779
1021 WISCONSIN ST,1021 Wisconsin St,NA,No,5,37.753665,-122.396631
1050 PINE ST,1050 Pine St,NA,No,5,37.790839,-122.413215
337 FULTON ST,337 Fulton St,NA,No,5,37.778594,-122.422309
660 4th AV,660 4th Av,NA,No,5,37.776201,-122.461457
801 JONES ST,801 Jones St,NA,No,5,37.788798,-122.413841
4347 20th ST,4347 20th St,NA,No,5,37.757356,-122.436537
3783 24th ST,3783 24th St,NA,No,4,37.751572,-122.427104
1181 CLAY ST,1181 Clay St,NA,No,4,37.793276,-122.412532
390 CLEMENTINA ST,390 Clementina St,NA,No,4,37.78112,-122.40367
372 BAKER ST,372 Baker St,NA,No,4,37.77445,-122.440736
1383 37th AV,1383 37th Av,NA,No,4,37.761187,-122.496571
363 MADISON ST,363 Madison St,NA,No,4,37.724714,-122.421729
1166 JACKSON ST,1166 Jackson St,NA,No,4,37.79532,-122.414351
959 POWELL ST,959 Powell St,NA,No,4,37.79364,-122.409748
2 BRONTE ST,2 Bronte St,NA,No,4,37.739649,-122.410314
1608 FOLSOM ST,1608 Folsom St,NA,No,4,37.770782,-122.415372
401 BROADWAY *,401 Broadway,NA,No,4,37.797989,-122.404029
1155 SOUth VAN NESS AV,1155 South Van Ness Av,NA,No,4,37.754708,-122.416129
489 35th AV,489 35th Av,NA,No,4,37.779929,-122.495739
310 MADISON ST,310 Madison St,NA,No,4,37.725025,-122.42247
301 GRAFTON AV,301 Grafton Av,NA,No,4,37.719813,-122.456301
1401 MASON ST,1401 Mason St,NA,No,4,37.796406,-122.411973
531 BALBOA ST,531 Balboa St,NA,No,4,37.776961,-122.46457
581 3rd AV,581 3rd Av,NA,No,4,37.777783,-122.461162
955 BUSH ST,955 Bush St,NA,No,4,37.789349,-122.412893
2075 QUESADA AV,2075 Quesada Av,NA,No,4,37.737195,-122.398787
220 DUBLIN ST,220 Dublin St,NA,No,4,37.716742,-122.428118
352 LEXINGTON ST,352 Lexington St,NA,No,4,37.757644,-122.420604
2150 BALBOA ST,2150 Balboa St,NA,No,4,37.776588,-122.482068
111 7th AV,111 7th Av,NA,No,4,37.786331,-122.466021
86 PARKER AV,86 Parker Av,NA,No,4,37.784461,-122.454304
2255 MARKET ST,2255 Market St,NA,No,4,37.764764,-122.43184
401 MUNICH ST,401 Munich St,NA,No,4,37.71912,-122.427853
750 KIRKWOOD AV,750 Kirkwood Av,NA,No,4,37.729479,-122.37379
262 GRAND VIEW AV,262 Grand View Av,NA,No,4,37.754063,-122.441451
880 SOUth VAN NESS AV,880 South Van Ness Av,NA,No,4,37.759047,-122.417217
335 2ND AV,335 2Nd Av,NA,No,4,37.782284,-122.460402
2337 MARKET ST,2337 Market St,NA,No,4,37.763209,-122.433811
424 TOCOLOMA AV,424 Tocoloma Av,NA,No,4,37.71014,-122.39897
2395 BRYANT ST,2395 Bryant St,NA,No,4,37.756146,-122.40913
834 ARKANSAS ST,834 Arkansas St,NA,No,4,37.75557,-122.398111
606 POST ST,606 Post St,NA,No,4,37.787984,-122.411957
133 ALPINE TR,133 Alpine Tr,NA,No,4,37.768403,-122.437183
984 HAMPSHIRE ST,984 Hampshire St,NA,No,4,37.756321,-122.407771
108 MONTEREY BL,108 Monterey Bl,NA,No,4,37.731864,-122.437649
3444 18th ST,3444 18th St,NA,No,4,37.761976,-122.420448
3624 FOLSOM ST,3624 Folsom St,NA,No,4,37.741069,-122.41343
126 NAPLES ST,126 Naples St,NA,No,4,37.726741,-122.427103
345 WINDING WY,345 Winding Wy,NA,No,4,37.709126,-122.437549
1740 LARKIN ST,1740 Larkin St,NA,No,4,37.794059,-122.419429
45 WAYNE PL,45 Wayne Pl,NA,No,4,37.796983,-122.411156
2921 PINE ST,2921 Pine St,NA,No,4,37.786474,-122.443913
2401 BRYANT ST,2401 Bryant St,NA,No,4,37.755806,-122.409226
1249 JACKSON ST,1249 Jackson St,NA,No,4,37.794605,-122.415749
953 UNION ST,953 Union St,NA,No,4,37.799511,-122.414993
368 7th AV,368 7th Av,NA,No,4,37.781672,-122.465076
2114 MISSION ST,2114 Mission St,NA,No,4,37.76309,-122.419829
1340 DOLORES ST,1340 Dolores St,NA,No,4,37.748007,-122.425129
2048 GREEN ST,2048 Green St,NA,No,4,37.796747,-122.432916
1900 MCALLISTER ST,1900 Mcallister St,NA,No,4,37.777373,-122.443527
2350 NORth POINT ST,2350 North Point St,NA,No,4,37.802736,-122.445961
953 JONES ST,953 Jones St,NA,No,4,37.790186,-122.414113
2045 BROADWAY *,2045 Broadway,NA,No,4,37.794507,-122.430682
40 PARKRIDGE DR,40 Parkridge Dr,NA,No,4,37.751726,-122.445332
1250 CHESTNUT ST,1250 Chestnut St,NA,No,4,37.802676,-122.423874
439 MUNICH ST,439 Munich St,NA,No,4,37.718566,-122.428221
925 VALLEJO ST,925 Vallejo St,NA,No,4,37.797725,-122.412549
1814 MASON ST,1814 Mason St,NA,No,4,37.800347,-122.412245
32 POPE ST,32 Pope St,NA,No,4,37.714353,-122.441666
702 VALLEJO ST,702 Vallejo St,NA,No,4,37.798703,-122.409132
1331 GRANT AV,1331 Grant Av,NA,No,4,37.799176,-122.407486
2284 MISSION ST,2284 Mission St,NA,No,4,37.760471,-122.419513
244 VALLEY ST,244 Valley St,NA,No,4,37.744679,-122.427803
2298 GREEN ST,2298 Green St,NA,No,4,37.796204,-122.436787
1000 MARKET ST,1000 Market St,NA,No,4,37.782044,-122.410989
673 SAN JOSE AV,673 San Jose Av,NA,No,4,37.74466,-122.422081
620 JONES ST,620 Jones St,NA,No,4,37.78716,-122.41289
15 OTSEGO AV,15 Otsego Av,NA,No,4,37.726779,-122.438737
60 VALLEY ST,60 Valley St,NA,No,4,37.744932,-122.423639
77 PLEASANT ST,77 Pleasant St,NA,No,4,37.792705,-122.413967
2170 GREEN ST,2170 Green St,NA,No,4,37.796503,-122.434848
568 SHOTWELL ST,568 Shotwell St,NA,No,4,37.759282,-122.416139
1427 GRANT AV,1427 Grant Av,NA,No,4,37.800067,-122.407646
2766 MISSION ST,2766 Mission St,NA,No,4,37.752751,-122.418846
1532 GREEN ST,1532 Green St,NA,No,4,37.79781,-122.424548
542 TARAVAL ST,542 Taraval St,NA,No,4,37.743405,-122.472139
491 VIENNA ST,491 Vienna St,NA,No,4,37.720511,-122.43003
12 HEMWAY TR,12 Hemway Tr,NA,No,4,37.775864,-122.447987
3935 MISSION ST,3935 Mission St,NA,No,4,37.734607,-122.425065
703 BALBOA ST,703 Balboa St,NA,No,4,37.77698,-122.466402
1155 VALENCIA ST,1155 Valencia St,NA,No,4,37.754394,-122.420519
3665 24th ST,3665 24th St,NA,No,4,37.751658,-122.424391
335 MUNICH ST,335 Munich St,NA,No,4,37.720185,-122.426998
3420 26th ST,3420 26th St,NA,No,4,37.749194,-122.419112
1756 HYDE ST,1756 Hyde St,NA,No,4,37.797087,-122.418341
201 11th AV,201 11th Av,NA,No,4,37.784383,-122.470159
2221 PACIFIC AV,2221 Pacific Av,NA,No,4,37.793395,-122.432339
1174 KEARNY ST,1174 Kearny St,NA,No,4,37.798808,-122.405414
550 GEARY ST,550 Geary St,NA,No,4,37.787098,-122.412538
2594 44th AV,2594 44th Av,NA,No,4,37.738328,-122.502049
1420 STRIPED BASS ST,1420 Striped Bass St,NA,No,4,37.82571,-122.376031
527 DUBOCE AV,527 Duboce Av,NA,No,4,37.769041,-122.431959
1445 MASON ST,1445 Mason St,NA,No,4,37.796792,-122.412182
70 CAMERON WY,70 Cameron Wy,NA,No,4,37.719535,-122.388204
910 BAY ST,910 Bay St,NA,No,4,37.80476,-122.422201
70 HANCOCK ST,70 Hancock St,NA,No,4,37.76064,-122.429867
230 MOSCOW ST,230 Moscow St,NA,No,4,37.723978,-122.425914
3072 24th ST,3072 24th St,NA,No,4,37.752758,-122.413514
450 LISBON ST,450 Lisbon St,NA,No,4,37.721315,-122.434469
2334 MISSION ST,2334 Mission St,NA,No,4,37.75964,-122.419452
1328 STOCKTON ST,1328 Stockton St,NA,No,4,37.798086,-122.408472
1223 37th AV,1223 37th Av,NA,No,4,37.764074,-122.496839
1447 CHESTNUT ST,1447 Chestnut St,NA,No,4,37.801688,-122.427144
224 BRAZIL AV,224 Brazil Av,NA,No,4,37.723538,-122.432935
3914 24th ST,3914 24th St,NA,No,4,37.751777,-122.430128
128 JUAN BAUTISTA CR,128 Juan Bautista Cr,NA,No,4,37.717129,-122.479042
363 MUNICH ST,363 Munich St,NA,No,4,37.719773,-122.427309
4001 BALBOA ST,4001 Balboa St,NA,No,4,37.775297,-122.501787
1463 ALABAMA ST,1463 Alabama St,NA,No,4,37.748587,-122.410295
1424 JONES ST,1424 Jones St,NA,No,4,37.7945,-122.414383
1701 LARKIN ST,1701 Larkin St,NA,No,4,37.793679,-122.419783
1160 PINE ST,1160 Pine St,NA,No,4,37.790617,-122.414946
350 2ND AV,350 2Nd Av,NA,No,4,37.782188,-122.459739
551 24th AV,551 24th Av,NA,No,4,37.779099,-122.483919
735 MINNA ST,735 Minna St,NA,No,4,37.776474,-122.413042
539 VIENNA ST,539 Vienna St,NA,No,4,37.719719,-122.430633
337 WEBSTER ST,337 Webster St,NA,No,4,37.773745,-122.429387
436 MURRAY ST,436 Murray St,NA,No,4,37.735578,-122.419904
2968 SAN BRUNO AV,2968 San Bruno Av,NA,No,4,37.72436,-122.402581
307 3rd AV,307 3rd Av,NA,No,4,37.782841,-122.461365
424 JONES ST,424 Jones St,NA,No,4,37.7853,-122.412596
2039 43rd AV,2039 43rd Av,NA,No,4,37.748599,-122.502203
1361 SAN BRUNO AV,1361 San Bruno Av,NA,No,4,37.752331,-122.403976
3959 MISSION ST,3959 Mission St,NA,No,4,37.734283,-122.425386
137 NOE ST,137 Noe St,NA,No,4,37.766942,-122.433034
785 BRANNAN ST,785 Brannan St,NA,No,4,37.773194,-122.402561
105 LAKE ST,105 Lake St,NA,No,4,37.786691,-122.460654
1711 OAK ST,1711 Oak St,NA,No,4,37.771507,-122.447907
712 VERMONT ST,712 Vermont St,NA,No,4,37.76035,-122.404397
730 WASHINGTON ST,730 Washington St,NA,No,4,37.795517,-122.405567
100 MADRID ST,100 Madrid St,NA,No,4,37.727841,-122.428396
439 15th AV,439 15th Av,NA,No,4,37.779712,-122.474267
1275 CLAY ST,1275 Clay St,NA,No,4,37.793136,-122.413971
1325 MASON ST,1325 Mason St,NA,No,4,37.795747,-122.411967
1567 11th AV,1567 11th Av,NA,No,4,37.758962,-122.468432
719 6th AV,719 6th Av,NA,No,4,37.774868,-122.464168
828 JONES ST,828 Jones St,NA,No,4,37.789036,-122.413385
3246 VICENTE ST,3246 Vicente St,NA,No,4,37.738403,-122.501954
2038 DIVISADERO ST,2038 Divisadero St,NA,No,4,37.788665,-122.440219
337 7th AV,337 7th Av,NA,No,4,37.782109,-122.465765
178 BROOKDALE AV,178 Brookdale Av,NA,No,4,37.712404,-122.421173
62 VALLEY ST,62 Valley St,NA,No,4,37.744932,-122.423639
1511 SHAFTER AV,1511 Shafter Av,NA,No,4,37.729927,-122.389305
3991 24th ST,3991 24th St,NA,No,4,37.751244,-122.431622
747 LAWTON ST,747 Lawton St,NA,No,4,37.75827,-122.471099
477 14th ST,477 14th St,NA,No,4,37.767803,-122.423847
55 BERthA LN,55 Bertha Ln,NA,No,4,37.733439,-122.380468
948 SOUth VAN NESS AV,948 South Van Ness Av,NA,No,4,37.757925,-122.417193
1369 29th AV,1369 29th Av,NA,No,4,37.761786,-122.488077
725 MINNA ST,725 Minna St,NA,No,4,37.776568,-122.412923
2335 PACIFIC AV,2335 Pacific Av,NA,No,4,37.793203,-122.433733
585 VIENNA ST,585 Vienna St,NA,No,4,37.719072,-122.431124
355 7th AV,355 7th Av,NA,No,4,37.781835,-122.465745
587 NATOMA ST,587 Natoma St,NA,No,4,37.778608,-122.409423
1327 31ST AV,1327 31St Av,NA,No,4,37.762427,-122.490273
345 MONTICELLO ST,345 Monticello St,NA,No,4,37.720516,-122.47104
179 9th AV,179 9th Av,NA,No,4,37.785067,-122.468125
1143 COLE ST,1143 Cole St,NA,No,4,37.763399,-122.449776
3630 24th ST,3630 24th St,NA,No,4,37.752087,-122.423751
1437 POLK ST,1437 Polk St,NA,No,4,37.790099,-122.420866
819 SOUth VAN NESS AV,819 South Van Ness Av,NA,No,4,37.759997,-122.416613
4240 MISSION ST,4240 Mission St,NA,No,4,37.729559,-122.430859
3401 ALEMANY BL,3401 Alemany Bl,NA,No,4,37.710927,-122.462716
2079 MARKET ST,2079 Market St,NA,No,4,37.767485,-122.428415
10 HEMWAY TR,10 Hemway Tr,NA,No,4,37.775864,-122.447987
1400 PACIFIC AV,1400 Pacific Av,NA,No,4,37.795623,-122.41849
2828 BALBOA ST,2828 Balboa St,NA,No,4,37.776313,-122.489362
243 PARIS ST,243 Paris St,NA,No,4,37.724679,-122.432323
2256 36th AV,2256 36th Av,NA,No,4,37.744959,-122.493769
638 BALBOA ST,638 Balboa St,NA,No,4,37.7774,-122.465803
2260 MISSION ST,2260 Mission St,NA,No,4,37.760848,-122.41955
1707 BALBOA ST,1707 Balboa St,NA,No,4,37.776453,-122.477234
595 11th AV,595 11th Av,NA,No,4,37.77723,-122.469556
951 O'FARRELL ST,951 O'Farrell St,NA,No,4,37.78462,-122.42042
953 KEY AV,953 Key Av,NA,No,4,37.718155,-122.395201
1661 BUSH ST,1661 Bush St,NA,No,4,37.787902,-122.424466
64 VALLEY ST,64 Valley St,NA,No,4,37.744932,-122.423639
200 10th AV,200 10th Av,NA,No,4,37.784423,-122.468648
230 EDDY ST,230 Eddy St,NA,No,4,37.784365,-122.411496
1580 SANCHEZ ST,1580 Sanchez St,NA,No,4,37.743805,-122.429231
1351 REVERE AV,1351 Revere Av,NA,No,4,37.728841,-122.385718
71 VIENNA ST,71 Vienna St,NA,No,4,37.727144,-122.425017
1300 GOLDEN GATE AV,1300 Golden Gate Av,NA,No,4,37.779811,-122.432263
1906 MCALLISTER ST,1906 Mcallister St,NA,No,4,37.777362,-122.443613
82 GETZ ST,82 Getz St,NA,No,4,37.719514,-122.452503
4638 25th ST,4638 25th St,NA,No,4,37.749463,-122.441145
323 VIENNA ST,323 Vienna St,NA,No,4,37.723066,-122.428097
3161 16th ST,3161 16th St,NA,No,4,37.76457,-122.4233
7 OTSEGO AV,7 Otsego Av,NA,No,4,37.726915,-122.438646
575 MOSCOW ST,575 Moscow St,NA,No,4,37.718422,-122.429428
126 2ND AV,126 2Nd Av,NA,No,4,37.786321,-122.460036
350 SAN JOSE AV,350 San Jose Av,NA,No,4,37.749422,-122.421743
1130 LARKIN ST,1130 Larkin St,NA,No,4,37.788412,-122.418194
600 39th AV,600 39th Av,NA,No,4,37.777342,-122.499304
1519 MASON ST,1519 Mason St,NA,No,4,37.797558,-122.412171
779 SAN JOSE AV,779 San Jose Av,NA,No,4,37.742646,-122.422817
67 PORTER ST,67 Porter St,NA,No,4,37.734077,-122.417992
1840 CLAY ST,1840 Clay St,NA,No,4,37.792332,-122.423602
4244 MISSION ST,4244 Mission St,NA,No,4,37.729505,-122.430913
715 BANKS ST,715 Banks St,NA,No,4,37.734371,-122.412912
1717 MASON ST,1717 Mason St,NA,No,4,37.799385,-122.412708
214 DOLORES ST,214 Dolores St,NA,No,4,37.765904,-122.427041
1370 CALIFORNIA ST,1370 California St,NA,No,4,37.791377,-122.417063
1290 JACKSON ST,1290 Jackson St,NA,No,4,37.794905,-122.416253
1290 SHAFTER AV,1290 Shafter Av,NA,No,4,37.72792,-122.384763
151 VIENNA ST,151 Vienna St,NA,No,4,37.725765,-122.426068
381 GUERRERO ST,381 Guerrero St,NA,No,4,37.765151,-122.42389
167 VIENNA ST,167 Vienna St,NA,No,4,37.725562,-122.426221
234 PRAGUE ST,234 Prague St,NA,No,4,37.718483,-122.42788
385 PARIS ST,385 Paris St,NA,No,4,37.722538,-122.433945
973 SOUth VAN NESS AV,973 South Van Ness Av,NA,No,4,37.757659,-122.416411
3918 MISSION ST,3918 Mission St,NA,No,4,37.735021,-122.425495
3151 24th ST,3151 24th St,NA,No,4,37.752206,-122.415294
1040 CLAY ST,1040 Clay St,NA,No,4,37.793919,-122.410298
65 WOODWArd ST,65 Woodward St,NA,No,4,37.768903,-122.420651
2280 GREEN ST,2280 Green St,NA,No,4,37.796237,-122.436527
48 SUMNER ST,48 Sumner St,NA,No,4,37.776123,-122.410486
989 ELLSWORth ST,989 Ellsworth St,NA,No,4,37.732778,-122.416617
667 COMMERCIAL ST,667 Commercial St,NA,No,4,37.793949,-122.404132
3416 TARAVAL ST,3416 Taraval St,NA,No,4,37.742098,-122.502944
1176 FULTON ST,1176 Fulton St,NA,No,4,37.777359,-122.43609
1039 GOLDEN GATE AV,1039 Golden Gate Av,NA,No,4,37.77961,-122.427778
1824 JENNINGS ST,1824 Jennings St,NA,No,4,37.72869,-122.387488
329 SILVER AV,329 Silver Av,NA,No,4,37.72875,-122.430217
955 AthENS ST,955 Athens St,NA,No,4,37.713996,-122.433843
490 33rd AV,490 33rd Av,NA,No,4,37.779957,-122.493149
367 VIENNA ST,367 Vienna St,NA,No,4,37.722419,-122.428588
438 MUNICH ST,438 Munich St,NA,No,4,37.718808,-122.428728
850 SOUth VAN NESS AV,850 South Van Ness Av,NA,No,4,37.759502,-122.41747
212 ARGUELLO BL,212 Arguello Bl,NA,No,4,37.786399,-122.458884
132 TRENTON ST,132 Trenton St,NA,No,4,37.796216,-122.409034
750 GRANT AV,750 Grant Av,NA,No,4,37.794121,-122.406119
1201 44th AV,1201 44th Av,NA,No,4,37.763991,-122.504208
141 CAMBRIDGE ST,141 Cambridge St,NA,No,4,37.730173,-122.419173
868 POTRERO AV,868 Potrero Av,NA,No,4,37.758249,-122.407181
2075 FOLSOM ST,2075 Folsom St,NA,No,4,37.764116,-122.414843
3430 CABRILLO ST,3430 Cabrillo St,NA,No,4,37.774152,-122.495553
82 BEAVER ST,82 Beaver St,NA,No,4,37.765199,-122.434887
1542 JACKSON ST,1542 Jackson St,NA,No,4,37.794534,-122.420486
236 POWELL ST,236 Powell St,NA,No,4,37.786994,-122.407902
2554 21ST AV,2554 21St Av,NA,No,4,37.740074,-122.477304
331 10th ST,331 10th St,NA,No,4,37.772548,-122.412056
1854 FILBERT ST,1854 Filbert St,NA,No,4,37.79895,-122.430062
817 HAYES ST,817 Hayes St,NA,No,4,37.775853,-122.429911
238 VIENNA ST,238 Vienna St,NA,No,4,37.724624,-122.427603
387 PARIS ST,387 Paris St,NA,No,4,37.72248,-122.43399
2088 BRODERICK ST,2088 Broderick St,NA,No,4,37.789452,-122.442264
52 PRAGUE ST,52 Prague St,NA,No,4,37.721366,-122.425707
184 LONDON ST,184 London St,NA,No,4,37.726328,-122.432852
2047 POLK ST,2047 Polk St,NA,No,4,37.79572,-122.422105
122 TIOGA AV,122 Tioga Av,NA,No,4,37.716957,-122.406044
716 GOETTINGEN ST,716 Goettingen St,NA,No,4,37.722907,-122.405184
2288 15th ST,2288 15th St,NA,No,4,37.76596,-122.435143
1443 MCKINNON AV,1443 Mckinnon Av,NA,No,4,37.734318,-122.38704
3144 22ND ST,3144 22Nd St,NA,No,4,37.755644,-122.417521
2120 24th ST,2120 24th St,NA,No,4,37.753556,-122.400877
1170 GUERRERO ST,1170 Guerrero St,NA,No,4,37.752402,-122.423295
184 CLIPPER ST,184 Clipper St,NA,No,4,37.74937,-122.429255
1774 GOLDEN GATE AV,1774 Golden Gate Av,NA,No,4,37.778855,-122.439893
298 PIERCE ST,298 Pierce St,NA,No,4,37.772427,-122.433708
397 VIENNA ST,397 Vienna St,NA,No,4,37.722213,-122.428845
138 TRENTON ST,138 Trenton St,NA,No,4,37.796291,-122.409049
1461 POWELL ST,1461 Powell St,NA,No,4,37.798101,-122.410652
1686 OAKDALE AV,1686 Oakdale Av,NA,No,4,37.735713,-122.391765
615 JACKSON ST,615 Jackson St,NA,No,4,37.795996,-122.405546
1200 PINE ST,1200 Pine St,NA,No,4,37.790364,-122.415853
1708 HYDE ST,1708 Hyde St,NA,No,4,37.796582,-122.418354
1901 MASON ST,1901 Mason St,NA,No,4,37.801149,-122.412891
112 VALMAR TR,112 Valmar Tr,NA,No,4,37.725815,-122.424489
1955 BROADWAY *,1955 Broadway,NA,No,4,37.794694,-122.429218
734 LOMBArd ST,734 Lombard St,NA,No,4,37.802972,-122.413543
310 22ND AV,310 22Nd Av,NA,No,4,37.781897,-122.481377
318 3rd AV,318 3rd Av,NA,No,4,37.782692,-122.460849
1079 GOLDEN GATE AV,1079 Golden Gate Av,NA,No,4,37.77961,-122.427778
990 PRAGUE ST,990 Prague St,NA,No,4,37.710271,-122.436645
335 GROVE ST,335 Grove St,NA,No,4,37.777688,-122.422106
780 GUERRERO ST,780 Guerrero St,NA,No,4,37.758597,-122.423835
568 5th AV,568 5th Av,NA,No,4,37.77797,-122.46266
1137 STOCKTON ST,1137 Stockton St,NA,No,4,37.796244,-122.408729
266 VIENNA ST,266 Vienna St,NA,No,4,37.724212,-122.427914
2052 GREEN ST,2052 Green St,NA,No,4,37.796761,-122.433023
422 PARIS ST,422 Paris St,NA,No,4,37.722108,-122.434957
1200 SACRAMENTO ST,1200 Sacramento St,NA,No,4,37.792631,-122.412975
143 MARSTON AV,143 Marston Av,NA,No,4,37.72722,-122.447306
4118 24th ST,4118 24th St,NA,No,4,37.751507,-122.434655
39 EXCELSIOR AV,39 Excelsior Av,NA,No,4,37.726125,-122.432853
278 SAN CARLOS ST,278 San Carlos St,NA,No,4,37.758931,-122.42007
135 MIRAMAR AV,135 Miramar Av,NA,No,4,37.720692,-122.458494
1224 TAYLOR ST,1224 Taylor St,NA,No,4,37.793831,-122.412619
555 MISSION ROCK ST,555 Mission Rock St,NA,No,4,37.772392,-122.390796
5301 MISSION ST,5301 Mission St,NA,No,4,37.714308,-122.442637
595 MISSISSIPPI ST,595 Mississippi St,NA,No,4,37.758982,-122.393927
503 EXCELSIOR AV,503 Excelsior Av,NA,No,4,37.724464,-122.429367
262 MISSOURI ST,262 Missouri St,NA,No,4,37.763024,-122.396882
935 MEADE AV,935 Meade Av,NA,No,4,37.717702,-122.397872
27 ALHAMBRA ST,27 Alhambra St,NA,No,4,37.802643,-122.437503
1 PUTNAM ST,1 Putnam St,NA,No,4,37.73967,-122.410597
20 FRANKLIN ST,20 Franklin St,Derek Silva Community,Yes,4,37.774616,-122.420662
355 BERRY ST,355 Berry St,NA,No,4,37.772536,-122.397113
358 PRAGUE ST,358 Prague St,NA,No,4,37.716578,-122.429327
2814 HARRISON ST,2814 Harrison St,NA,No,4,37.75229,-122.41213
776 5th AV,776 5th Av,NA,No,4,37.774261,-122.462409
1624 VALLEJO ST,1624 Vallejo St,NA,No,4,37.796825,-122.424761
407 VIENNA ST,407 Vienna St,NA,No,4,37.721771,-122.429229
4459 MISSION ST,4459 Mission St,NA,No,4,37.726754,-122.432897
201 PRAGUE ST,201 Prague St,NA,No,4,37.718669,-122.427155
3011 20th ST,3011 20th St,NA,No,4,37.758889,-122.410975
1242 MASON ST,1242 Mason St,NA,No,4,37.795103,-122.411196
40 WENTWORth ST,40 Wentworth St,NA,No,4,37.795768,-122.406064
53 MARSTON AV,53 Marston Av,NA,No,4,37.727285,-122.445683
183 TRUMBULL ST,183 Trumbull St,NA,No,4,37.731007,-122.42671
125 GArdENSIDE DR,125 Gardenside Dr,NA,No,4,37.753248,-122.445475
2345 FILBERT ST,2345 Filbert St,NA,No,4,37.797437,-122.438017
2208 MISSION ST,2208 Mission St,NA,No,4,37.761598,-122.41955
1737 BROADWAY *,1737 Broadway,NA,No,4,37.795146,-122.425683
1550 MASON ST,1550 Mason St,NA,No,4,37.798023,-122.411829
1289 22ND AV,1289 22Nd Av,NA,No,4,37.763664,-122.480684
134 SENECA AV,134 Seneca Av,NA,No,4,37.71916,-122.441542
2828 FOLSOM ST,2828 Folsom St,NA,No,4,37.752017,-122.414384
1344 PACIFIC AV,1344 Pacific Av,NA,No,4,37.795724,-122.417438
1160 TAYLOR ST,1160 Taylor St,NA,No,4,37.793264,-122.412626
609 PARIS ST,609 Paris St,NA,No,4,37.718932,-122.436672
10 CAPRA WY,10 Capra Wy,NA,No,4,37.802958,-122.439178
2275 19th AV,2275 19th Av,NA,No,4,37.745317,-122.476176
225 HARTFOrd ST,225 Hartford St,NA,No,4,37.75893,-122.433383
490 2ND AV,490 2Nd Av,NA,No,4,37.779492,-122.459697
519 MOULTRIE ST,519 Moultrie St,NA,No,4,37.738145,-122.41568
820 OFARRELL ST,820 Ofarrell St,_Jordan Apartments,Yes,4,37.78537,-122.418432
225 CABRILLO ST,225 Cabrillo St,NA,No,4,37.77525,-122.461236
1423 MASON ST,1423 Mason St,NA,No,4,37.796599,-122.412144
2070 FELL ST,2070 Fell St,NA,No,4,37.772528,-122.451942
1640 KIRKHAM ST,1640 Kirkham St,NA,No,4,37.760007,-122.478627
1357 CLAY ST,1357 Clay St,NA,No,4,37.792882,-122.415362
3088 25th ST,3088 25th St,NA,No,4,37.751282,-122.411497
2816 JACKSON ST,2816 Jackson St,NA,No,4,37.79181,-122.44159
249 4th AV,249 4th Av,NA,No,4,37.783925,-122.462674
1750 BROADWAY *,1750 Broadway,NA,No,4,37.795734,-122.425866
873 SUTTER ST,873 Sutter St,NA,No,4,37.788235,-122.414683
500 PERU AV,500 Peru Av,NA,No,4,37.726492,-122.42557
1916 VALLEJO ST,1916 Vallejo St,NA,No,4,37.796278,-122.428938
478 33rd AV,478 33rd Av,NA,No,4,37.78019,-122.493014
675 CLEMENTINA ST,675 Clementina St,NA,No,4,37.775652,-122.410031
20 ADELE CT,20 Adele Ct,NA,No,4,37.79593,-122.409461
701 VERMONT ST,701 Vermont St,NA,No,4,37.760712,-122.403934
250 PRAGUE ST,250 Prague St,NA,No,4,37.718248,-122.428058
743 CAPP ST,743 Capp St,NA,No,4,37.754481,-122.417243
90 ALHAMBRA ST,90 Alhambra St,NA,No,4,37.802803,-122.438014
269 LILY ST,269 Lily St,NA,No,4,37.774065,-122.425226
499 VIENNA ST,499 Vienna St,NA,No,4,37.720453,-122.430075
85 WOODWArd ST,85 Woodward St,NA,No,4,37.76863,-122.420625
474 VALLEY ST,474 Valley St,NA,No,4,37.744377,-122.432782
120 PIERCE ST,120 Pierce St,NA,No,4,37.771158,-122.433321
1508 MCALLISTER ST,1508 Mcallister St,NA,No,4,37.778181,-122.43703
631 CAPP ST,631 Capp St,NA,No,4,37.756642,-122.417473
604 BUSH ST,604 Bush St,NA,No,4,37.790554,-122.407392
1070 NOE ST,1070 Noe St,NA,No,4,37.751876,-122.432239
301 MACALLA CT,301 Macalla Ct,NA,No,4,37.811496,-122.370115
617 BRAZIL AV,617 Brazil Av,NA,No,4,37.722418,-122.429678
2916 SAN BRUNO AV,2916 San Bruno Av,NA,No,4,37.724654,-122.402703
540 BARTLETT ST,540 Bartlett St,NA,No,4,37.748378,-122.419454
600 PERSIA AV,600 Persia Av,NA,No,4,37.720612,-122.431148
630 ALVARADO ST,630 Alvarado St,NA,No,4,37.753879,-122.434969
1359 SACRAMENTO ST,1359 Sacramento St,NA,No,4,37.792076,-122.41518
213 6th AV,213 6th Av,NA,No,4,37.784274,-122.464846
2243 TURK BL,2243 Turk Bl,NA,No,4,37.77844,-122.445994
1085 CLAY ST,1085 Clay St,NA,No,4,37.793511,-122.410997
4134 24th ST,4134 24th St,NA,No,4,37.7515,-122.435011
1061 WASHINGTON ST,1061 Washington St,NA,No,4,37.794378,-122.410783
1275 CALIFORNIA ST,1275 California St,NA,No,4,37.791036,-122.415302
2331 MISSION ST,2331 Mission St,NA,No,4,37.759698,-122.418799
415 PIERCE ST,415 Pierce St,NA,No,4,37.773919,-122.434504
639 MOSCOW ST,639 Moscow St,NA,No,4,37.717397,-122.430203
2678 CALIFORNIA ST,2678 California St,NA,No,4,37.788631,-122.438378
25 ALVARADO ST,25 Alvarado St,NA,No,4,37.754196,-122.421905
2937 16th ST,2937 16th St,NA,No,4,37.764903,-122.418353
2819 BAKER ST,2819 Baker St,NA,No,4,37.797078,-122.44596
1054 CLAY ST,1054 Clay St,NA,No,4,37.793873,-122.410576
147 GLADEVIEW WY,147 Gladeview Wy,NA,No,4,37.752307,-122.450651
2019 23rd ST,2019 23rd St,NA,No,3,37.754504,-122.400042
515 MINNA ST,515 Minna St,NA,No,3,37.780073,-122.408466
1803 DIVISADERO ST,1803 Divisadero St,NA,No,3,37.786106,-122.440193
878 DOLORES ST,878 Dolores St,NA,No,3,37.755415,-122.425922
42 GARLINGTON CT,42 Garlington Ct,NA,No,3,37.732366,-122.38421
942 JACKSON ST,942 Jackson St,NA,No,3,37.795672,-122.41071
1510 EDDY ST,1510 Eddy St,NA,No,3,37.781585,-122.432759
1485 DOLORES ST,1485 Dolores St,NA,No,3,37.745684,-122.424223
858 ASHBURY ST,858 Ashbury St,NA,No,3,37.766314,-122.445879
201 9th ST,201 9th St,NA,No,3,37.775036,-122.412817
886 LOMBArd ST,886 Lombard St,NA,No,3,37.802675,-122.41611
462 18th AV,462 18th Av,NA,No,3,37.779214,-122.476821
349 CRESCENT AV,349 Crescent Av,NA,No,3,37.735158,-122.417733
2001 PIERCE ST,2001 Pierce St,NA,No,3,37.788752,-122.437433
230 DOLORES ST,230 Dolores St,NA,No,3,37.765628,-122.427179
2807 BRYANT ST,2807 Bryant St,NA,No,3,37.74943,-122.408504
131 JASPER PL,131 Jasper Pl,NA,No,3,37.800985,-122.408589
1000 HOWArd ST,1000 Howard St,NA,No,3,37.779704,-122.407597
1408 SHAFTER AV,1408 Shafter Av,NA,No,3,37.729239,-122.387087
1186 RHODE ISLAND ST,1186 Rhode Island St,NA,No,3,37.754787,-122.401794
1971 GREEN ST,1971 Green St,NA,No,3,37.79636,-122.431448
1203 UNION ST,1203 Union St,NA,No,3,37.799014,-122.419179
201 HARRISON ST,201 Harrison St,NA,No,3,37.78768,-122.390611
4850 3rd ST,4850 3rd St,NA,No,3,37.73429,-122.391145
281 DOLORES ST,281 Dolores St,NA,No,3,37.76509,-122.426015
319 LISBON ST,319 Lisbon St,NA,No,3,37.723098,-122.432432
575 5th AV,575 5th Av,NA,No,3,37.777755,-122.463302
1165 CLAY ST,1165 Clay St,NA,No,3,37.793303,-122.412274
1274 PACIFIC AV,1274 Pacific Av,NA,No,3,37.79596,-122.416219
1342 JONES ST,1342 Jones St,NA,No,3,37.793781,-122.41415
100 FONT BL,100 Font Bl,NA,No,3,37.71603,-122.47317
296 LISBON ST,296 Lisbon St,NA,No,3,37.723767,-122.432509
615 SILVER AV,615 Silver Av,NA,No,3,37.728987,-122.423518
941 JONES ST,941 Jones St,NA,No,3,37.790061,-122.414089
587 DOLORES ST,587 Dolores St,NA,No,3,37.760161,-122.425579
1168 CLAY ST,1168 Clay St,NA,No,3,37.793753,-122.412373
1920 PACIFIC AV,1920 Pacific Av,NA,No,3,37.794613,-122.427197
2437 24th ST,2437 24th St,NA,No,3,37.752909,-122.404074
1348 SACRAMENTO ST,1348 Sacramento St,NA,No,3,37.792417,-122.415008
1148 PALOU AV,1148 Palou Av,NA,No,3,37.729318,-122.3822
1235 BUSH ST,1235 Bush St,NA,No,3,37.78875,-122.4176
201 SANTA ROSA AV,201 Santa Rosa Av,NA,No,3,37.727801,-122.438394
1471 20th AV,1471 20th Av,NA,No,3,37.760327,-122.478353
4661 18th ST,4661 18th St,NA,No,3,37.760171,-122.44259
518 6th AV,518 6th Av,NA,No,3,37.778682,-122.463786
502 CHURCH ST,502 Church St,NA,No,3,37.762696,-122.428727
680 BRUNSWICK ST,680 Brunswick St,NA,No,3,37.709385,-122.447303
48 HAIGHT ST,48 Haight St,NA,No,3,37.773311,-122.423046
967 DOLORES ST,967 Dolores St,NA,No,3,37.753951,-122.424944
401 HYDE ST,401 Hyde St,NA,No,3,37.784601,-122.41633
571 FELL ST,571 Fell St,NA,No,3,37.775202,-122.427155
1501 BRODERICK ST,1501 Broderick St,NA,No,3,37.784466,-122.442266
519 AMAZON AV,519 Amazon Av,NA,No,3,37.715692,-122.435743
66 GEARY ST,66 Geary St,Graystone Hotel,Yes,3,37.788108,-122.404464
2404 BUSH ST,2404 Bush St,NA,No,3,37.786808,-122.436962
1285 SUNNYDALE AV,1285 Sunnydale Av,NA,No,3,37.711234,-122.414235
431 14th AV,431 14th Av,NA,No,3,37.779918,-122.473125
658 28th AV,658 28th Av,NA,No,3,37.776928,-122.487397
2558 CLAY ST,2558 Clay St,NA,No,3,37.790848,-122.435288
252 CHATTANOOGA ST,252 Chattanooga St,NA,No,3,37.752378,-122.426749
234 2ND AV,234 2Nd Av,NA,No,3,37.784332,-122.459892
170 6th AV,170 6th Av,NA,No,3,37.785516,-122.464278
770 OFARRELL ST,770 Ofarrell St,*Edgeworth Hotel,Yes,3,37.785514,-122.417449
4699 3rd ST,4699 3rd St,NA,No,3,37.735686,-122.390032
1225 POTRERO AV,1225 Potrero Av,NA,No,3,37.752585,-122.405963
370 BARTLETT ST,370 Bartlett St,NA,No,3,37.751132,-122.419761
1530 SUNNYDALE AV,1530 Sunnydale Av,NA,No,3,37.71215,-122.416218
1522 19th AV,1522 19th Av,NA,No,3,37.759367,-122.476452
918 SOUth VAN NESS AV,918 South Van Ness Av,NA,No,3,37.758372,-122.417144
826 29th AV,826 29th Av,NA,No,3,37.773773,-122.488242
280 11th AV,280 11th Av,NA,No,3,37.783111,-122.469672
1850 42ND AV,1850 42Nd Av,NA,No,3,37.7522,-122.500721
2955 CLAY ST,2955 Clay St,NA,No,3,37.789487,-122.441691
152 BLYthDALE AV,152 Blythdale Av,NA,No,3,37.710962,-122.419626
2105 ELLIS ST,2105 Ellis St,NA,No,3,37.781142,-122.441046
765 ELLIS ST,765 Ellis St,NA,No,3,37.783849,-122.418772
619 LISBON ST,619 Lisbon St,NA,No,3,37.718434,-122.435959
3374 24th ST,3374 24th St,NA,No,3,37.752328,-122.420179
1376 CHURCH ST,1376 Church St,NA,No,3,37.748839,-122.42744
1122 PINE ST,1122 Pine St,NA,No,3,37.790682,-122.414436
1695 DOLORES ST,1695 Dolores St,NA,No,3,37.742383,-122.42387
1872 SUNNYDALE AV,1872 Sunnydale Av,NA,No,3,37.713246,-122.420171
1244 CALIFORNIA ST,1244 California St,NA,No,3,37.791622,-122.414912
1200 14th AV,1200 14th Av,NA,No,3,37.765439,-122.471453
1429 SUNNYDALE AV,1429 Sunnydale Av,NA,No,3,37.71158,-122.415525
1143 KEARNY ST,1143 Kearny St,NA,No,3,37.798585,-122.405775
902 VALLEJO ST,902 Vallejo St,NA,No,3,37.798279,-122.41233
2778 BRYANT ST,2778 Bryant St,NA,No,3,37.749976,-122.40918
20 SANTOS ST,20 Santos St,NA,No,3,37.711898,-122.418915
552 VALLEJO ST,552 Vallejo St,NA,No,3,37.79903,-122.406563
68 LIEBIG ST,68 Liebig St,NA,No,3,37.709223,-122.45678
2785 JACKSON ST,2785 Jackson St,NA,No,3,37.791512,-122.440793
551 VALLEJO ST,551 Vallejo St,NA,No,3,37.798706,-122.406327
1959 OAK ST,1959 Oak St,NA,No,3,37.77105,-122.451494
1581 UNION ST,1581 Union St,NA,No,3,37.79825,-122.425328
2030 BALBOA ST,2030 Balboa St,NA,No,3,37.776715,-122.48081
1539 24th AV,1539 24th Av,NA,No,3,37.758826,-122.482496
1625 CHESTNUT ST,1625 Chestnut St,NA,No,3,37.801388,-122.429954
1675 CLAY ST,1675 Clay St,NA,No,3,37.792181,-122.420462
1230 EGBERT AV,1230 Egbert Av,NA,No,3,37.720976,-122.389111
33 CAIRE TR,33 Caire Tr,NA,No,3,37.752188,-122.399265
2856 23rd ST,2856 23rd St,NA,No,3,37.754603,-122.409617
462 VALLEJO ST,462 Vallejo St,NA,No,3,37.799329,-122.405062
430 ANZA ST,430 Anza St,NA,No,3,37.780794,-122.451466
643 MASON ST,643 Mason St,NA,No,3,37.789552,-122.410627
1711 25th AV,1711 25th Av,NA,No,3,37.755536,-122.483275
2199 MISSION ST,2199 Mission St,NA,No,3,37.762004,-122.419065
2059 MARKET ST,2059 Market St,NA,No,3,37.767965,-122.427883
1615 LA SALLE AV,1615 La Salle Av,NA,No,3,37.73659,-122.38906
1527 CHURCH ST,1527 Church St,NA,No,3,37.746449,-122.426654
1900 JACKSON ST,1900 Jackson St,NA,No,3,37.793692,-122.426553
833 JONES ST,833 Jones St,NA,No,3,37.789066,-122.413945
655 STOCKTON ST,655 Stockton St,NA,No,3,37.792002,-122.407807
405 DAVIS CT,405 Davis Ct,NA,No,3,37.796398,-122.398408
610 POLK ST,610 Polk St,NA,No,3,37.782414,-122.418765
3265 HARRISON ST,3265 Harrison St,NA,No,3,37.745837,-122.411231
3560 24th ST,3560 24th St,NA,No,3,37.752102,-122.422615
418 PERSIA AV,418 Persia Av,NA,No,3,37.721257,-122.432586
1155 JONES ST,1155 Jones St,NA,No,3,37.792114,-122.414489
2471 MISSION ST,2471 Mission St,NA,No,3,37.757548,-122.418593
6152 CALIFORNIA ST,6152 California St,NA,No,3,37.78413,-122.483777
1538 GREEN ST,1538 Green St,NA,No,3,37.797798,-122.424643
1737 BEACH ST,1737 Beach St,NA,No,3,37.803977,-122.437766
1539 CLAY ST,1539 Clay St,NA,No,3,37.792466,-122.418367
1411 STOCKTON ST,1411 Stockton St,NA,No,3,37.798872,-122.409105
1444 7th AV,1444 7th Av,NA,No,3,37.761421,-122.463654
1522 HOWArd ST,1522 Howard St,NA,No,3,37.772921,-122.416169
765 OFARRELL ST,765 Ofarrell St,NA,No,3,37.784967,-122.417257
587 HAIGHT ST,587 Haight St,NA,No,3,37.771754,-122.431702
655 ANDOVER ST,655 Andover St,NA,No,3,37.735345,-122.416559
2271 UNION ST,2271 Union St,NA,No,3,37.796712,-122.43661
1230 20th AV,1230 20th Av,NA,No,3,37.764773,-122.477952
722 SHOTWELL ST,722 Shotwell St,NA,No,3,37.756702,-122.415892
744 WASHINGTON ST,744 Washington St,NA,No,3,37.795386,-122.405985
2173 GROVE ST,2173 Grove St,NA,No,3,37.773882,-122.452353
1311 ALABAMA ST,1311 Alabama St,NA,No,3,37.75069,-122.410495
425 2ND AV,425 2Nd Av,NA,No,3,37.780651,-122.460287
316 CONNECTICUT ST,316 Connecticut St,NA,No,3,37.762153,-122.397771
451 UNION ST,451 Union St,NA,No,3,37.800555,-122.406834
635 MASON ST,635 Mason St,NA,No,3,37.789481,-122.410613
547 CAMPBELL AV,547 Campbell Av,NA,No,3,37.715323,-122.407298
205 7th AV,205 7th Av,NA,No,3,37.78457,-122.465833
441 7th AV,441 7th Av,NA,No,3,37.780134,-122.465624
355 GREEN ST,355 Green St,NA,No,3,37.799712,-122.405059
1155 TAYLOR ST,1155 Taylor St,NA,No,3,37.793298,-122.413026
1950 GREEN ST,1950 Green St,NA,No,3,37.796895,-122.431343
1053 BUSH ST,1053 Bush St,NA,No,3,37.789142,-122.414521
613 MASONIC AV,613 Masonic Av,NA,No,3,37.775498,-122.446756
23 LIEBIG ST,23 Liebig St,NA,No,3,37.708213,-122.456157
1520 GOUGH ST,1520 Gough St,NA,No,3,37.787752,-122.424956
1 GRIJALVA DR,1 Grijalva Dr,NA,No,3,37.71659,-122.478208
2061 MISSION ST,2061 Mission St,NA,No,3,37.764051,-122.419246
2290 31ST AV,2290 31St Av,NA,No,3,37.744599,-122.488409
225 2ND AV,225 2Nd Av,NA,No,3,37.784436,-122.460557
885 VALLEJO ST,885 Vallejo St,NA,No,3,37.797937,-122.41163
1750 GOLDEN GATE AV,1750 Golden Gate Av,NA,No,3,37.778888,-122.439516
1531 FILBERT ST,1531 Filbert St,NA,No,3,37.799176,-122.424754
951 CONNECTICUT ST,951 Connecticut St,NA,No,3,37.753665,-122.396631
455 COLE ST,455 Cole St,NA,No,3,37.770729,-122.450627
672 CASTRO ST,672 Castro St,NA,No,3,37.758091,-122.435146
3951 MISSION ST,3951 Mission St,NA,No,3,37.734391,-122.425279
1267 EGBERT AV,1267 Egbert Av,NA,No,3,37.721054,-122.390316
5 DWIGHT ST,5 Dwight St,NA,No,3,37.723812,-122.402354
820 BAY ST,820 Bay St,NA,No,3,37.804918,-122.420788
68 5th AV,68 5th Av,NA,No,3,37.787429,-122.46334
1188 HOWArd ST,1188 Howard St,NA,No,3,37.776808,-122.411474
1725 OAKDALE AV,1725 Oakdale Av,NA,No,3,37.735912,-122.393187
1234 MCALLISTER ST,1234 Mcallister St,NA,No,3,37.77894,-122.432615
3350 18th ST,3350 18th St,NA,No,3,37.762104,-122.418479
973 MARKET ST,973 Market St,NA,No,3,37.782424,-122.40935
1839 MASON ST,1839 Mason St,NA,No,3,37.800564,-122.412834
1326 TAYLOR ST,1326 Taylor St,NA,No,3,37.794764,-122.41274
938 ALABAMA ST,938 Alabama St,NA,No,3,37.756263,-122.411588
279 HOWth ST,279 Howth St,NA,No,3,37.719817,-122.451246
667 GREEN ST,667 Green St,NA,No,3,37.799146,-122.41005
1054 HYDE ST,1054 Hyde St,NA,No,3,37.790737,-122.417081
29 GARLINGTON CT,29 Garlington Ct,NA,No,3,37.731784,-122.384666
250 DOUGLASS ST,250 Douglass St,NA,No,3,37.759614,-122.439527
1958 VALLEJO ST,1958 Vallejo St,NA,No,3,37.796221,-122.429523
201 BANKS ST,201 Banks St,NA,No,3,37.74016,-122.412502
2339 MARKET ST,2339 Market St,NA,No,3,37.763209,-122.433811
179 7th AV,179 7th Av,NA,No,3,37.785233,-122.465985
1161 JACKSON ST,1161 Jackson St,NA,No,3,37.794853,-122.414131
1 MAJESTIC AV,1 Majestic Av,NA,No,3,37.718236,-122.450496
11 DIVISADERO ST,11 Divisadero St,NA,No,3,37.76755,-122.436726
1064 WASHINGTON ST,1064 Washington St,NA,No,3,37.794861,-122.410797
3465 25th ST,3465 25th St,NA,No,3,37.750351,-122.419788
430 VALLEJO ST,430 Vallejo St,NA,No,3,37.79928,-122.404632
1385 CLAY ST,1385 Clay St,NA,No,3,37.792937,-122.415798
51 SANTOS ST,51 Santos St,NA,No,3,37.711322,-122.418602
4722 MISSION ST,4722 Mission St,NA,No,3,37.722778,-122.436609
1020 LEAVENWORth ST,1020 Leavenworth St,NA,No,3,37.790644,-122.415377
5550 CALIFORNIA ST,5550 California St,NA,No,3,37.784458,-122.477358
2297 LAGUNA ST,2297 Laguna St,NA,No,3,37.791994,-122.429764
312 BARTLETT ST,312 Bartlett St,NA,No,3,37.75171,-122.419816
3452 19th ST,3452 19th St,NA,No,3,37.760365,-122.420464
3434 21ST ST,3434 21St St,NA,No,3,37.756961,-122.424206
1017 STOCKTON ST,1017 Stockton St,NA,No,3,37.79514,-122.408453
977 PACIFIC AV,977 Pacific Av,NA,No,3,37.796192,-122.411265
1101 CASTRO ST,1101 Castro St,NA,No,3,37.752787,-122.433902
7 SONOMA ST,7 Sonoma St,NA,No,3,37.800228,-122.406396
874 CAROLINA ST,874 Carolina St,NA,No,3,37.757552,-122.400274
211 FAIR OAKS ST,211 Fair Oaks St,NA,No,3,37.753062,-122.423755
31 CAMP ST,31 Camp St,NA,No,3,37.763764,-122.423323
16 COLE ST,16 Cole St,NA,No,3,37.774951,-122.451044
937 CLAY ST,937 Clay St,NA,No,3,37.793794,-122.408544
1778 MISSION ST,1778 Mission St,NA,No,3,37.768682,-122.420335
665 EDDY ST,665 Eddy St,NA,No,3,37.782888,-122.418624
268 CARL ST,268 Carl St,NA,No,3,37.765579,-122.45394
380 14th ST,380 14th St,NA,No,3,37.768341,-122.421743
121 BLYthDALE AV,121 Blythdale Av,NA,No,3,37.710608,-122.419068
198 CARL ST,198 Carl St,NA,No,3,37.765612,-122.452453
755 OFARRELL ST,755 Ofarrell St,NA,No,3,37.784989,-122.417089
2222 CABRILLO ST,2222 Cabrillo St,NA,No,3,37.774787,-122.48267
2941 GOUGH ST,2941 Gough St,NA,No,3,37.800494,-122.428107
946 JONES ST,946 Jones St,NA,No,3,37.790181,-122.413585
1320 LOMBArd ST,1320 Lombard St,NA,No,3,37.801737,-122.423301
40 OSCEOLA LN,40 Osceola Ln,NA,No,3,37.731875,-122.382981
10 AUGUST AL,10 August Al,NA,No,3,37.799715,-122.411435
1846 FELL ST,1846 Fell St,NA,No,3,37.772995,-122.448252
1658 SACRAMENTO ST,1658 Sacramento St,NA,No,3,37.791843,-122.420288
852 VALLEJO ST,852 Vallejo St,NA,No,3,37.798465,-122.411355
1906 FOLSOM ST,1906 Folsom St,NA,No,3,37.766726,-122.415776
140 KINGSTON ST,140 Kingston St,NA,No,3,37.741354,-122.421783
2306 UNION ST,2306 Union St,NA,No,3,37.797,-122.437418
1671 45th AV,1671 45th Av,NA,No,3,37.755412,-122.50483
1640 MASON ST,1640 Mason St,NA,No,3,37.798718,-122.411922
1855 10th AV,1855 10th Av,NA,No,3,37.75355,-122.466985
1845 GREEN ST,1845 Green St,NA,No,3,37.796618,-122.429414
650 EDDY ST,650 Eddy St,NA,No,3,37.78335,-122.418474
4445 3rd ST,4445 3rd St,NA,No,3,37.737222,-122.3896
1021 JONES ST,1021 Jones St,NA,No,3,37.790787,-122.414253
130 FELTON ST,130 Felton St,NA,No,3,37.729846,-122.406213
3428 19th ST,3428 19th St,NA,No,3,37.760386,-122.420113
483 2ND AV,483 2Nd Av,NA,No,3,37.779608,-122.460146
3 COSO AV,3 Coso Av,NA,No,3,37.746672,-122.418011
1489 GUERRERO ST,1489 Guerrero St,NA,No,3,37.747384,-122.422198
1415 HYDE ST,1415 Hyde St,NA,No,3,37.793899,-122.418296
434 5th AV,434 5th Av,NA,No,3,37.780329,-122.462832
2184 BUSH ST,2184 Bush St,NA,No,3,37.787252,-122.433243
1 BLYthDALE AV,1 Blythdale Av,NA,No,3,37.71018,-122.418098
719 HOLLY PARK CR,719 Holly Park Cr,NA,No,3,37.737714,-122.422224
522 3rd AV,522 3rd Av,NA,No,3,37.778773,-122.460568
1575 WASHINGTON ST,1575 Washington St,NA,No,3,37.79333,-122.419015
2265 LARKIN ST,2265 Larkin St,NA,No,3,37.798771,-122.421012
9 SONOMA ST,9 Sonoma St,NA,No,3,37.800307,-122.406412
1250 MASON ST,1250 Mason St,NA,No,3,37.795248,-122.411309
735 OFARRELL ST,735 Ofarrell St,NA,No,3,37.785019,-122.416855
218 EDNA ST,218 Edna St,NA,No,3,37.728613,-122.446288
1368 SACRAMENTO ST,1368 Sacramento St,NA,No,3,37.792454,-122.415459
2235 LEAVENWORth ST,2235 Leavenworth St,NA,No,3,37.801821,-122.418187
1221 HARRISON ST,1221 Harrison St,NA,No,3,37.773226,-122.408838
660 KING ST,660 King St,NA,No,3,37.77029,-122.402806
246 BEMIS ST,246 Bemis St,NA,No,3,37.736421,-122.432055
760 BACON ST,760 Bacon St,NA,No,3,37.725955,-122.410591
1241 FUNSTON AV,1241 Funston Av,NA,No,3,37.764905,-122.470995
2108 MASON ST,2108 Mason St,NA,No,3,37.803046,-122.412841
1187 PALOU AV,1187 Palou Av,NA,No,3,37.729386,-122.383347
2045 GREEN ST,2045 Green St,NA,No,3,37.796191,-122.432779
255 BERRY ST,255 Berry St,NA,No,3,37.774297,-122.394923
26 CHURCH ST,26 Church St,NA,No,3,37.76989,-122.429464
1933 STOCKTON ST,1933 Stockton St,NA,No,3,37.803631,-122.410094
1083 LOMBArd ST,1083 Lombard St,NA,No,3,37.801829,-122.419243
21 CLARENCE PL,21 Clarence Pl,NA,No,3,37.779688,-122.39257
419 PAGE ST,419 Page St,NA,No,3,37.772907,-122.428033
588 PENNSYLVANIA AV,588 Pennsylvania Av,NA,No,3,37.758988,-122.393579
510 GREEN ST,510 Green St,NA,No,3,37.799847,-122.407651
1158 MONTGOMERY ST,1158 Montgomery St,NA,No,3,37.799987,-122.403972
171 FELL ST,171 Fell St,NA,No,3,37.775948,-122.42075
735 FRANCE AV,735 France Av,NA,No,3,37.717268,-122.432027
765 GEARY ST,765 Geary St,NA,No,3,37.786114,-122.415755
59 GLOVER ST,59 Glover St,NA,No,3,37.797037,-122.416202
400 BROADWAY *,400 Broadway,NA,No,3,37.798497,-122.404099
1204 MASON ST,1204 Mason St,NA,No,3,37.794756,-122.411199
1950 POST ST,1950 Post St,NA,No,3,37.785541,-122.433782
891 POST ST,891 Post St,NA,No,3,37.787063,-122.416361
907 VALENCIA ST,907 Valencia St,NA,No,3,37.758351,-122.420958
446 5th AV,446 5th Av,NA,No,3,37.780054,-122.462812
1335 5th AV,1335 5th Av,NA,No,3,37.763521,-122.462311
330 2ND AV,330 2Nd Av,NA,No,3,37.782528,-122.459894
1310 KEARNY ST,1310 Kearny St,NA,No,3,37.800158,-122.40569
1867 DONNER AV,1867 Donner Av,NA,No,3,37.728032,-122.400958
1335 CLAY ST,1335 Clay St,NA,No,3,37.792912,-122.415127
740 15th ST,740 15th St,NA,No,3,37.767165,-122.408443
737 POST ST,737 Post St,NA,No,3,37.787047,-122.414033
1311 SOUth VAN NESS AV,1311 South Van Ness Av,NA,No,3,37.752133,-122.415882
400 MONTEREY BL,400 Monterey Bl,NA,No,3,37.731839,-122.444447
38 CARR ST,38 Carr St,NA,No,3,37.721986,-122.397158
276 8th AV,276 8th Av,NA,No,3,37.783413,-122.466275
3340 24th ST,3340 24th St,NA,No,3,37.752347,-122.419345
2615 HARRISON ST,2615 Harrison St,NA,No,3,37.755461,-122.41185
36 WAYNE PL,36 Wayne Pl,NA,No,3,37.796884,-122.41085
1480 SHAFTER AV,1480 Shafter Av,NA,No,3,37.729988,-122.388333
2261 BUSH ST,2261 Bush St,NA,No,3,37.786607,-122.434448
110 RUSSIA AV,110 Russia Av,NA,No,3,37.720944,-122.436288
432 BROADWAY *,432 Broadway,NA,No,3,37.798441,-122.40453
159 SADOWA ST,159 Sadowa St,NA,No,3,37.712048,-122.457831
24 CALGARY ST,24 Calgary St,NA,No,3,37.708704,-122.416348
1150 CLAY ST,1150 Clay St,NA,No,3,37.793778,-122.412177
334 ARLETA AV,334 Arleta Av,NA,No,3,37.714897,-122.40958
1232 6th AV,1232 6th Av,NA,No,3,37.765452,-122.462905
987 RHODE ISLAND ST,987 Rhode Island St,NA,No,3,37.757365,-122.401678
3282 23rd ST,3282 23rd St,NA,No,3,37.754,-122.418254
95 CARRIZAL ST,95 Carrizal St,NA,No,3,37.708785,-122.420662
441 4th AV,441 4th Av,NA,No,3,37.78021,-122.462405
1003 SHOTWELL ST,1003 Shotwell St,NA,No,3,37.752218,-122.414982
926 TAYLOR ST,926 Taylor St,NA,No,3,37.791141,-122.412047
21 NIAGARA AV,21 Niagara Av,NA,No,3,37.715806,-122.442322
1789 MISSION ST,1789 Mission St,NA,No,3,37.768532,-122.419728
3975 24th ST,3975 24th St,NA,No,3,37.751221,-122.431223
849 KEARNY ST,849 Kearny St,NA,No,3,37.79589,-122.405397
1077 POST ST,1077 Post St,NA,No,3,37.78663,-122.419413
431 23rd AV,431 23rd Av,NA,No,3,37.77949,-122.482872
755 O'FARRELL ST,755 O'Farrell St,NA,No,3,37.78504,-122.4171
1450 DIVISADERO ST,1450 Divisadero St,NA,No,3,37.783005,-122.4385
1070 WASHINGTON ST,1070 Washington St,NA,No,3,37.794848,-122.410897
2015 PALOU AV,2015 Palou Av,NA,No,3,37.738189,-122.398862
675 OFARRELL ST,675 Ofarrell St,NA,No,3,37.785239,-122.41578
22 GEORGE CT,22 George Ct,NA,No,3,37.731301,-122.382743
2006 LOMBArd ST,2006 Lombard St,NA,No,3,37.800291,-122.43472
1028 NEWHALL ST,1028 Newhall St,NA,No,3,37.737962,-122.390385
2301 FOLSOM ST,2301 Folsom St,NA,No,3,37.760396,-122.414516
1656 NEWCOMB AV,1656 Newcomb Av,NA,No,3,37.7361,-122.39078
32 LUNDYS LN,32 Lundys Ln,NA,No,3,37.744962,-122.418516
74 TURK ST,74 Turk St,NA,No,3,37.783525,-122.410298
618 EXCELSIOR AV,618 Excelsior Av,NA,No,3,37.72363,-122.428608
130 LEXINGTON ST,130 Lexington St,NA,No,3,37.761174,-122.420967
782 NAPLES ST,782 Naples St,NA,No,3,37.716587,-122.434774
39 BUENA VISTA TR,39 Buena Vista Tr,NA,No,3,37.768264,-122.437996
410 EDDY ST,410 Eddy St,NA,No,3,37.783897,-122.414604
1366 SAN BRUNO AV,1366 San Bruno Av,NA,No,3,37.752225,-122.40459
112 ALBION ST,112 Albion St,NA,No,3,37.764473,-122.42308
1949 SUNNYDALE AV,1949 Sunnydale Av,NA,No,3,37.712741,-122.419637
150 STEINER ST,150 Steiner St,NA,No,3,37.77084,-122.431616
76 CARRIZAL ST,76 Carrizal St,NA,No,3,37.709056,-122.420957
3436 18th ST,3436 18th St,NA,No,3,37.761982,-122.420362
2345 POST ST,2345 Post St,NA,No,3,37.783962,-122.440366
3921 24th ST,3921 24th St,NA,No,3,37.75128,-122.430257
4 GODEUS ST,4 Godeus St,NA,No,3,37.742583,-122.421437
1403 MASON ST,1403 Mason St,NA,No,3,37.796406,-122.411973
1310 LEAVENWORth ST,1310 Leavenworth St,NA,No,3,37.79323,-122.415876
12 RUDDEN AV,12 Rudden Av,NA,No,3,37.724217,-122.440844
479 LOS PALMOS DR,479 Los Palmos Dr,NA,No,3,37.734302,-122.452366
333 BOSWORth ST,333 Bosworth St,NA,No,3,37.733157,-122.429947
1535 FRANCISCO ST,1535 Francisco St,NA,No,3,37.802226,-122.430427
2199 REVERE AV,2199 Revere Av,NA,No,3,37.73776,-122.40144
550 BATTERY ST,550 Battery St,NA,No,3,37.796428,-122.399883
209 HAMILTON ST,209 Hamilton St,NA,No,3,37.728336,-122.4102
1249 MASON ST,1249 Mason St,NA,No,3,37.795097,-122.411698
8100 OCEANVIEW TR,8100 Oceanview Tr,NA,No,3,37.710504,-122.466601
322 32ND AV,322 32Nd Av,NA,No,3,37.783072,-122.492147
6 JOY ST,6 Joy St,NA,No,3,37.743837,-122.40644
444 HYDE ST,444 Hyde St,NA,No,3,37.785084,-122.415823
2677 MCALLISTER ST,2677 Mcallister St,NA,No,3,37.77532,-122.455942
535 TAYLOR ST,535 Taylor St,NA,No,3,37.787442,-122.411888
2 VESTA ST,2 Vesta St,NA,No,3,37.731241,-122.40037
404 PLYMOUth AV,404 Plymouth Av,NA,No,3,37.714264,-122.455827
1739 PINE ST,1739 Pine St,NA,No,3,37.788865,-122.424409
325 SUTTER ST,325 Sutter St,NA,No,3,37.789307,-122.405832
380 5th AV,380 5th Av,NA,No,3,37.781562,-122.462919
1607 HOWArd ST,1607 Howard St,NA,No,3,37.771394,-122.416789
557 FILBERT ST,557 Filbert St,NA,No,3,37.801273,-122.408702
2601 CHESTNUT ST,2601 Chestnut St,NA,No,3,37.799389,-122.446403
180 3rd AV,180 3rd Av,NA,No,3,37.785196,-122.461128
10 BROOKLYN PL,10 Brooklyn Pl,NA,No,3,37.792921,-122.407176
188 KISKA rd,188 Kiska rd,NA,No,3,37.730629,-122.377093
2355 FRANCISCO ST,2355 Francisco St,NA,No,3,37.800511,-122.443911
554 BROADWAY *,554 Broadway,NA,No,3,37.798093,-122.406408
418 2ND AV,418 2Nd Av,NA,No,3,37.780748,-122.459637
1054 SUTTER ST,1054 Sutter St,NA,No,3,37.788372,-122.417831
73 HAROLD AV,73 Harold Av,NA,No,2,37.719579,-122.453386
1300 26th AV,1300 26th Av,NA,No,2,37.762994,-122.484389
480 ELLIS ST,480 Ellis St,Arlington Residence,Yes,2,37.784981,-122.414135
1760 PACIFIC AV,1760 Pacific Av,NA,No,2,37.794951,-122.424319
50 JOICE ST,50 Joice St,NA,No,2,37.791755,-122.408136
2933 ULLOA ST,2933 Ulloa St,NA,No,2,37.740418,-122.48788
2762 22ND ST,2762 22Nd St,NA,No,2,37.756196,-122.409902
2420 FOLSOM ST,2420 Folsom St,NA,No,2,37.758486,-122.415006
839 CAPP ST,839 Capp St,NA,No,2,37.753258,-122.417136
1044 STOCKTON ST,1044 Stockton St,NA,No,2,37.795545,-122.407866
380 EDDY ST,380 Eddy St,NA,No,2,37.784054,-122.413943
574 5th AV,574 5th Av,NA,No,2,37.777805,-122.462648
2768 22ND ST,2768 22Nd St,NA,No,2,37.756191,-122.409988
507 BUSH ST,507 Bush St,NA,No,2,37.790342,-122.405801
2999 CALIFORNIA ST,2999 California St,NA,No,2,37.787445,-122.443491
80 SPRINGFIELD DR,80 Springfield Dr,NA,No,2,37.732601,-122.487795
2845 VAN NESS AV,2845 Van Ness Av,NA,No,2,37.801908,-122.425085
737 PINE ST,737 Pine St,NA,No,2,37.791097,-122.407881
832 VALLEJO ST,832 Vallejo St,NA,No,2,37.798573,-122.411134
668 CLAY ST,668 Clay St,NA,No,2,37.794741,-122.404269
66 DAKOTA ST,66 Dakota St,NA,No,2,37.753665,-122.396631
909 HAMPSHIRE ST,909 Hampshire St,NA,No,2,37.757492,-122.407587
121 MIRALOMA DR,121 Miraloma Dr,NA,No,2,37.737435,-122.461003
750 GONZALEZ DR,750 Gonzalez Dr,NA,No,2,37.718266,-122.480908
1345 TAYLOR ST,1345 Taylor St,NA,No,2,37.794819,-122.41347
676 GEARY ST,676 Geary St,NA,No,2,37.786863,-122.414395
2455 UNION ST,2455 Union St,NA,No,2,37.796308,-122.439564
152 2ND AV,152 2Nd Av,NA,No,2,37.785811,-122.460155
725 UNION ST,725 Union St,NA,No,2,37.799923,-122.411313
837 WISCONSIN ST,837 Wisconsin St,NA,No,2,37.756715,-122.398569
535 STOCKTON ST,535 Stockton St,NA,No,2,37.79084,-122.407556
126 RAMSELL ST,126 Ramsell St,NA,No,2,37.713028,-122.465907
252 6th AV,252 6th Av,NA,No,2,37.783788,-122.464154
643 OAK ST,643 Oak St,NA,No,2,37.773802,-122.429889
423 MELROSE AV,423 Melrose Av,NA,No,2,37.733565,-122.451748
1080 CAPP ST,1080 Capp St,NA,No,2,37.749505,-122.417321
1636 POWELL ST,1636 Powell St,NA,No,2,37.8,-122.410421
1777 PINE ST,1777 Pine St,NA,No,2,37.788784,-122.424875
64 TURK ST,64 Turk St,Aranda Residence,Yes,2,37.783575,-122.41018
2374 BRYANT ST,2374 Bryant St,NA,No,2,37.75644,-122.409796
1208 POWELL ST,1208 Powell St,NA,No,2,37.795865,-122.409728
1405 FRANKLIN ST,1405 Franklin St,NA,No,2,37.787482,-122.423687
901 BRODERICK ST,901 Broderick St,NA,No,2,37.778625,-122.440516
64 ASHBURY TR,64 Ashbury Tr,NA,No,2,37.76484,-122.444651
2525 FILLMORE ST,2525 Fillmore St,NA,No,2,37.793038,-122.434969
475 COUNTRY CLUB DR,475 Country Club Dr,NA,No,2,37.730556,-122.495205
1 TOLEDO WY,1 Toledo Wy,NA,No,2,37.801433,-122.437703
395 COUNTRY CLUB DR,395 Country Club Dr,NA,No,2,37.73206,-122.49532
722 VALLEJO ST,722 Vallejo St,NA,No,2,37.798706,-122.409313
1835 VALLEJO ST,1835 Vallejo St,NA,No,2,37.795903,-122.427526
146 3rd AV,146 3rd Av,NA,No,2,37.785936,-122.461082
530 6th AV,530 6th Av,NA,No,2,37.778511,-122.463773
1912 GREEN ST,1912 Green St,NA,No,2,37.796925,-122.431109
439 ORIZABA AV,439 Orizaba Av,NA,No,2,37.716872,-122.462906
861 SUTTER ST,861 Sutter St,NA,No,2,37.788198,-122.414423
550 STOCKTON ST,550 Stockton St,NA,No,2,37.791146,-122.407089
3621 26th ST,3621 26th St,NA,No,2,37.748629,-122.421768
1342 MASON ST,1342 Mason St,NA,No,2,37.796091,-122.411426
230 JONES ST,230 Jones St,NA,No,2,37.783505,-122.412203
1526 FILBERT ST,1526 Filbert St,NA,No,2,37.799682,-122.424877
272 CONNECTICUT ST,272 Connecticut St,NA,No,2,37.762829,-122.397836
238 BEVERLY ST,238 Beverly St,NA,No,2,37.720377,-122.471384
1126 TAYLOR ST,1126 Taylor St,NA,No,2,37.792931,-122.41247
1085 WASHINGTON ST,1085 Washington St,NA,No,2,37.794368,-122.411142
55 UPLAND DR,55 Upland Dr,NA,No,1,37.728582,-122.461686
1325 BAY ST,1325 Bay St,NA,No,1,37.803457,-122.428817
112 LAKEVIEW AV,112 Lakeview Av,NA,No,1,37.716919,-122.451258
524 RAMSELL ST,524 Ramsell St,NA,No,1,37.720209,-122.465984
32 FARALLONES ST,32 Farallones St,NA,No,1,37.71435,-122.453341
2691 20th AV,2691 20th Av,NA,No,1,37.737614,-122.476649
859 VALLEJO ST,859 Vallejo St,NA,No,1,37.798086,-122.411305
1619 OCEAN AV,1619 Ocean Av,NA,No,1,37.724316,-122.459553
81 PINEHURST WY,81 Pinehurst Wy,NA,No,1,37.728055,-122.465187
714 PACIFIC AV,714 Pacific Av,NA,No,1,37.797002,-122.407049
135 FARALLONES ST,135 Farallones St,NA,No,1,37.713814,-122.45733
526 29th AV,526 29th Av,NA,No,0,37.779297,-122.488642
1673 SACRAMENTO ST,1673 Sacramento St,NA,No,0,37.791312,-122.420271
803 AthENS ST,803 Athens St,NA,No,0,37.715143,-122.432995
1115 FITZGERALD AV,1115 Fitzgerald Av,NA,No,0,37.71991,-122.389964
59 REDDY ST,59 Reddy St,NA,No,0,37.73024,-122.394956
547 EDINBURG ST,547 Edinburg St,NA,No,0,37.720385,-122.432308
432 GEARY ST,432 Geary St,NA,No,0,37.787265,-122.410376
631 HAIGHT ST,631 Haight St,NA,No,0,37.77154,-122.432643
1218 GILMAN AV,1218 Gilman Av,NA,No,0,37.720941,-122.392377
5191 3rd ST,5191 3rd St,NA,No,0,37.730883,-122.391776
1728 OAKDALE AV,1728 Oakdale Av,NA,No,0,37.736174,-122.392578
54 4th ST,54 4th St,NA,No,0,37.784863,-122.405135
139 SWEENY ST,139 Sweeny St,NA,No,0,37.732714,-122.408098
425 HYDE ST,425 Hyde St,NA,No,0,37.784804,-122.416504
334 TOCOLOMA AV,334 Tocoloma Av,NA,No,0,37.710952,-122.398664
736 FILBERT ST,736 Filbert St,NA,No,0,37.801219,-122.412069
2888 23rd ST,2888 23rd St,NA,No,0,37.75455,-122.410006
257 ROME ST,257 Rome St,NA,No,0,37.715215,-122.447186
31 PASADENA ST,31 Pasadena St,NA,No,0,37.709087,-122.418486
135 ALPHA ST,135 Alpha St,NA,No,0,37.714094,-122.403906
1363 PALOU AV,1363 Palou Av,NA,No,0,37.731264,-122.386656
1243 GILMAN AV,1243 Gilman Av,NA,No,0,37.720658,-122.39295
2861 CALIFORNIA ST,2861 California St,NA,No,0,37.787646,-122.441319
1000 MASONIC AV,1000 Masonic Av,NA,No,0,37.771985,-122.445384
150 REY ST,150 Rey St,NA,No,0,37.711698,-122.412177
116 TURK ST,116 Turk St,NA,No,0,37.783399,-122.41127
627 EDINBURG ST,627 Edinburg St,NA,No,0,37.719105,-122.433272
360 SWEENY ST,360 Sweeny St,NA,No,0,37.731858,-122.412305
736 GIRArd ST,736 Girard St,NA,No,0,37.72314,-122.403176
1600 SANTIAGO ST,1600 Santiago St,NA,No,0,37.744671,-122.48469
154 PORTOLA DR,154 Portola Dr,NA,No,0,37.748474,-122.444491
510 BUSH ST,510 Bush St,NA,No,0,37.790725,-122.40578
418 3rd AV,418 3rd Av,NA,No,0,37.780666,-122.460704
2257 33rd AV,2257 33rd Av,NA,No,0,37.745038,-122.49121
1117 TREAT AV,1117 Treat Av,NA,No,0,37.752258,-122.412662
1343 41ST AV,1343 41St Av,NA,No,0,37.761678,-122.500969
176 SEVILLE ST,176 Seville St,NA,No,0,37.711779,-122.437324
1361 FRANCISCO ST,1361 Francisco St,NA,No,0,37.802595,-122.427524
5789 MISSION ST,5789 Mission St,NA,No,0,37.709429,-122.450079
615 PRAGUE ST,615 Prague St,NA,No,0,37.712386,-122.431882
1460 MONTEREY BL,1460 Monterey Bl,NA,No,0,37.732415,-122.464119
2218 36th AV,2218 36th Av,NA,No,0,37.745576,-122.493812
21 WOOD ST,21 Wood St,NA,No,0,37.783421,-122.449615
803 PAGE ST,803 Page St,NA,No,0,37.772424,-122.434305
3221 BALBOA ST,3221 Balboa St,NA,No,0,37.775643,-122.493464
754 LAKE ST,754 Lake St,NA,No,0,37.786747,-122.467736
82 POND ST,82 Pond St,NA,No,0,37.762875,-122.432243
2839 FOLSOM ST,2839 Folsom St,NA,No,0,37.751926,-122.413788
67 PIERCE ST,67 Pierce St,NA,No,0,37.770159,-122.433714
3437 MISSION ST,3437 Mission St,NA,No,0,37.741552,-122.422187
2852 BRYANT ST,2852 Bryant St,NA,No,0,37.748811,-122.40907
57 EUREKA ST,57 Eureka St,NA,No,0,37.761442,-122.438017
147 BUENA VISTA AVE EAST AV,147 Buena Vista Ave East Av,NA,No,0,37.769599,-122.438345
3101 TARAVAL ST,3101 Taraval St,NA,No,0,37.741859,-122.499473
3426 19th ST,3426 19th St,NA,No,0,37.760401,-122.419874
1903 23rd ST,1903 23rd St,NA,No,0,37.754501,-122.398946
1439 SOUth VAN NESS AV,1439 South Van Ness Av,NA,No,0,37.750136,-122.415704
1407 MASON ST,1407 Mason St,NA,No,0,37.796406,-122.411973
1717 15th AV,1717 15th Av,NA,No,0,37.755964,-122.472825
825 HAMPSHIRE ST,825 Hampshire St,NA,No,0,37.758899,-122.40759
218 12th AV,218 12th Av,NA,No,0,37.784122,-122.470623
1285 RHODE ISLAND ST,1285 Rhode Island St,NA,No,0,37.753497,-122.401305
80 ARLETA AV,80 Arleta Av,NA,No,0,37.713215,-122.404217
516 OFARRELL ST,516 O'Farrell St,Crosby Hotel,Yes,139,37.785918,-122.413387
520 SOUth VAN NESS AV,520 South Van Ness Av,Mission Hotel,Yes,39,37.764634,-122.417881
